0233896640876012017010123554-77850+166667FM-15+002499999V0200901N00571030481CN009999199-00401-00701099191ADDGA1021+001221999GA2041+030481999GA3071+045721999GE19MSL   +99999+99999GF199999021999001221999999MA1099151098785MW1401OC100821REMMET096METAR NZCM 012355Z 09011G16KT 9999 VCFG FEW004 SCT100 BKN150 M04/M07 A2928 RMK SLP919 VCFG SE-S=
0279896640876012017010200004-77850+166667FM-12+002499999V0200901N005719999999N011000199-00451-00741099191ADDAY121021AY221021GA1021+001201071GA2999+999999031GA3999+999999001GE19MSL   +99999+99999GF106991021999001201999999KA1120M-00401KA2120N-00561MA1099165098781MD1710071+9999MW1401REMSYN09489664 31261 60911 11045 21074 39878 49919 57007 74022 82631 333 11040 21056 56344 59019 82704=
0211896640876012017010202554-77850+166667FM-15+002499999V0200801N005710365819N009999199-00401-00701099081ADDGA1021+000911999GA2071+036581999GA3071+045721999GE19MSL   +99999+99999GF199999021999000911999999MA1099051098675REMMET088METAR NZCM 020255Z 08011KT 9999 FEW003 BKN120 BKN150 M04/M07 A2925 RMK SLP908 FG DSNT W=
0235896640876012017010203004-77850+166667FM-12+002499999V0200801N005719999999N011000199-00431-00721099081ADDAY121021AY221021GA1011+000901071GA2999+999999031GA3999+999999001GE19MSL   +99999+99999GF106991011999000901999999MA1099045098661MD1710121+9999MW1401REMSYN07689664 41161 60811 11043 21072 39866 49908 57012 74022 81672 333 56344 81703=
0200896640876012017010205554-77850+166667FM-15+002499999V0200801N003610365819N009999199+00001-01101098961ADDGA1021+001521999GA2071+036581999GA3071+045721999GE19MSL   +99999+99999GF199999021999001521999999MA1098921098555REMMET077METAR NZCM 020555Z 08007KT 9999 FEW005 BKN120 BKN150 00/M11 A2921 RMK SLP896=
0213896640876012017010206004-77850+166667FM-12+002499999V0200801N003619999999N011000199-00031-01081098961ADDGA1011+001501071GA2031+036001031GA3999+999999001GE19MSL   +99999+99999GF106991011999001501999999MA1098935098551MD1710111+9999REMSYN07689664 32261 60807 11003 21108 39855 49896 57011 81671 333 56344 81705 83362=
0210896640876012017010208554-77850+166667FM-15+002499999V0200801N00261030481CN009999199+00001-01301098871ADDGA1021+021341999GA2041+030481999GA3071+045721999GE19MSL   +99999+99999GF199999021999021341999999MA1098851098465REMMET087METAR NZCM 020855Z 08005KT 9999 FEW070 SCT100 BKN150 00/M13 A2919 RMK SLP887 FG DSNT W=
0225896640876012017010209004-77850+166667FM-12+002499999V0200801N002619999999N011000199+00001-01291098871ADDAY121021AY221021GA1011+021001031GA2041+030001031GE19MSL   +99999+99999GF106991011999021001999999MA1098845098461MD1810091+9999MW1401REMSYN08289664 41861 60805 10000 21129 39846 49887 58009 74022 84071 333 56044 81357 84360=
0222896640876012017010211554-77850+166667FM-15+002499999V0209999V00311048771CN009999199-00301-01101098731ADDGA1021+010671999GA2021+039621999GA3041+048771999GE19MSL   +99999+99999GF199999021999010671999999MA1098681098325REMMET099METAR NZCM 021155Z COR VRB06KT 9999 FEW035 FEW130 SCT160 M03/M11 A2914 RMK SLP873 FATA MORGANA S-W=
0269896640876012017010212004-77850+166667FM-12+002499999V0209999V003119999999N011000199-00291-01061098731ADDGA1011+010501061GA2999+999999031GA3999+999999001GE19MSL   +99999+99999GF104991011999010501999999KA1240M+00051KA2240N-00581MA1098705098321MD1710141+9999REMSYN10689664 32661 49906 11029 21106 39832 49873 57014 81571 333 10005 21058 56344 59064 81635 99114 99115 99116=
0192896640876012017010214554-77850+166667FM-15+002499999V0209999C000019999999N009999199+00001-01201098531ADDGA1021+039621999GA2021+048771999GE19MSL   +99999+99999GF199999021999039621999999MA1098481098135REMMET085METAR NZCM 021455Z 00000KT 9999 FEW130 FEW160 00/M12 A2908 RMK SLP853 FATA MORGANA S=
0197896640876012017010215004-77850+166667FM-12+002499999V0209999C000019999999N011000199-00011-01201098531ADDGA1011+039001031GA2999+999999001GE19MSL   +99999+99999GF102991011999039001999999MA1098505098121MD1710201+9999REMSYN07689664 42961 20000 11001 21120 39812 49853 57020 81072 333 56044 81363 99114=
0178896640876012017010217554-77850+166667FM-15+002499999V0209999C000019999999N009999199-00101-01401098331ADDGA1021+039621999GA2021+048771999GE19MSL   +99999+99999GF199999021999039621999999MA1098311097935REMMET071METAR NZCM 021755Z 00000KT 9999 FEW130 FEW160 M01/M14 A2903 RMK SLP833=
0191896640876012017010218004-77850+166667FM-12+002499999V0209999C000019999999N011000199-00121-01401098331ADDGA1011+039001031GA2999+999999001GE19MSL   +99999+99999GF101991011999039001999999MA1098295097921MD1710201+9999REMSYN07089664 32961 10000 11012 21140 39792 49833 57020 81071 333 56044 81363=
0177896640876012017010220554-77850+166667FM-15+002499999V0209999V001519999999N009999199+00001-01401098071ADDGA1021+006101999GA2021+030481999GE19MSL   +99999+99999GF199999021999006101999999MA1098041097675REMMET070METAR NZCM 022055Z VRB03KT 9999 FEW020 FEW100 00/M14 A2895 RMK SLP807=
0169896640876012017010223554-77850+166667FM-15+002499999V0203101N004119999999N009999199+00201-01601097801ADDGA1021+030481999GE19MSL   +99999+99999GF199999021999030481999999MA1097761097405REMMET078METAR NZCM 022355Z 31008KT 9999 FEW100 02/M16 A2887 RMK SLP780 FATA MORGANA W=
0225896640876012017010300004-77850+166667FM-12+002499999V0203101N004119999999N011000199+00221-01601097801ADDGA1011+030001031GE19MSL   +99999+99999GF101991011999030001999999KA1120M+00251KA2120N-00321MA1097765097391MD1710271+9999REMSYN09489664 32961 13108 10022 21160 39739 49780 57027 81070 333 10025 21032 56040 59139 81360 99116=
0165896640876012017010302554-77850+166667FM-15+002499999V0203401N005110274319N009999199+00101-01201097541ADDGA1071+027431999GE19MSL   +99999+99999GF199999071999027431999999MA1097491097145OC100821REMMET066METAR NZCM 030255Z 34010G16KT 9999 BKN090 01/M12 A2879 RMK SLP754=
0175896640876012017010303004-77850+166667FM-12+002499999V0203401N005110270019N011000199+00111-01251097541ADDGA1061+027001031GE19MSL   +99999+99999GF106991061999027001999999MA1097505097131MD1710261+9999REMSYN07089664 42961 63410 10011 21125 39713 49754 57026 86070 333 56040 86359=
0210896640876012017010305554-77850+166667FM-15+002499999V0203401N004610213419N009999199+00301-01501097361ADDGA1021+009141999GA2071+021341999GA3071+027431999GE19MSL   +99999+99999GF199999021999009141999999MA1097321096965REMMET087METAR NZCM 030555Z 34009KT 9999 FEW030 BKN070 BKN090 03/M15 A2874 RMK SLP736 SN DSNT S=
0225896640876012017010306004-77850+166667FM-12+002499999V0203401N00461021001CN011000199+00271-01471097361ADDAY121021AY221021GA1021+009001061GA2031+021001031GE19MSL   +99999+99999GF107991021999009001999999MA1097335096961MD1710171+9999MW1151REMSYN08289664 31561 73409 10027 21147 39696 49736 57017 71522 82570 333 56440 82630 83357=
0188896640876012017010308554-77850+166667FM-15+002499999V0203401N006210213419N009999199+00201-01501097211ADDGA1021+009141999GA2081+021341999GE19MSL   +99999+99999GF199999021999009141999999MA1097191096815OC100931REMMET073METAR NZCM 030855Z 34012G18KT 9999 FEW030 OVC070 02/M15 A2870 RMK SLP721=
0197896640876012017010309004-77850+166667FM-12+002499999V0203401N006210210019N011000199+00221-01501097211ADDGA1021+009001061GA2081+021001041GE19MSL   +99999+99999GF108991021999009001999999MA1097175096801MD1710061+9999REMSYN07689664 42561 83412 10022 21150 39680 49721 57006 8257/ 333 56040 82630 88457=
0221896640876012017010311554-77850+166667FM-15+002499999V0203401N008810152419N009999199+00001-01001097121ADDGA1021+003051999GA2071+015241999GA3081+021341999GE19MSL   +99999+99999GF199999021999003051999999MA1097091096725OC101241REMMET090METAR NZCM 031155Z 34017G24KT 9999 FEW010 BKN050 OVC070 00/M10 A2867 RMK SLP712 SN DSNT S=
0291896640876012017010312004-77850+166667FM-12+002499999V0203401N00881015001CN011000199+00041-01051097121ADDAY121021AY221021GA1021+003001071GA2051+015001061GA3081+021001041GE19MSL   +99999+99999GF108991021999003001999999KA1240M+00271KA2240N+00021MA1097095096721MD1710081+9999MW1151REMSYN10689664 31461 83417 10004 21105 39672 49712 57008 71522 8657/ 333 10027 20002 56049 59160 82710 85650 88457=
0253896640876012017010314554-77850+166667FM-15+002499999V0203401N006210134119N009999199+00101-01201097201ADDGA1021+003051999GA2071+013411999GA3081+015241999GE19MSL   +99999+99999GF199999021999003051999999MA1097161096805OC100981OD149901391350REMMET108METAR NZCM 031455Z 34012G19KT 9999 FEW010 BKN044 OVC050 01/M12 A2869 RMK PK WND 35027/1313 SLP720 SN DSNT S=
0247896640876012017010315004-77850+166667FM-12+002499999V0203401N00621013201CN011000199+00091-01191097201ADDAY121021AY221021GA1021+003001071GA2051+013201061GA3081+015001061GE19MSL   +99999+99999GF108991021999003001999999MA1097175096801MD1310081+9999MW1151REMSYN08889664 41461 83412 10009 21119 39680 49720 53008 71522 885// 333 56399 82710 85644 88650=
0227896640876012017010317554-77850+166667FM-15+002499999V0203401N007210152419N009999199+00001-00801097391ADDGA1021+003051999GA2071+015241999GA3081+018291999GE19MSL   +99999+99999GF199999021999003051999999MA1097361096995MW1711OC100981REMMET090METAR NZCM 031755Z 34014G19KT 9999 -SN FEW010 BKN050 OVC060 00/M08 A2875 RMK SNB45 SLP739=
0286896640876012017010318004-77850+166667FM-12+002499999V0203401N00721015001CN011000199-00051-00841097391ADDAA106000021AL19900031AY171021AY221021GA1021+003001071GA2051+015001061GA3071+018001061GE19MSL   +99999+99999GF108991021999003001999999MA1097365096991MD1210191+9999MW1711REMSYN10689664 11461 83414 11005 21084 39699 49739 52019 69901 77172 885// 333 56399 82710 85650 87656 90910 93197=
0210896640876012017010320554-77850+166667FM-15+002499999V0203401N006710076219N002400199+00101-00301999999ADDGA1021+001521999GA2021+003051999GA3081+007621999GE19MSL   +99999+99999GF199999021999001521999999MW1101MW2711REMMET090METAR NZCM 032055Z 34013KT 2400 -SN BR FEW005 FEW010 OVC025 01/M03 RMK SNE1820B1855 SLPNO=
0225896640876012017010321004-77850+166667FM-12+002499999V0203401N00671007501CN002400199+00131-00301097615ADDAY171021AY221021GA1011+001501071GA2071+007501061GE19MSL   +99999+99999GF108991011999001501999999MA1097585097211MD1210221+9999MW1711REMSYN08289664 41224 83413 10013 21030 39721 52022 77172 885// 333 56399 81705 87625 96010=
0231896640876012017010323554-77850+166667FM-15+002499999V0203401N00621004571CN002400199-00201-00301097791ADDGA1021+002131999GA2041+004571999GA3081+007621999GE19MSL   +99999+99999GF199999021999002131999999MA1097761097395MW1101MW2711OC100881REMMET088METAR NZCM 032355Z 34012G17KT 2400 -SN BR FEW007 SCT015 OVC025 M02/M03 A2887 RMK SLP779=
0314896640876012017010400004-77850+166667FM-12+002499999V0203401N006219999999N002400199-00191-00291097791ADDAA112000331AL19900031AY171021AY271021GA1011+002101071GA2041+004501061GE19MSL   +99999+99999GF108991011999002101999999KA1120M+00121KA2120N-00221MA1097755097381MD1210171+9999MW1711REMSYN12489664 11324 83412 11019 21029 39738 49779 52017 69932 77177 885// 333 10012 21022 56399 59001 81707 84615 90956 93197 96010=
0228896640876012017010402554-77850+166667FM-15+002499999V0203401V005110076219N003200199-00201-00301098001ADDGA1041+002131999GA2071+007621999GA3081+009141999GE19MSL   +99999+99999GF199999041999002131999999MA1097971097605MW1101MW2711REMMET093METAR NZCM 040255Z 34010KT 310V020 3200 -SN BR SCT007 BKN025 OVC030 M02/M03 A2893 RMK SLP800=
0231896640876012017010403004-77850+166667FM-12+002499999V0203401N00511009001CN003200199-00191-00301098001ADDAY171021AY271021GA1031+002101071GA2041+009001061GE19MSL   +99999+99999GF108991031999002101999999MA1097965097591MD1210211+9999MW1711REMSYN08889664 41332 83410 11019 21030 39759 49800 52021 77177 885// 333 56399 83707 84630 96010=
0196896640876012017010405554-77850+166667FM-15+002499999V0203201N004110009119N000800199-00201-00301098241ADDGA1071+000911999GA2081+003051999GE19MSL   +99999+99999GF199999071999000911999999MA1098201097835MW1101MW2731REMMET077METAR NZCM 040555Z 32008KT 0800 SN BR BKN003 OVC010 M02/M03 A2900 RMK SLP824=
0248896640876012017010406004-77850+166667FM-12+002499999V0203201N004110009019N000800199-00211-00281098241ADDAA106002031AL19900031AY171021AY271021GA1061+000901071GE19MSL   +99999+99999GF108991061999000901999999MA1098205097831MD1210241+9999MW1731REMSYN10089664 11108 83208 11021 21028 39783 49824 52024 60021 77377 886// 333 56399 86703 90973 93197 96010=
0173896640876012017010408554-77850+166667FM-15+002499999V0203501N006210036619N001200199-00201-00301999999ADDGA1081+003661999GE19MSL   +99999+99999GF199999081999003661999999MA1098481999999MW1101MW2711REMMET070METAR NZCM 040855Z 35012KT 1200 -SN BR OVC012 M02/M03 A2908 RMK SLPNO=
0203896640876012017010409004-77850+166667FM-12+002499999V0203501N006210036019N001200199-00191-00321098515ADDAY171021AY271021GA1081+003601071GE19MSL   +99999+99999GF108991081999003601999999MA1098485098101MD1210271+9999MW1711REMSYN07689664 41412 83512 11019 21032 39810 52027 77177 886// 333 56399 88712 96010=
0188896640876012017010411554-77850+166667FM-15+002499999V0203301N003610015219N009999199-00201-00301098811ADDGA1071+001521999GA2081+003661999GE19MSL   +99999+99999GF199999071999001521999999MA1098781098405MW1711REMMET075METAR NZCM 041155Z 33007KT 9999 -SN BKN005 OVC012 M02/M03 A2917 RMK SLP881=
0308896640876012017010412004-77850+166667FM-12+002499999V0203301N003610015019N011000199-00221-00291098811ADDAA112004031AL19900231AY171021AY271021GA1051+001501071GA2081+003601071GE19MSL   +99999+99999GF108991051999001501999999KA1240M-00111KA2240N-00221MA1098785098401MD1210301+9999MW1711REMSYN11889664 11261 83307 11022 21029 39840 49881 52030 60042 77177 886// 333 11011 21022 56399 58168 85705 88712 90983 93102=
0216896640876012017010414554-77850+166667FM-15+002499999V0203301N003610012219N001600199-00201-00301099091ADDGA1071+001221999GA2081+003051999GE19MSL   +99999+99999GF199999071999001221999999MA1999995098685MW1101MW2711REMMET078METAR NZCM 041455Z 33007KT 1600 -SN BR BKN004 OVC010 M02/M03 A2952 RMK SLP909=EQDQ01999.7 3APOA  
0231896640876012017010415004-77850+166667FM-12+002499999V0203301N003610012019N001600199-00201-00271099091ADDAY171021AY271021GA1051+001201071GA2081+003001071GE19MSL   +99999+99999GF108991051999001201999999MA1099055098671MD1210271+9999MW1711REMSYN08889664 41216 83307 11020 21027 39867 49909 52027 77177 886// 333 56399 85704 88710 96010=
0184896640876012017010417554-77850+166667FM-15+002499999V0209999V002110021319N009999199-00201-00401099431ADDGA1071+002131999GA2071+014631999GE19MSL   +99999+99999GF199999071999002131999999MA1099391099025REMMET077METAR NZCM 041755Z VRB04KT 9999 BKN007 BKN048 M02/M04 A2935 RMK SNE05 SLP943=
0264896640876012017010418004-77850+166667FM-12+002499999V0209999V002110021019N011000199-00201-00361099431ADDAA118004031AL19900231AY171021AY221021GA1051+002101071GA2071+014401061GE19MSL   +99999+99999GF107991051999002101999999MA1099395099011MD1210341+9999MW1221REMSYN10089664 11361 79904 11020 21036 39901 49943 52034 60043 72272 87500 333 56300 85707 87648 90983 93102=
0193896640876012017010420554-77850+166667FM-15+002499999V0209999V002610146319N009999199-00201-00401099761ADDGA1021+003051999GA2071+014631999GE19MSL   +99999+99999GF199999021999003051999999MA1099731099355REMMET086METAR NZCM 042055Z VRB05KT 9999 FEW010 BKN048 M02/M04 A2945 RMK SLP976 SN DSNT S-W-NW=
0225896640876012017010421004-77850+166667FM-12+002499999V0209999V00261014401CN011000199-00201-00441099761ADDAY121021AY221021GA1011+003001061GA2071+014401061GE19MSL   +99999+99999GF107991011999003001999999MA1099735099351MD1210341+9999MW1151REMSYN08289664 41461 79905 11020 21044 39935 49976 52034 71522 87500 333 56300 81610 87648=
0218896640876012017010423554-77850+166667FM-15+002499999V0201601N00821014631CN009999199-00101-00301100021ADDGA1021+003051999GA2041+014631999GA3071+054861999GE19MSL   +99999+99999GF199999021999003051999999MA1100002099615REMMET095METAR NZCM 042355Z 16016KT 9999 FEW010 SCT048 BKN180 M01/M03 A2953 RMK SLP002 SN DSNT S AND NW=
0308896640876012017010500004-77850+166667FM-12+002499999V0201601N008219999999N011000199-00151-00341100021ADDAA124004031AL19900231AY121021AY221021GA1011+003001071GA2031+014401061GE19MSL   +99999+99999GF106991011999003001999999KA1120M-00121KA2120N-00331MA1999999099601MD1210251+9999MW1151REMSYN11889664 11461 61616 11015 21034 39960 40002 52025 60044 71522 83502 333 11012 21033 56303 58222 81710 83648 90973 93102=
0224896640876012017010502554-77850+166667FM-15+002499999V0201701N010810198119N009999199+00101-00101999999ADDGA1021+003051999GA2021+014631999GA3071+019811999GE19MSL   +99999+99999GF199999021999003051999999MA1100242999999OC101341REMMET093METAR NZCM 050255Z COR 17021G26KT 9999 FEW010 FEW048 BKN065 01/M01 A2960 RMK SLPNO SN DSNT S=
0219896640876012017010503004-77850+166667FM-12+002499999V0201701N01081018001CN011000199+00061-00301100285ADDAY121021AY221021GA1011+003001071GA2061+018001061GE19MSL   +99999+99999GF107991011999003001999999MA1999999099871MD1210271+9999MW1151REMSYN07689664 41461 71721 10006 21030 39987 52027 71522 87500 333 56300 81710 86656=
0218896640876012017010505554-77850+166667FM-15+002499999V0201601N00821021341CN009999199-00101-00301100381ADDGA1021+003051999GA2041+021341999GA3081+054861999GE19MSL   +99999+99999GF199999021999003051999999MA1100342099975REMMET095METAR NZCM 050555Z 16016KT 9999 FEW010 SCT070 OVC180 M01/M03 A2963 RMK SLP038 SN DSNT S AND NW=
0247896640876012017010506004-77850+166667FM-12+002499999V0201601N008210540019N011000199-00131-00331100381ADDAY121021AY221021GA1011+003001071GA2031+021001031GA3051+054001021GE19MSL   +99999+99999GF108991011999003001999999MA1999999099961MD1310091+9999MW1151REMSYN08889664 31461 81616 11013 21033 39996 40038 53009 71522 81676 333 56338 81710 83357 85268=
0201896640876012017010508554-77850+166667FM-15+002499999V0201601N007210146319N009999199-00101-00301100491ADDGA1041+002131999GA2071+014631999GA3081+054861999GE19MSL   +99999+99999GF199999041999002131999999MA1100442100085REMMET078METAR NZCM 050855Z 16014KT 9999 SCT007 BKN048 OVC180 M01/M03 A2966 RMK SLP049=
0212896640876012017010511554-77850+166667FM-15+002499999V0200901N003610036619N009999199-00201-00401100541ADDGA1041+002131999GA2071+003661999GA3081+006101999GE19MSL   +99999+99999GF199999041999002131999999MA1100512100125REMMET089METAR NZCM 051155Z 09007KT 9999 SCT007 BKN012 OVC020 M02/M04 A2968 RMK SLP054 FG DSNT SE=
0219896640876012017010517554-77850+166667FM-15+002499999V0200701N005110213419N009999199-00301-00501100381ADDGA1041+002131999GA2071+021341999GA3081+027431999GE19MSL   +99999+99999GF199999041999002131999999MA1100342099965REMMET096METAR NZCM 051755Z 07010KT 9999 SCT007 BKN070 OVC090 M03/M05 A2963 RMK SLP038 FG DSNT SE AND SW=
0283896640876012017010518004-77850+166667FM-12+002499999V0200701N005110270019N011000199-00351-00491100381ADDAA106000091AL19900031AY171021AY221021GA1031+002101071GA2081+027001041GE19MSL   +99999+99999GF108991031999002101999999MA1999999099961MD1610091+9999MW1401REMSYN10089664 11361 80710 11035 21049 39996 40038 56009 69901 74072 8367/ 333 56389 83707 88459 90951 93197=EQDQ01  00002PRCP06
0201896640876012017010520554-77850+166667FM-15+002499999V0200401N006210487719N009999199-00101-00701100221ADDGA1021+002131999GA2021+006101999GA3081+048771999GE19MSL   +99999+99999GF199999021999002131999999MA1100202099815REMMET078METAR NZCM 052055Z 04012KT 9999 FEW007 FEW020 OVC160 M01/M07 A2959 RMK SLP022=
0197896640876012017010521004-77850+166667FM-12+002499999V0200401N006210480019N011000199-00141-00661100221ADDGA1011+002101071GA2081+048001021GE19MSL   +99999+99999GF108991011999002101999999MA1999999099801MD1710161+9999REMSYN07689664 42361 80412 11014 21066 39980 40022 57016 81507 333 56308 81707 88266=
0177896640876012017010523554-77850+166667FM-15+002499999V0201001N002610487719N009999199+00001-00501100111ADDGA1021+009141999GA2071+048771999GE19MSL   +99999+99999GF199999021999009141999999MA1100072099705REMMET070METAR NZCM 052355Z 10005KT 9999 FEW030 BKN160 00/M05 A2955 RMK SLP011=
0299896640876012017010600004-77850+166667FM-12+002499999V0201001N00261048001CN011000199+00001-00491100111ADDAA112000091AL19900031GA1011+009001061GA2071+048001021GE19MSL   +99999+99999GF107991011999009001999999KA1120M+00041KA2120N-00361MA1999999099701MD1610101+9999REMSYN11289664 12561 71005 10000 21049 39970 40011 56010 69902 81508 333 10004 21036 56308 58010 81630 87266 90971 93197=EQDQ01  00002PRCP12
0200896640876012017010602554-77850+166667FM-15+002499999V0209999V002610609619N009999199+00001-00801099901ADDGA1021+009141999GA2021+039621999GA3071+060961999GE19MSL   +99999+99999GF199999021999009141999999MA1099861099495REMMET077METAR NZCM 060255Z VRB05KT 9999 FEW030 FEW130 BKN200 00/M08 A2949 RMK SLP990=
0213896640876012017010603004-77850+166667FM-12+002499999V0209999V00261060001CN011000199+00021-00801099901ADDGA1011+009001061GA2071+060001001GA3999+999999001GE19MSL   +99999+99999GF107991011999009001999999MA1099865099481MD1710221+9999REMSYN07689664 42561 79905 10002 21080 39948 49990 57022 81571 333 56388 81630 87070=
0177896640876012017010605554-77850+166667FM-15+002499999V0203401N004110609619N009999199+00101-00701099711ADDGA1021+039621999GA2071+060961999GE19MSL   +99999+99999GF199999021999039621999999MA1099661099305REMMET070METAR NZCM 060555Z 34008KT 9999 FEW130 BKN200 01/M07 A2943 RMK SLP971=
0176896640876012017010608554-77850+166667FM-15+002499999V0203301N002610365819N009999199+00101-00401999999ADDGA1071+036581999GA2071+060961999GE19MSL   +99999+99999GF199999071999036581999999MA1099531999999REMMET069METAR NZCM 060855Z 33005KT 9999 BKN120 BKN200 01/M04 A2939 RMK SLPNO=
0185896640876012017010609004-77850+166667FM-12+002499999V0203301N002610360019N011000199+00091-00451099885ADDGA1071+036001031GA2999+999999001GE19MSL   +99999+99999GF107991071999036001999999MA1099855099471MD1310181+9999REMSYN06489664 42961 73305 10009 21045 39947 53018 87071 333 56088 87362=
0198896640876012017010611554-77850+166667FM-15+002499999V0203401N005710670619N009999199-00201-00501099381ADDGA1041+036581999GA2071+067061999GE19MSL   +99999+99999GF199999041999036581999999MA1099361098975REMMET091METAR NZCM 061155Z 34011KT 9999 SCT120 BKN220 M02/M05 A2934 RMK SLP938 FG DSNT SE-S AND SW=
0231896640876012017010612004-77850+166667FM-12+002499999V0203401N005710660019N011000199-00171-00511099381ADDAY121021AY221021GA1041+036001031GA2071+066001021GE19MSL   +99999+99999GF107991041999036001999999MA1099345098961MD1710511+9999MW1401REMSYN08889664 31961 73411 11017 21051 39896 49938 57051 74022 84077 333 56088 59116 84362 87272=
0248896640876012017010612554-77850+166667FM-15+002499999V0200701N00211036581CN009999199-01002-01101099361ADDGA1021+003051999GA2041+036581999GA3071+057911999GE19MSL   +99999+99999GF199999021999003051999999MA1099361098945MW1401REMMET119METAR NZCM 061255Z 07004KT 9999 VCFG FEW010 SCT120 BKN190 M10/M11 A2934 RMK SLP936 VCFG GRID NW-NE GRID24004KT SDG/HDG=
0208896640876012017010614554-77850+166667FM-15+002499999V0209999C000010304819N009999199-00201-00801999999ADDGA1021+001521999GA2071+030481999GA3071+067061999GE19MSL   +99999+99999GF199999021999001521999999MA1099191999999REMMET085METAR NZCM 061455Z 00000KT 9999 FEW005 BKN100 BKN220 M02/M08 A2929 RMK SLPNO VCFG SE=
0177896640876012017010615004-77850+166667FM-12+002499999V0209999C000019999999N011000199-00251-00791099225ADDGA1999+001501999GE19MSL   +99999+99999GF107991999999001501999999MA1099195098811MD1619999+9999REMSYN07289664 41261 70000 11025 21079 39881 56688 57015 74122 81671 81705 86360=
0212896640876012017010617554-77850+166667FM-15+002499999V0203401N007210304819N009999199-00101-00401099151ADDGA1021+000611999GA2071+030481999GA3071+067061999GE19MSL   +99999+99999GF199999021999000611999999MA1099121098745OC101031REMMET081METAR NZCM 061755Z 34014G20KT 9999 FEW002 BKN100 BKN220 M01/M04 A2927 RMK SLP915=
0213896640876012017010618004-77850+166667FM-12+002499999V0203401N00721030001CN011000199-00141-00431099151ADDGA1011+000601071GA2071+030001031GA3999+999999001GE19MSL   +99999+99999GF107991011999000601999999MA1099125098741MD1610071+9999REMSYN07689664 32161 73414 11014 21043 39874 49915 56007 81671 333 56688 81702 87360=
0188896640876012017010620554-77850+166667FM-15+002499999V0203501N006710304819N009999199-00101-00501999999ADDGA1021+006101999GA2071+030481999GE19MSL   +99999+99999GF199999021999006101999999MA1099091999999OC101081REMMET073METAR NZCM 062055Z 35013G21KT 9999 FEW020 BKN100 M01/M05 A2926 RMK SLPNO=
0191896640876012017010621004-77850+166667FM-12+002499999V0203501N00671030001CN011000199-00061-00461099135ADDGA1011+006001061GA2061+030001031GE19MSL   +99999+99999GF107991011999006001999999MA1099105098721MD1810021+9999REMSYN07089664 42561 73513 11006 21046 39872 58002 81570 333 56680 81620 86360=
0201896640876012017010623554-77850+166667FM-15+002499999V0203201N005110304819N009999199-00101-00401099151ADDGA1021+006101999GA2071+030481999GA3071+039621999GE19MSL   +99999+99999GF199999021999006101999999MA1099121098745REMMET078METAR NZCM 062355Z 32010KT 9999 FEW020 BKN100 BKN130 M01/M04 A2927 RMK SLP915=
0203896640876012017010700004-77850+166667FM-12+002499999V0203201N00511030001CN011000199-00081-00371099151ADDGA1011+006001061GA2061+030001031GE19MSL   +99999+99999GF107991011999006001999999MA1099125098741MD1310021+9999REMSYN08289664 32561 73210 11008 21037 39874 49915 53002 81570 333 56680 59096 81620 86360=
0210896640876012017010702554-77850+166667FM-15+002499999V0203301N005110304819N009999199+00001-00401999999ADDGA1021+006101999GA2071+030481999GA3071+039621999GE19MSL   +99999+99999GF199999021999006101999999MA1099121999999OC100771REMMET079METAR NZCM 070255Z 33010G15KT 9999 FEW020 BKN100 BKN130 00/M04 A2927 RMK SLPNO=
0191896640876012017010703004-77850+166667FM-12+002499999V0203301N00511030001CN011000199+00021-00451099145ADDGA1011+006001061GA2051+030001031GE19MSL   +99999+99999GF106991011999006001999999MA1099115098731MD1610011+9999REMSYN07089664 42561 63310 10002 21045 39873 56001 81570 333 56680 81620 85360=
0211896640876012017010705554-77850+166667FM-15+002499999V0203201N00571039621CN009999199+00001-00401099221ADDGA1021+006101999GA2021+030481999GA3021+039621999GE19MSL   +99999+99999GF199999021999006101999999MA1099191098815OC100881REMMET080METAR NZCM 070555Z 32011G17KT 9999 FEW020 FEW100 FEW130 00/M04 A2929 RMK SLP922=
0191896640876012017010706004-77850+166667FM-12+002499999V0203201N005719999999N011000199+00001-00381099221ADDGA1011+006001061GA2999+999999031GE19MSL   +99999+99999GF102991011999006001999999MA1099185098801MD1310071+9999REMSYN07089664 32561 23211 10000 21038 39880 49922 53007 81570 333 56680 81620=
0177896640876012017010708554-77850+166667FM-15+002499999V0203101N003619999999N009999199+00001-00301099301ADDGA1021+003051999GA2021+030481999GE19MSL   +99999+99999GF199999021999003051999999MA1099251098895REMMET070METAR NZCM 070855Z 31007KT 9999 FEW010 FEW100 00/M03 A2931 RMK SLP930=
0225896640876012017010709004-77850+166667FM-12+002499999V0201401N00571009001CN011000199+00391-00761099591ADDAY121021AY221021GA1011+003001071GA2061+009001061GE19MSL   +99999+99999GF106991011999003001999999MA1099555099171MD1210131+9999MW1361REMSYN08289664 41461 61411 10039 21076 39917 49959 52013 73622 87500 333 56400 81710 86630=
0187896640876012017010711054-77850+166667FM-15+002499999V0209999C000010304819N008000199-00301-00401099461ADDGA1041+001831999GA2071+030481999GE19MSL   +99999+99999GF199999041999001831999999MA1099421099055MW1101REMMET074METAR NZCM 071105Z 00000KT 8000 BR SCT006 BKN100 M03/M04 A2936 RMK SLP946=
0187896640876012017010711554-77850+166667FM-15+002499999V0209999C000010304819N008000199-00301-00401099461ADDGA1041+001831999GA2071+030481999GE19MSL   +99999+99999GF199999041999001831999999MA1099421099055MW1101REMMET074METAR NZCM 071155Z 00000KT 8000 BR SCT006 BKN100 M03/M04 A2936 RMK SLP946=
0263896640876012017010712004-77850+166667FM-12+002499999V0209999C000019999999N008000199-00331-00451099461ADDAY111021AY211021GA1041+001801071GA2999+999999031GE19MSL   +99999+99999GF105991041999001801999999KA1240M+00071KA2240N-00341MA1099425099041MD1210151+9999MW1101REMSYN09489664 41258 50000 11033 21045 39904 49946 52015 71011 84670 333 10007 21034 56880 58008 84706=
0240896640876012017010714554-77850+166667FM-15+002499999V0201401N005710091419N009999199-00401-00801099591ADDGA1021+003051999GA2071+009141999GE19MSL   +99999+99999GF199999021999003051999999MA1099561099185MW1361OD149901391140REMMET113METAR NZCM 071455Z COR 14011KT 9999 DRSN FEW010 BKN030 M04/M08 A2940 RMK PK WND 14027/1317 SLP959 BLSN DSNT SE-S=
0244896640876012017010717554-77850+166667FM-15+002499999V0201301V007710121919N009999199-00401-00701099751ADDGA1021+003051999GA2071+012191999GA3071+054861999GE19MSL   +99999+99999GF199999021999003051999999MA1099731099335MW1361OC101131REMMET107METAR NZCM 071755Z 13015G22KT 090V170 9999 DRSN FEW010 BKN040 BKN180 M04/M07 A2945 RMK SLP975 BLSN DSNT SE=
0225896640876012017010718004-77850+166667FM-12+002499999V0201301N007719999999N011000199-00441-00751099751ADDAY121021AY221021GA1011+003001071GA2041+009001061GE19MSL   +99999+99999GF107991011999003001999999MA1099725099341MD1210171+9999MW1361REMSYN08289664 31461 71315 11044 21075 39934 49975 52017 73622 86501 333 56404 81710 84630=
0244896640876012017010720554-77850+166667FM-15+002499999V0201301N008210106719N009999199-00401-00701099851ADDGA1021+003051999GA2071+010671999GA3071+054861999GE19MSL   +99999+99999GF199999021999003051999999MA1099801099435OC101291OD149901391170REMMET099METAR NZCM 072055Z 13016G25KT 9999 FEW010 BKN035 BKN180 M04/M07 A2947 RMK PK WND 17027/1801 SLP985=
0197896640876012017010721004-77850+166667FM-12+002499999V0201301N00821010501CN011000199-00431-00731099851ADDGA1011+003001071GA2061+010501061GE19MSL   +99999+99999GF107991011999003001999999MA1099815099431MD1210091+9999REMSYN07689664 42461 71316 11043 21073 39943 49985 52009 86501 333 56404 81710 86635=
0260896640876012017010723554-77850+166667FM-15+002499999V0201501N008810143319N009999199-00401-00601099871ADDGA1021+002741999GA2021+007621999GA3071+014331999GE19MSL   +99999+99999GF199999021999002741999999MA1099831099455OC101241OD149901391150REMMET115METAR NZCM 072355Z COR 15017G24KT 9999 FEW009 FEW025 BKN047 M04/M06 A2948 RMK PK WND 15027/2253 SLP987 BLSN DSNT S=
0241896640876012017010800004-77850+166667FM-12+002499999V0201501N00881014101CN011000199-00381-00651099871ADDGA1011+002701071GA2071+014101061GE19MSL   +99999+99999GF107991011999002701999999KA1120M-00181KA2120N-00481MA1099835099451MD1310021+9999REMSYN09489664 32361 71517 11038 21065 39945 49987 53002 87500 333 11018 21048 56400 58071 81709 87647=
0261896640876012017010802554-77850+166667FM-15+002499999V0201501N010810182919N009999199-00401-00701099861ADDGA1021+007621999GA2071+018291999GA3071+054861999GE19MSL   +99999+99999GF199999021999007621999999MA1099831099445OC101391OD149901641140REMMET116METAR NZCM 080255Z 15021G27KT 9999 FEW025 BKN060 BKN180 M04/M07 A2948 RMK PK WND 14032/0157 SLP986 BLSN DSNT S-W-NW=
0197896640876012017010803004-77850+166667FM-12+002499999V0201501N01081018001CN011000199-00361-00671099861ADDGA1011+007501061GA2061+018001061GE19MSL   +99999+99999GF107991011999007501999999MA1099825099441MD1810011+9999REMSYN07689664 42561 71521 11036 21067 39944 49986 58001 86501 333 56404 81625 86656=
0256896640876012017010805554-77850+166667FM-15+002499999V0201401N010310167619N009999199-00301-00701099901ADDGA1021+007621999GA2071+016761999GA3071+054861999GE19MSL   +99999+99999GF199999021999007621999999MA1099861099495OC101441OD149901591160REMMET111METAR NZCM 080555Z 14020G28KT 9999 FEW025 BKN055 BKN180 M03/M07 A2949 RMK PK WND 16031/0317 SLP990 BLSN DSNT S=
0197896640876012017010806004-77850+166667FM-12+002499999V0201401N01031015001CN011000199-00311-00671099901ADDGA1011+007501061GA2071+015001061GE19MSL   +99999+99999GF107991011999007501999999MA1099865099481MD1210041+9999REMSYN07689664 32561 71420 11031 21067 39948 49990 52004 87501 333 56404 81625 87650=
0219896640876012017010808554-77850+166667FM-15+002499999V0200701N005710274319N009999199-00301-00701099941ADDGA1041+006101999GA2071+027431999GA3071+054861999GE19MSL   +99999+99999GF199999041999006101999999MA1099901099535OC100821REMMET088METAR NZCM 080855Z 07011G16KT 9999 SCT020 BKN090 BKN180 M03/M07 A2950 RMK SCSL S SLP994=
0213896640876012017010809004-77850+166667FM-12+002499999V0200701N00571027001CN011000199-00311-00671099941ADDGA1031+006001061GA2031+027001031GA3999+999999001GE19MSL   +99999+99999GF107991031999006001999999MA1099905099521MD1110041+9999REMSYN07689664 42561 70711 11031 21067 39952 49994 51004 84572 333 56444 83620 83359=
0229896640876012017010811554-77850+166667FM-15+002499999V0200501N007710335319N009999199-00401-00701099961ADDGA1021+006101999GA2071+033531999GA3071+054861999GE19MSL   +99999+99999GF199999021999006101999999MA1099932099545OC101081REMMET098METAR NZCM 081155Z 05015G21KT 9999 FEW020 BKN110 BKN180 M04/M07 A2951 RMK SCSL S ACSL SE-S SLP996=
0221896640876012017010814554-77850+166667FM-15+002499999V0200601N006710304819N009999199-00401-00801099861ADDGA1021+009141999GA2071+030481999GA3071+054861999GE19MSL   +99999+99999GF199999021999009141999999MA1099831099445REMMET098METAR NZCM 081455Z 06013KT 9999 FEW030 BKN100 BKN180 M04/M08 A2948 RMK SCSL S ACSL N AND S SLP986=
0213896640876012017010815004-77850+166667FM-12+002499999V0200601N00671030001CN011000199-00371-00801099861ADDGA1011+009001061GA2051+030001031GA3999+999999011GE19MSL   +99999+99999GF107991011999009001999999MA1099825099441MD1710101+9999REMSYN07689664 42561 70613 11037 21080 39944 49986 57010 81549 333 56044 81630 85360=
0201896640876012017010817554-77850+166667FM-15+002499999V0200701N005710304819N009999199-00501-00701099841ADDGA1021+009141999GA2071+030481999GA3071+054861999GE19MSL   +99999+99999GF199999021999009141999999MA1099801099425REMMET078METAR NZCM 081755Z 07011KT 9999 FEW030 BKN100 BKN180 M05/M07 A2947 RMK SLP984=
0219896640876012017010818004-77850+166667FM-12+002499999V0200701N005710300019N011000199-00461-00751099841ADDGA1011+009001061GA2031+024001031GA3051+030001031GE19MSL   +99999+99999GF106991011999009001999999MA1099815099431MD1610011+9999REMSYN08289664 32561 60711 11046 21075 39943 49984 56001 81572 333 56444 81630 83358 85360=
0201896640876012017010820554-77850+166667FM-15+002499999V0200601N005710259119N009999199-00301-00801099791ADDGA1021+009141999GA2071+025911999GA3071+054861999GE19MSL   +99999+99999GF199999021999009141999999MA1099761099385REMMET078METAR NZCM 082055Z 06011KT 9999 FEW030 BKN085 BKN180 M03/M08 A2946 RMK SLP979=
0213896640876012017010821004-77850+166667FM-12+002499999V0200601N00571024001CN011000199-00341-00761099791ADDGA1011+009001061GA2051+024001031GA3999+999999001GE19MSL   +99999+99999GF106991011999009001999999MA1099755099371MD1810061+9999REMSYN07689664 42561 60611 11034 21076 39937 49979 58006 81572 333 56444 81630 85358=
0201896640876012017010823554-77850+166667FM-15+002499999V0200301N00511025911CN009999199-00201-00901099781ADDGA1021+009141999GA2041+025911999GA3071+054861999GE19MSL   +99999+99999GF199999021999009141999999MA1099731099375REMMET078METAR NZCM 082355Z 03010KT 9999 FEW030 SCT085 BKN180 M02/M09 A2945 RMK SLP978=
0257896640876012017010900004-77850+166667FM-12+002499999V0200301N005119999999N011000199-00181-00921099781ADDGA1011+009001061GA2041+024001031GA3999+999999001GE19MSL   +99999+99999GF106991011999009001999999KA1120M-00141KA2120N-00491MA1099745099361MD1610011+9999REMSYN09489664 32561 60310 11018 21092 39936 49978 56001 81572 333 11014 21049 56044 59009 81630 84358=
0200896640876012017010902554-77850+166667FM-15+002499999V0201001N004110304819N009999199+00001-01001099721ADDGA1021+015241999GA2071+030481999GA3071+054861999GE19MSL   +99999+99999GF199999021999015241999999MA1099691099315REMMET077METAR NZCM 090255Z 10008KT 9999 FEW050 BKN100 BKN180 00/M10 A2944 RMK SLP972=
0213896640876012017010903004-77850+166667FM-12+002499999V0201001N00411030001CN011000199-00021-01011099721ADDGA1011+015001061GA2071+030001041GA3999+999999001GE19MSL   +99999+99999GF107991011999015001999999MA1099685099301MD1710061+9999REMSYN07689664 42761 71008 11002 21101 39930 49972 57006 81571 333 56044 81650 87460=
0200896640876012017010905554-77850+166667FM-15+002499999V0209999V002610304819N009999199+00001-01201099711ADDGA1021+018291999GA2071+030481999GA3071+060961999GE19MSL   +99999+99999GF199999021999018291999999MA1099661099305REMMET077METAR NZCM 090555Z VRB05KT 9999 FEW060 BKN100 BKN200 00/M12 A2943 RMK SLP971=
0213896640876012017010906004-77850+166667FM-12+002499999V0209999V002619999999N011000199-00041-01181099711ADDGA1011+018001061GA2041+030001031GA3999+999999001GE19MSL   +99999+99999GF106991011999018001999999MA1099675099291MD1610011+9999REMSYN07689664 32761 69905 11004 21118 39929 49971 56001 81572 333 56044 81656 84360=
0201896640876012017010908554-77850+166667FM-15+002499999V0209999V003110304819N009999199-00101-01101099681ADDGA1041+021341999GA2071+030481999GA3071+054861999GE19MSL   +99999+99999GF199999041999021341999999MA1099661099275REMMET078METAR NZCM 090855Z VRB06KT 9999 SCT070 BKN100 BKN180 M01/M11 A2943 RMK SLP968=
0197896640876012017010909004-77850+166667FM-12+002499999V0209999V00311030001CN011000199-00091-01101099681ADDGA1031+021001031GA2041+030001031GE19MSL   +99999+99999GF107991031999021001999999MA1099655099271MD1610021+9999REMSYN07689664 42861 79906 11009 21110 39927 49968 56002 85072 333 56044 83357 84360=
0201896640876012017010911554-77850+166667FM-15+002499999V0200901N004610365819N009999199-00101-01301099691ADDGA1021+024381999GA2071+036581999GA3071+054861999GE19MSL   +99999+99999GF199999021999024381999999MA1099661099285REMMET078METAR NZCM 091155Z 09009KT 9999 FEW080 BKN120 BKN180 M01/M13 A2943 RMK SLP969=
0241896640876012017010912004-77850+166667FM-12+002499999V0200901N00461036001CN011000199-00081-01321099691ADDGA1021+024001031GA2041+036001031GE19MSL   +99999+99999GF107991021999024001999999KA1240M+00011KA2240N-00161MA1099665099281MD1310011+9999REMSYN09489664 32861 70909 11008 21132 39928 49969 53001 86072 333 10001 21016 56044 59026 82358 84362=
0201896640876012017010914554-77850+166667FM-15+002499999V0200501N003110335319N009999199-00101-01301099641ADDGA1021+024381999GA2071+033531999GA3071+054861999GE19MSL   +99999+99999GF199999021999024381999999MA1099591099235REMMET078METAR NZCM 091455Z 05006KT 9999 FEW080 BKN110 BKN180 M01/M13 A2941 RMK SLP964=
0197896640876012017010915004-77850+166667FM-12+002499999V0200501N00311033001CN011000199-00101-01321099641ADDGA1021+024001031GA2051+033001031GE19MSL   +99999+99999GF107991021999024001999999MA1099605099221MD1810061+9999REMSYN07689664 42861 70506 11010 21132 39922 49964 58006 86072 333 56044 82358 85361=
0199896640876012017010917554-77850+166667FM-15+002499999V0209999V002610335319N009999199+00101-01301999999ADDGA1021+024381999GA2071+033531999GA3071+054861999GE19MSL   +99999+99999GF199999021999024381999999MA1099631999999REMMET076METAR NZCM 091755Z VRB05KT 9999 FEW080 BKN110 BKN180 01/M13 A2942 RMK SLPNO=
0191896640876012017010918004-77850+166667FM-12+002499999V0209999V002619999999N011000199+00111-01291099665ADDGA1011+024001031GA2041+033001031GE19MSL   +99999+99999GF106991011999024001999999MA1099635099251MD1110031+9999REMSYN07089664 32861 69905 10011 21129 39925 51003 85071 333 56044 81358 84361=
0199896640876012017010920554-77850+166667FM-15+002499999V0200601N004110304819N009999199+00001-01301999999ADDGA1021+024381999GA2071+030481999GA3071+054861999GE19MSL   +99999+99999GF199999021999024381999999MA1099661999999REMMET076METAR NZCM 092055Z 06008KT 9999 FEW080 BKN100 BKN180 00/M13 A2943 RMK SLPNO=
0187896640876012017010923554-77850+166667FM-15+002499999V0200701N005710457219N009999199+00001-01001999999ADDGA1041+024381999GA2071+045721999GE19MSL   +99999+99999GF199999041999024381999999MA1099691999999OC100721REMMET072METAR NZCM 092355Z 07011G14KT 9999 SCT080 BKN150 00/M10 A2944 RMK SLPNO=
0197896640876012017011000004-77850+166667FM-12+002499999V0200701N005710450019N011000199+00001-00981099745ADDGA1031+024001031GA2061+045001011GE19MSL   +99999+99999GF106991031999024001999999MA1099715099331MD1210051+9999REMSYN07689664 32861 60711 10000 21098 39933 52005 83071 333 56044 59003 83358 86165=
0201896640876012017011002554-77850+166667FM-15+002499999V0200401N00721030481CN009999199-00101-01301099731ADDGA1021+015241999GA2041+030481999GA3041+045721999GE19MSL   +99999+99999GF199999021999015241999999MA1099691099325REMMET078METAR NZCM 100255Z 04014KT 9999 FEW050 SCT100 SCT150 M01/M13 A2944 RMK SLP973=
0213896640876012017011003004-77850+166667FM-12+002499999V0200401N007219999999N011000199-00111-01281099731ADDGA1011+015001061GA2041+030001031GA3999+999999001GE19MSL   +99999+99999GF104991011999015001999999MA1099695099311MD1810021+9999REMSYN07689664 42761 40414 11011 21128 39931 49973 58002 81571 333 56044 81650 84360=
0176896640876012017011005554-77850+166667FM-15+002499999V0201101N005119999999N009999199+00001-01501999999ADDGA1021+021341999GA2021+030481999GE19MSL   +99999+99999GF199999021999021341999999MA1099691999999REMMET069METAR NZCM 100555Z 11010KT 9999 FEW070 FEW100 00/M15 A2944 RMK SLPNO=
0176896640876012017011008554-77850+166667FM-15+002499999V0200301N003119999999N009999199+00201-01601999999ADDGA1021+024381999GA2021+036581999GE19MSL   +99999+99999GF199999021999024381999999MA1099691999999REMMET069METAR NZCM 100855Z 03006KT 9999 FEW080 FEW120 02/M16 A2944 RMK SLPNO=
0153896640876012017011011554-77850+166667FM-15+002499999V0200501N004619999999N009999199+00101-01701999999ADDGA1021+030481999GE19MSL   +99999+99999GF199999021999030481999999MA1099731999999REMMET062METAR NZCM 101155Z 05009KT 9999 FEW100 01/M17 A2945 RMK SLPNO=
0155896640876012017011014554-77850+166667FM-15+002499999V0200901N004619999999N009999199-00101-01601099691ADDGA1021+030481999GE19MSL   +99999+99999GF199999021999030481999999MA1099661099285REMMET064METAR NZCM 101455Z 09009KT 9999 FEW100 M01/M16 A2943 RMK SLP969=
0175896640876012017011015004-77850+166667FM-12+002499999V0200901N004619999999N011000199-00101-01621099691ADDGA1011+060001001GE19MSL   +99999+99999GF101991011999060001999999MA1099665099281MD1610081+9999REMSYN07089664 42961 10909 11010 21162 39928 49969 56008 81070 333 56040 81070=
0133896640876012017011017554-77850+166667FM-15+002499999V0200701N006712200019N009999199-00301-01301099731ADDGF100991999999999999999999MA1099691099325REMMET080METAR NZCM 101755Z 07013KT 9999 SKC M03/M13 A2944 RMK SLP973 FATA MORGANA SW-NW=
0111896640876012017011018004-77850+166667FM-12+002499999V0200701N006719999999N011000199-00311-01291099731ADDMA1099695099311MD1110051+9999REMSYN07089664 32961 00713 11031 21129 39931 49973 51005 333 99115 99116 99117=
0133896640876012017011020554-77850+166667FM-15+002499999V0200701N004612200019N009999199-00201-01301099751ADDGF100991999999999999999999MA1099731099345REMMET080METAR NZCM 102055Z 07009KT 9999 SKC M02/M13 A2945 RMK SLP975 FATA MORGANA SE-SW=
0111896640876012017011021004-77850+166667FM-12+002499999V0200701N004619999999N011000199-00161-01341099751ADDMA1099725099341MD1210031+9999REMSYN07089664 42961 00709 11016 21134 39934 49975 52003 333 99113 99114 99115=
0165896640876012017011023554-77850+166667FM-15+002499999V0200901N004119999999N009999199+00001-01401099831ADDGA1021+021341999GE19MSL   +99999+99999GF199999021999021341999999MA1099801099425OC100771REMMET066METAR NZCM 102355Z 09008G15KT 9999 FEW070 00/M14 A2947 RMK SLP983=
0219896640876012017011100004-77850+166667FM-12+002499999V0200901N004119999999N011000199-00011-01401099831ADDGA1011+021001031GE19MSL   +99999+99999GF101991011999021001999999KA1120M+00081KA2120N-00351MA1099795099411MD1310071+9999REMSYN08889664 32861 10908 11001 21140 39941 49983 53007 81070 333 10008 21035 56000 58008 81357=
0166896640876012017011102554-77850+166667FM-15+002499999V0201401N006219999999N009999199-00101-01001099821ADDGA1021+021341999GE19MSL   +99999+99999GF199999021999021341999999MA1099801099415OC101081REMMET067METAR NZCM 110255Z 14012G21KT 9999 FEW070 M01/M10 A2947 RMK SLP982=
0175896640876012017011103004-77850+166667FM-12+002499999V0201401N006219999999N011000199-00081-00991099821ADDGA1011+021001031GE19MSL   +99999+99999GF101991011999021001999999MA1099795099411MD1410001+9999REMSYN07089664 42861 11412 11008 21099 39941 49982 54000 81070 333 56000 81357=
0165896640876012017011105554-77850+166667FM-15+002499999V0201101N005119999999N009999199+00001-01201099871ADDGA1021+021341999GE19MSL   +99999+99999GF199999021999021341999999MA1099831099465OC100981REMMET066METAR NZCM 110555Z 11010G19KT 9999 FEW070 00/M12 A2948 RMK SLP987=
0175896640876012017011106004-77850+166667FM-12+002499999V0201101N005119999999N011000199-00041-01211099871ADDGA1011+021001031GE19MSL   +99999+99999GF101991011999021001999999MA1099835099451MD1310041+9999REMSYN07089664 32861 11110 11004 21121 39945 49987 53004 81070 333 56000 81357=
0167896640876012017011108554-77850+166667FM-15+002499999V0201301V003619999999N009999199-00101-01301099971ADDGA1021+021341999GE19MSL   +99999+99999GF199999021999021341999999MA1099932099565REMMET076METAR NZCM 110855Z COR 13007KT 100V170 9999 FEW070 M01/M13 A2951 RMK SLP997=
0175896640876012017011109004-77850+166667FM-12+002499999V0201301N003619999999N011000199-00131-01291099971ADDGA1011+021001031GE19MSL   +99999+99999GF101991011999021001999999MA1999999099551MD1210101+9999REMSYN07089664 42861 11307 11013 21129 39955 49997 52010 81070 333 56000 81357=
0189896640876012017011111554-77850+166667FM-15+002499999V0200601N005719999999N009999199-00401-01101100041ADDGA1021+010671999GA2021+021341999GE19MSL   +99999+99999GF199999021999010671999999MA1100002099625OC100931REMMET074METAR NZCM 111155Z 06011G18KT 9999 FEW035 FEW070 M04/M11 A2953 RMK SLP004=
0217896640876012017011114554-77850+166667FM-15+002499999V0200801N006219999999N009999199-00501-00901100041ADDGA1021+009141999GA2021+054861999GE19MSL   +99999+99999GF199999021999009141999999MA1100002099625OC100931REMMET102METAR NZCM 111455Z 08012G18KT 9999 FEW030 FEW180 M05/M09 A2953 RMK SLP004 BLSN DSNT S FATA MORGANA NW=
0197896640876012017011115004-77850+166667FM-12+002499999V0200801N006219999999N011000199-00551-00931100041ADDGA1011+009001061GA2999+999999001GE19MSL   +99999+99999GF101991011999009001999999MA1999999099621MD1510001+9999REMSYN07689664 42561 10812 11055 21093 39962 40004 55000 81502 333 56002 81630 99117=
0217896640876012017011117554-77850+166667FM-15+002499999V0200901N004119999999N009999199-00301-01101100111ADDGA1021+009141999GA2021+054861999GE19MSL   +99999+99999GF199999021999009141999999MA1100072099695OC100931REMMET102METAR NZCM 111755Z 09008G18KT 9999 FEW030 FEW180 M03/M11 A2955 RMK SLP011 BLSN DSNT S FATA MORGANA SW=
0197896640876012017011118004-77850+166667FM-12+002499999V0200901N004119999999N011000199-00321-01141100111ADDGA1011+009001061GA2999+999999001GE19MSL   +99999+99999GF102991011999009001999999MA1999999099691MD1310071+9999REMSYN07689664 32561 20908 11032 21114 39969 40011 53007 81502 333 56002 81630 99115=
0197896640876012017011120554-77850+166667FM-15+002499999V0201001V00721054861CN009999199-00501-00901100131ADDGA1041+009141999GA2041+054861999GE19MSL   +99999+99999GF199999041999009141999999MA1100102099715OC101131REMMET082METAR NZCM 112055Z 10014G22KT 060V130 9999 SCT030 SCT180 M05/M09 A2956 RMK SLP013=
0191896640876012017011121004-77850+166667FM-12+002499999V0201001N007219999999N011000199-00531-00911100131ADDGA1031+009001061GA2999+999999001GE19MSL   +99999+99999GF103991031999009001999999MA1999999099711MD1210021+9999REMSYN07089664 42561 31014 11053 21091 39971 40013 52002 83501 333 56002 83630=
0308896640876012017011200004-77850+166667FM-12+002499999V0200901N006210048019N011000199-00561-00731100301ADDAA106000021AL19900031AY171021AY221021GA1041+002701071GA2061+004801031GE19MSL   +99999+99999GF108991041999002701999999KA1120M-00281KA2120N-00571MA1999999099881MD1310171+9999MW1711REMSYN11889664 11361 80912 11056 21073 39988 40030 53017 69901 77172 885// 333 11028 21057 56800 58047 84709 86316 90931 93197=
0199896640876012017011202554-77850+166667FM-15+002499999V0200601N007210109719N009999199-00401-00901100271ADDGA1021+003051999GA2071+010971999GE19MSL   +99999+99999GF199999021999003051999999MA1100242099855MW1711OC100981REMMET078METAR NZCM 120255Z 06014G19KT 9999 -SN FEW010 BKN036 M04/M09 A2960 RMK SLP027=
0225896640876012017011203004-77850+166667FM-12+002499999V0200601N00721010801CN011000199-00431-00921100271ADDAY171021AY271021GA1011+003001071GA2071+010801061GE19MSL   +99999+99999GF107991011999003001999999MA1999999099851MD1810031+9999MW1711REMSYN08289664 41461 70614 11043 21092 39985 40027 58003 77177 87500 333 56400 81710 87636=
0220896640876012017011205554-77850+166667FM-15+002499999V0200801N007210112819N009999199-00301-00901100321ADDGA1021+006101999GA2071+011281999GA3071+033531999GE19MSL   +99999+99999GF199999021999006101999999MA1100272099905OC101131REMMET089METAR NZCM 120555Z 08014G22KT 9999 FEW020 BKN037 BKN110 M03/M09 A2961 RMK SNE0415 SLP032=
0264896640876012017011206004-77850+166667FM-12+002499999V0200801N00721011101CN011000199-00331-00891100321ADDAA106000021AL19900031AY171021AY221021GA1011+006001061GA2051+011101061GE19MSL   +99999+99999GF106991011999006001999999MA1999999099901MD1210051+9999MW1011REMSYN10089664 11561 60814 11033 21089 39990 40032 52005 69901 70172 85570 333 56440 81620 85637 90923 93197=
0223896640876012017011208554-77850+166667FM-15+002499999V0200801N007710335319N009999199-00401-00901100291ADDGA1021+012191999GA2071+033531999GA3041+045721999GE19MSL   +99999+99999GF199999021999012191999999MA1100272099875MW1361OC101031REMMET086METAR NZCM 120855Z 08015G20KT 9999 DRSN FEW040 BKN110 SCT150 M04/M09 A2961 RMK SLP029=
0241896640876012017011209004-77850+166667FM-12+002499999V0200801N00771033001CN011000199-00391-00921100291ADDAY121021AY221021GA1011+012001061GA2061+033001031GA3999+999999001GE19MSL   +99999+99999GF107991011999012001999999MA1999999099871MD1610031+9999MW1361REMSYN08289664 41661 70815 11039 21092 39987 40029 56003 73622 81572 333 56444 81640 86361=
0212896640876012017011211554-77850+166667FM-15+002499999V0200801N005110457219N009999199-00501-00901100331ADDGA1041+027431999GA2071+045721999GE19MSL   +99999+99999GF199999041999027431999999MA1100302099915MW1361OC100821REMMET091METAR NZCM 121155Z 08010G16KT 9999 DRSN SCT090 BKN150 M05/M09 A2962 RMK SLP033 BLSN DSNT S=
0308896640876012017011212004-77850+166667FM-12+002499999V0200801N00511045001CN011000199-00481-00861100331ADDAA112000021AL19900031AY121021AY221021GA1041+027001031GA2031+045001001GE19MSL   +99999+99999GF107991041999027001999999KA1240M-00261KA2240N-00551MA1999999099911MD1310041+9999MW1361REMSYN11889664 11961 70810 11048 21086 39991 40033 53004 69902 73622 84072 333 11026 21055 56044 58029 84359 83065 90973 93197=
0249896640876012017011214554-77850+166667FM-15+002499999V0200801N005710243819N009999199-00601-00901100321ADDGA1021+010671999GA2071+024381999GA3071+045721999GE19MSL   +99999+99999GF199999021999010671999999MA1100272099905MW1361OC100881REMMET112METAR NZCM 121455Z 08011G17KT 9999 DRSN FEW035 BKN080 BKN150 M06/M09 A2961 RMK ACSL N SCSL S SLP032 BLSN DSNT S=
0241896640876012017011215004-77850+166667FM-12+002499999V0200801N00571024001CN011000199-00571-00951100321ADDAY121021AY221021GA1011+010501061GA2061+024001031GA3999+999999001GE19MSL   +99999+99999GF107991011999010501999999MA1999999099901MD1810011+9999MW1361REMSYN08289664 41661 70811 11057 21095 39990 40032 58001 73622 81542 333 56044 81635 86358=
0213896640876012017011217554-77850+166667FM-15+002499999V0209999V003110228619N009999199-00401-00901100301ADDGA1021+006101999GA2071+022861999GA3071+036581999GE19MSL   +99999+99999GF199999021999006101999999MA1100272099885REMMET090METAR NZCM 121755Z VRB06KT 9999 FEW020 BKN075 BKN120 M04/M09 A2961 RMK SLP030 BLSN DSNT S=
0236896640876012017011218004-77850+166667FM-12+002499999V0209999V00311021001CN011000199-00441-00941100301ADDAA118000021AL19900031GA1011+006001061GA2061+021001031GE19MSL   +99999+99999GF107991011999006001999999MA1999999099881MD1610021+9999REMSYN09489664 12561 79906 11044 21094 39988 40030 56002 69903 81570 333 56440 81620 86357 90983 93197=
0228896640876012017011220524-77850+166667FM-15+002499999V0200901N00621018291CN009999199-00401-01001100331ADDGA1021+007621999GA2041+018291999GA3071+021341999GE19MSL   +99999+99999GF199999021999007621999999MA1100302099915OC100931REMMET097METAR NZCM 122052Z 09012G18KT 9999 FEW025 SCT060 BKN070 M04/M10 A2962 RMK SLP033 BLSN DSNT SE-SW=
0197896640876012017011221004-77850+166667FM-12+002499999V0200901N006219999999N011000199-00431-00961100331ADDGA1011+007501061GA2041+018001061GE19MSL   +99999+99999GF107991011999007501999999MA1999999099911MD1310031+9999REMSYN07689664 42561 70912 11043 21096 39991 40033 53003 84570 333 56320 81625 84656=
0173896640876012017011223554-77850+166667FM-15+002499999V0201401N007719999999N009999199+99999+99999100261ADDMW1165OC101391REMMET128METAR NZCM 122355Z 14015G27KT 9999 VCBLSN FEW020 SCT035 OVC080 M04/M10 A2960 RMK PK WND 13029/36 WSHFT 2239 SLP026 VCBLSN SE-SW=EQDD01      0ADE735
0280896640876012017011300004-77850+166667FM-12+002499999V0201401N00771010501CN011000199-00411-01011100261ADDAA124000021AL19900031GA1021+006001061GA2041+010501061GE19MSL   +99999+99999GF108991021999006001999999KA1120M-00351KA2120N-00581MA1999999099851MD1610061+9999REMSYN11289664 12561 81415 11041 21101 39985 40026 56006 69904 8457/ 333 11035 21058 56329 59003 82620 84635 90983 93197=
0210896640876012017011302554-77850+166667FM-15+002499999V0201701N01441001521WN000600199-00501-00501100211ADDGA1091+001521999GE19MSL   +99999+99999GF109991091999001521999999MA1100202099795MW1381MW2711OC101751REMMET099METAR NZCM 130255Z 17028G34KT 0600 -SN BLSN VV005 M05/M05 A2959 RMK PK WND 17041/15 SNB0019 SLP021=
0231896640876012017011305554-77850+166667FM-15+002499999V0201601N011310091419N002000199-00401-00501100271ADDGA1021+002441999GA2081+009141999GE19MSL   +99999+99999GF199999021999002441999999MA1100242099855MW1381MW2711OD149901801170REMMET098METAR NZCM 130555Z 16022KT 2000 -SN BLSN FEW008 OVC030 M04/M05 A2960 RMK PK WND 17035/0348 SLP027=
0276896640876012017011306004-77850+166667FM-12+002499999V0201601N011810090019N002000199-00451-00531100271ADDAA106000331AL19900131AY171021AY231021GA1021+002401071GA2071+009001061GE19MSL   +99999+99999GF108991021999002401999999MA1999999099851MD1110051+9999MW1711REMSYN11289664 11320 81623 11045 21053 39985 40027 51005 69931 77173 885// 333 01741 56399 82708 87630 90972 93195 96038=
0226896640876012017011308554-77850+166667FM-15+002499999V0201701N010310091419N009999199-00401-00701100341ADDGA1071+009141999GA2081+015241999GE19MSL   +99999+99999GF199999071999009141999999MA1100302099925MW1361MW2711OC101291REMMET099METAR NZCM 130855Z 17020G25KT 9999 -SN DRSN BKN030 OVC050 M04/M07 A2962 RMK PK WND 16032/13 SLP034=
0209896640876012017011309004-77850+166667FM-12+002499999V0201701N010310090019N011000199-00441-00671100341ADDAY171021AY231021GA1071+009001061GE19MSL   +99999+99999GF108991071999009001999999MA1999999099921MD1210071+9999MW1711REMSYN08289664 41561 81720 11044 21067 39992 40034 52007 77173 885// 333 56399 87630 96036=
0266896640876012017011311554-77850+166667FM-15+002499999V0201601N007710128019N009999199-00401-00701100421ADDGA1021+009141999GA2071+012801999GA3081+021341999GE19MSL   +99999+99999GF199999021999009141999999MA1100372100005MW1711OC101081OD149901331160REMMET115METAR NZCM 131155Z 16015G21KT 9999 -SN FEW030 BKN042 OVC070 M04/M07 A2964 RMK PK WND 16026/0905 SLP042 BLSN DSNT S=
0308896640876012017011312004-77850+166667FM-12+002499999V0201601N00771012601CN011000199-00371-00681100421ADDAA112000331AL19900131AY171021AY231021GA1011+009001061GA2071+012601061GE19MSL   +99999+99999GF108991011999009001999999KA1240M-00341KA2240N-00501MA1999999100001MD1210081+9999MW1711REMSYN11889664 11561 81615 11037 21068 30000 40042 52008 69932 77173 8757/ 333 11034 21050 56339 58009 81630 87642 90973 93195=
0176896640876012017011314554-77850+166667FM-15+002499999V0201101N005110128019N009999199-00301-00701100511ADDGA1081+012801999GE19MSL   +99999+99999GF199999081999012801999999MA1100472100095MW1711OC101031REMMET071METAR NZCM 131455Z 11010G20KT 9999 -SN OVC042 M03/M07 A2967 RMK SLP051=
0203896640876012017011315004-77850+166667FM-12+002499999V0201101N005110126019N011000199-00351-00711100511ADDAY171021AY271021GA1081+012601061GE19MSL   +99999+99999GF108991081999012601999999MA1999999100091MD1210091+9999MW1711REMSYN07689664 41661 81110 11035 21071 30009 40051 52009 77177 885// 333 56399 88642=
0146896640876012017011317554-77850+166667FM-15+002499999V0201401N010319999999N009999199-00405-00605100521ADDMW1361MW2711OC101391REMMET095METAR NZCM 131755Z 14020G27KT 9999 -SN DRSN VCBLSN OVC042 M04/M06 A2967 RMK SLP052 VCBLSN S-SW=EQDD01      0ADE539
0248896640876012017011318004-77850+166667FM-12+002499999V0201401N010310126019N011000199-00401-00641100521ADDAA118000531AL19900131AY171021AY271021GA1081+012601061GE19MSL   +99999+99999GF108991081999012601999999MA1999999100101MD1990011+9999MW1711REMSYN10089664 11661 81420 11040 21064 30010 40052 50001 69953 77177 885// 333 56399 88642 90983 93101 96036=
0220896640876012017011320554-77850+166667FM-15+002499999V0201101N005710137219N009999199-00201-00801100611ADDGA1021+009141999GA2081+013721999GE19MSL   +99999+99999GF199999021999009141999999MA1100582100195REMMET113METAR NZCM 132055Z 11011KT 9999 FEW030 OVC045 M02/M08 A2970 RMK PK WND 15027/1804 SNE1850B05E25 SLP061 SN DSNT S=
0231896640876012017011321004-77850+166667FM-12+002499999V0201101N005710135019N011000199-00191-00831100611ADDAY171021AY221021GA1011+009001061GA2081+013501061GE19MSL   +99999+99999GF108991011999009001999999MA1999999100191MD1210091+9999MW1221REMSYN08889664 41561 81111 11019 21083 30019 40061 52009 72272 885// 333 56399 81630 88645 96015=
0236896640876012017011323554-77850+166667FM-15+002499999V0201301N007210137219N009999199-00101-00801100721ADDGA1021+009141999GA2071+013721999GA3081+018291999GE19MSL   +99999+99999GF199999021999009141999999MA1100682100315OC101241REMMET105METAR NZCM 132355Z 13014G24KT 9999 FEW030 BKN045 OVC060 M01/M08 A2973 RMK SNB2245E24 SLP072 SN DSNT W-NW=
0314896640876012017011400004-77850+166667FM-12+002499999V0201301N00721013501CN011000199-00151-00831100721ADDAA124000531AL19900131AY171021AY221021GA1011+009001061GA2061+013501061GE19MSL   +99999+99999GF108991011999009001999999KA1120M-00141KA2120N-00411MA1999999100301MD1210111+9999MW1221REMSYN12489664 11561 81314 11015 21083 30030 40072 52011 69954 72272 885// 333 11014 21041 56399 58045 81630 86645 90924 93101 96015=
0227896640876012017011402554-77850+166667FM-15+002499999V0200901N005710228619N009999199-00101-00901100741ADDGA1021+013721999GA2081+022861999GE19MSL   +99999+99999GF199999021999013721999999MA1100712100335OD149901331150REMMET106METAR NZCM 140255Z COR 09011KT 9999 FEW045 OVC075 M01/M09 A2974 RMK PK WND 15026/0046 SLP074 SN DSNT W-NW=
0219896640876012017011403004-77850+166667FM-12+002499999V0200901N005710210019N011000199-00111-00931100741ADDAY121021AY221021GA1021+013501061GA2071+021001031GE19MSL   +99999+99999GF108991021999013501999999MA1999999100321MD1110021+9999MW1151REMSYN07689664 41661 80911 11011 21093 30032 40074 51002 71522 8257/ 333 82645 87357=
0250896640876012017011405554-77850+166667FM-15+002499999V0201301N007710198119N009999199-00101-01001100761ADDGA1021+009141999GA2021+013721999GA3081+019811999GE19MSL   +99999+99999GF199999021999009141999999MA1100712100355OC101181REMMET119METAR NZCM 140555Z 13015G23KT 9999 FEW030 FEW045 OVC065 M01/M10 A2974 RMK PK WND 15026/49 SLP076 SN DSNT W BLSN DSNT S=
0225896640876012017011406004-77850+166667FM-12+002499999V0201301N00771018001CN011000199-00141-00991100761ADDAY121021AY221021GA1011+009001061GA2061+018001061GE19MSL   +99999+99999GF108991011999009001999999MA1999999100341MD1310021+9999MW1151REMSYN08289664 31561 81315 11014 21099 30034 40076 53002 71522 885// 333 56399 81630 86656=
0233896640876012017011408554-77850+166667FM-15+002499999V0201101N006210143319N009999199-00301-00901100761ADDGA1071+014331999GA2081+018291999GE19MSL   +99999+99999GF199999071999014331999999MA1100712100345OC101081OD149901331160REMMET104METAR NZCM 140855Z 11012G21KT 9999 BKN047 OVC060 M03/M09 A2974 RMK PK WND 16026/0634 SLP076 BLSN DSNT S=
0197896640876012017011409004-77850+166667FM-12+002499999V0201101N006210180019N011000199-00311-00881100761ADDGA1041+014101061GA2081+018001061GE19MSL   +99999+99999GF108991041999014101999999MA1999999100341MD1410001+9999REMSYN07689664 42661 81112 11031 21088 30034 40076 54000 885// 333 56399 84647 88656=
0198896640876012017011411554-77850+166667FM-15+002499999V0201201N004110143319N009999199-00301-00701100811ADDGA1071+014331999GA2081+018291999GE19MSL   +99999+99999GF199999071999014331999999MA1100782100395REMMET091METAR NZCM 141155Z 12008KT 9999 BKN047 OVC060 M03/M07 A2976 RMK SNB15E44 SLP081 SN DSNT SW=
0327896640876012017011412004-77850+166667FM-12+002499999V0201201N004110117019N011000199-00291-00701100811ADDAA106000091AL19900031AY121021AY221021GA1051+011701061GA2081+018001061GE19MSL   +99999+99999GF108991051999011701999999KA1240M-00051KA2240N-00411MA1999999100391MD1310051+9999MW1151REMSYN11889664 11661 81208 11029 21070 30039 40081 53005 69901 71522 885// 333 11005 21041 56399 58039 85639 88656 90910 93197=EQDQ01  00002PRCP06
0239896640876012017011414554-77850+166667FM-15+002499999V0200901N005710121919N009999199-00301-00501100761ADDGA1071+012191999GA2081+018291999GE19MSL   +99999+99999GF199999071999012191999999MA1100712100345MW1711OC100771OD149901541150REMMET104METAR NZCM 141455Z 09011G15KT 9999 -SN BKN040 OVC060 M03/M05 A2974 RMK PK WND 15030/1220 SNB1315 SLP076=
0225896640876012017011415004-77850+166667FM-12+002499999V0200901N005710120019N011000199-00261-00541100761ADDAY171021AY221021GA1051+012001061GA2081+018001051GE19MSL   +99999+99999GF108991051999012001999999MA1999999100341MD1810051+9999MW1711REMSYN08289664 41661 80911 11026 21054 30034 40076 58005 77172 885// 333 56399 85640 88556=
0235896640876012017011417554-77850+166667FM-15+002499999V0200501N006710137219N009999199-00201-00401100661ADDGA1021+002131999GA2071+013721999GA3081+018291999GE19MSL   +99999+99999GF199999021999002131999999MA1100612100245MW1711OC100931REMMET098METAR NZCM 141755Z 05013G18KT 9999 -SN FEW007 BKN045 OVC060 M02/M04 A2971 RMK SNE1540B1551 SLP066=
0220896640876012017011420554-77850+166667FM-15+002499999V0200601N005110457219N009999199-00301-00501100621ADDGA1021+002441999GA2021+018291999GA3071+045721999GE19MSL   +99999+99999GF199999021999002441999999MA1100582100205OC100821REMMET089METAR NZCM 142055Z 06010G16KT 9999 FEW008 FEW060 BKN150 M03/M05 A2970 RMK SNE1905 SLP062=
0225896640876012017011421004-77850+166667FM-12+002499999V0200601N00511045001CN011000199-00271-00501100621ADDAY171021AY221021GA1011+002401071GA2061+045001021GE19MSL   +99999+99999GF107991011999002401999999MA1999999100201MD1710041+9999MW1011REMSYN08289664 42361 70610 11027 21050 30020 40062 57004 70172 82506 333 56303 81708 86265=
0201896640876012017011423554-77850+166667FM-15+002499999V0200801N00621045721CN009999199-00201-00501100501ADDGA1021+002441999GA2021+006101999GA3041+045721999GE19MSL   +99999+99999GF199999021999002441999999MA1100472100085REMMET078METAR NZCM 142355Z 08012KT 9999 FEW008 FEW020 SCT150 M02/M05 A2967 RMK SLP050=
0308896640876012017011500004-77850+166667FM-12+002499999V0200801N006219999999N011000199-00221-00491100501ADDAA118000021AL19900031AY171021AY211021GA1021+002401071GA2031+045001001GE19MSL   +99999+99999GF104991021999002401999999KA1120M-00191KA2120N-00321MA1999999100081MD1710121+9999MW1011REMSYN11889664 11361 40812 11022 21049 30008 40050 57012 69903 70171 82502 333 11019 21032 56303 59022 82708 83065 90945 93197=
0201896640876012017011502554-77850+166667FM-15+002499999V0200701N005110457219N009999199-00201-00501100361ADDGA1021+002441999GA2021+006101999GA3071+045721999GE19MSL   +99999+99999GF199999021999002441999999MA1100342099955REMMET078METAR NZCM 150255Z 07010KT 9999 FEW008 FEW020 BKN150 M02/M05 A2963 RMK SLP036=
0197896640876012017011503004-77850+166667FM-12+002499999V0200701N00511045001CN011000199-00161-00461100361ADDGA1021+002401071GA2041+045001001GE19MSL   +99999+99999GF105991021999002401999999MA1999999099941MD1710141+9999REMSYN07689664 42361 50710 11016 21046 39994 40036 57014 82501 333 56303 82708 84065=
0256896640876012017011505554-77850+166667FM-15+002499999V0200701N00571002441CN009999199-00301-00501100231ADDGA1021+000611999GA2041+002441999GA3071+045721999GE19MSL   +99999+99999GF199999021999000611999999MA1100202099815MW1111REMMET127METAR NZCM 150555Z 07011KT 9999 PRFG FEW002 SCT008 BKN150 M03/M05 A2959 RMK VIS N-E 1000 FEW002 V SCT SLP023 FG DSNT GRID SE-S=
0244896640876012017011506004-77850+166667FM-12+002499999V0201001N01491999999CN011000199+99999-00461100231ADDAY121021AY221021GA1022+000601071GA2042+045001001GE19MSL   +99999+99999GF101992022999000601999999MA1999999099811MD1710131+9999MW1411REMSYN08289664 31161 11029 21046 39981 40023 57013 74122 83602 333 56203 82702 84065 96040=EQDQ01 045003SCOCIG
0214896640876012017011508554-77850+166667FM-15+002499999V0209999V00211002741CN009999199-00101-00301100181ADDGA1021+000611999GA2041+002741999GA3071+004571999GE19MSL   +99999+99999GF199999021999000611999999MA1100142099775REMMET091METAR NZCM 150855Z VRB04KT 9999 FEW002 SCT009 BKN015 M01/M03 A2957 RMK SLP018 FG DSNT SE-S=
0247896640876012017011509004-77850+166667FM-12+002499999V0209999V002110045019N011000199-00071-00301100181ADDAY121021AY221021GA1011+000601071GA2041+002701071GA3071+004501061GE19MSL   +99999+99999GF107991011999000601999999MA1999999099761MD1710051+9999MW1401REMSYN08889664 41161 79904 11007 21030 39976 40018 57005 74022 87500 333 56700 81702 84709 87615=
0191896640876012017011511554-77850+166667FM-15+002499999V0203301N005710061019N009999199-00101-00301100041ADDGA1041+002741999GA2071+006101999GE19MSL   +99999+99999GF199999041999002741999999MA1100002099635REMMET084METAR NZCM 151155Z 33011KT 9999 SCT009 BKN020 M01/M03 A2953 RMK SLP004 FG DSNT SE-S=
0178896640876012017011514554-77850+166667FM-15+002499999V0203301N004610033519N009999199-00201-00401099511ADDGA1071+003351999GA2071+012191999GE19MSL   +99999+99999GF199999071999003351999999MA1099901099105REMMET071METAR NZCM 151455Z 33009KT 9999 BKN011 BKN040 M02/M04 A2950 RMK SLP951=
0175896640876012017011515004-77850+166667FM-12+002499999V0203301N004610033019N011000199-00191-00411099932ADDGA1071+003301061GE19MSL   +99999+99999GF107991071999003301999999MA1099895099512MD1710111+9999REMSYN07089664 42461 73309 11019 21041 39951 49993 57011 87500 333 56700 87611=
0178896640876012017011517554-77850+166667FM-15+002499999V0203301N004610033519N009999199-00201-00401099861ADDGA1041+002741999GA2071+003351999GE19MSL   +99999+99999GF199999041999002741999999MA1099831099455REMMET071METAR NZCM 151755Z 33009KT 9999 SCT009 BKN011 M02/M04 A2948 RMK SLP986=
0178896640876012017011520554-77850+166667FM-15+002499999V0209999V002110033519N009999199-00101-00401099851ADDGA1041+002741999GA2071+003351999GE19MSL   +99999+99999GF199999041999002741999999MA1099831099445REMMET071METAR NZCM 152055Z VRB04KT 9999 SCT009 BKN011 M01/M04 A2948 RMK SLP985=
0197896640876012017011521004-77850+166667FM-12+002499999V0209999V002110033019N011000199-00151-00401099851ADDGA1031+002701071GA2061+003301071GE19MSL   +99999+99999GF107991031999002701999999MA1099825099441MD1510001+9999REMSYN07689664 42361 79904 11015 21040 39944 49985 55000 87600 333 56700 83709 86711=
0178896640876012017011523554-77850+166667FM-15+002499999V0209999C000010039619N009999199+00001-00401099841ADDGA1021+002741999GA2071+003961999GE19MSL   +99999+99999GF199999021999002741999999MA1099801099435REMMET071METAR NZCM 152355Z 00000KT 9999 FEW009 BKN013 M00/M04 A2947 RMK SLP984=
0241896640876012017011600004-77850+166667FM-12+002499999V0209999C00001003901CN011000199-00051-00431099841ADDGA1011+002701071GA2061+003901071GE19MSL   +99999+99999GF106991011999002701999999KA1120M+00001KA2120N-00251MA1099805099421MD1610021+9999REMSYN09489664 32361 60000 11005 21043 39942 49984 56002 86600 333 10000 21025 56300 59066 81709 86713=
0200896640876012017011602554-77850+166667FM-15+002499999V0202001N001010054919N009999199+00101-00401099871ADDGA1021+000611999GA2021+001831999GA3071+005491999GE19MSL   +99999+99999GF199999021999000611999999MA1099831099465REMMET077METAR NZCM 160255Z 20002KT 9999 FEW002 FEW006 BKN018 01/M04 A2948 RMK SLP987=
0197896640876012017011603004-77850+166667FM-12+002499999V0202001N00101005401CN011000199+00051-00411099871ADDGA1011+000601071GA2071+005401071GE19MSL   +99999+99999GF107991011999000601999999MA1099845099461MD1990021+9999REMSYN07689664 42161 72002 10005 21041 39946 49987 50002 87600 333 56300 81702 87718=
0201896640876012017011605554-77850+166667FM-15+002499999V0202601N002110054919N009999199+00001-00501099891ADDGA1021+000611999GA2071+005491999GA3071+006101999GE19MSL   +99999+99999GF199999021999000611999999MA1099861099485REMMET078METAR NZCM 160555Z 26004KT 9999 FEW002 BKN018 BKN020 M00/M05 A2949 RMK SLP989=
0201896640876012017011608554-77850+166667FM-15+002499999V0209999V00211054861CN009999199-00101-00501099941ADDGA1021+005491999GA2021+012191999GA3041+054861999GE19MSL   +99999+99999GF199999021999005491999999MA1099901099535REMMET078METAR NZCM 160855Z VRB04KT 9999 FEW018 FEW040 SCT180 M01/M05 A2950 RMK SLP994=
0178896640876012017011611554-77850+166667FM-15+002499999V0203001N00151054861CN009999199-00101-00601100021ADDGA1041+006101999GA2041+054861999GE19MSL   +99999+99999GF199999041999006101999999MA1100002099615REMMET071METAR NZCM 161155Z 30003KT 9999 SCT020 SCT180 M01/M06 A2953 RMK SLP002=
0241896640876012017011612004-77850+166667FM-12+002499999V0203001N001519999999N011000199-00091-00631100021ADDGA1011+006001061GA2031+054001001GE19MSL   +99999+99999GF103991011999006001999999KA1240M+00101KA2240N-00251MA1999999099601MD1210071+9999REMSYN09489664 32561 33003 11009 21063 39960 40002 52007 81502 333 10010 21025 56303 59002 81620 83068=
0216896640876012017011614554-77850+166667FM-15+002499999V0203501N00151054861CN009999199-00201-00401100031ADDGA1021+006101999GA2021+030481999GA3041+054861999GE19MSL   +99999+99999GF199999021999006101999999MA1100002099625REMMET093METAR NZCM 161455Z 35003KT 9999 FEW020 FEW100 SCT180 M02/M04 A2953 RMK SLP003 FATA MORGANA S=
0219896640876012017011615004-77850+166667FM-12+002499999V0203501N001519999999N011000199-00161-00451100031ADDGA1011+006001061GA2031+054001001GA3999+999999001GE19MSL   +99999+99999GF103991011999006001999999MA1999999099611MD1110011+9999REMSYN08289664 42561 33503 11016 21045 39961 40003 51001 81572 333 56003 81620 83068 99114=
0178896640876012017011617554-77850+166667FM-15+002499999V0209999C000010518219N009999199-00201-00501100101ADDGA1021+003961999GA2071+051821999GE19MSL   +99999+99999GF199999021999003961999999MA1100072099695REMMET071METAR NZCM 161755Z 00000KT 9999 FEW013 BKN170 M02/M05 A2955 RMK SLP010=
0197896640876012017011618004-77850+166667FM-12+002499999V0209999C00001021001CN011000199-00191-00481100101ADDGA1011+003901061GA2061+021001021GE19MSL   +99999+99999GF106991011999003901999999MA1999999099681MD1310071+9999REMSYN07689664 32461 60000 11019 21048 39968 40010 53007 81506 333 56303 81613 86257=
0201896640876012017011620554-77850+166667FM-15+002499999V0209999C000010640119N009999199-00101-00501100201ADDGA1021+006101999GA2021+012191999GA3081+064011999GE19MSL   +99999+99999GF199999021999006101999999MA1100172099795REMMET078METAR NZCM 162055Z 00000KT 9999 FEW020 FEW040 OVC210 M01/M05 A2958 RMK SLP020=
0197896640876012017011621004-77850+166667FM-12+002499999V0209999C000010630019N011000199-00141-00491100201ADDGA1011+006001061GA2081+063001021GE19MSL   +99999+99999GF108991011999006001999999MA1999999099781MD1110101+9999REMSYN07689664 42561 80000 11014 21049 39978 40020 51010 81507 333 56007 81620 88271=
0219896640876012017011623554-77850+166667FM-15+002499999V0209999C000010426719N009999199+00001-00601100261ADDGA1021+006101999GA2021+012191999GA3081+042671999GE19MSL   +99999+99999GF199999021999006101999999MA1100242099855REMMET096METAR NZCM 162355Z 00000KT 9999 FEW020 FEW040 OVC140 M00/M06 A2960 RMK SLP026 FATA MORGANA S-SW=
0253896640876012017011700004-77850+166667FM-12+002499999V0209999C000010420019N011000199-00021-00561100261ADDGA1011+006001061GA2081+042001021GE19MSL   +99999+99999GF108991011999006001999999KA1120M+00031KA2120N-00241MA1999999099851MD1310071+9999REMSYN10689664 32561 80000 11002 21056 39985 40026 53007 81507 333 10003 21024 56007 58043 81620 88264 99114 99115=
0200896640876012017011702554-77850+166667FM-15+002499999V0209999V00311042671CN009999199+00001-01201100271ADDGA1021+003051999GA2021+006101999GA3041+042671999GE19MSL   +99999+99999GF199999021999003051999999MA1100242099865REMMET077METAR NZCM 170255Z VRB06KT 9999 FEW010 FEW020 SCT140 00/M12 A2960 RMK SLP027=
0197896640876012017011703004-77850+166667FM-12+002499999V0209999V003119999999N011000199+00001-01171100271ADDGA1011+003001081GA2041+042001021GE19MSL   +99999+99999GF104991011999003001999999MA1999999099851MD1990001+9999REMSYN07689664 42461 49906 10000 21117 39985 40027 50000 81208 333 56007 81810 84264=
0201896640876012017011705554-77850+166667FM-15+002499999V0200601N00461048771CN009999199-00201-01301100341ADDGA1021+003051999GA2021+012191999GA3041+048771999GE19MSL   +99999+99999GF199999021999003051999999MA1100302099935REMMET078METAR NZCM 170555Z 06009KT 9999 FEW010 FEW040 SCT160 M02/M13 A2962 RMK SLP034=
0197896640876012017011706004-77850+166667FM-12+002499999V0200601N004619999999N011000199-00171-01261100341ADDGA1011+003001081GA2041+048001001GE19MSL   +99999+99999GF104991011999003001999999MA1999999099921MD1110071+9999REMSYN07689664 32461 40609 11017 21126 39992 40034 51007 81201 333 56007 81810 84066=
0201896640876012017011708554-77850+166667FM-15+002499999V0200501N003110304819N009999199-00301-01401100441ADDGA1021+015241999GA2071+030481999GA3071+057911999GE19MSL   +99999+99999GF199999021999015241999999MA1100412100025REMMET078METAR NZCM 170855Z 05006KT 9999 FEW050 BKN100 BKN190 M03/M14 A2965 RMK SLP044=
0213896640876012017011709004-77850+166667FM-12+002499999V0200501N00311030001CN011000199-00321-01411100441ADDGA1021+015001061GA2051+030001031GA3999+999999001GE19MSL   +99999+99999GF106991021999015001999999MA1999999100021MD1210101+9999REMSYN07689664 42761 60506 11032 21141 30002 40044 52010 82574 333 56077 82650 85360=
0216896640876012017011711554-77850+166667FM-15+002499999V0200701N003110335319N009999199-00301-01501100471ADDGA1021+006101999GA2071+033531999GA3071+057911999GE19MSL   +99999+99999GF199999021999006101999999MA1100442100055REMMET093METAR NZCM 171155Z COR 07006KT 9999 FEW020 BKN110 BKN190 M03/M15 A2966 RMK SLP047 FG DSNT SW=
0285896640876012017011712004-77850+166667FM-12+002499999V0200701N00311033001CN011000199-00301-01471100471ADDAY121021AY221021GA1021+006001061GA2061+033001031GA3999+999999021GE19MSL   +99999+99999GF107991021999006001999999KA1240M+00091KA2240N-00381MA1999999100041MD1210021+9999MW1401REMSYN10089664 31561 70706 11030 21147 30004 40047 52002 74022 82578 333 10009 21038 56077 58044 82620 86361=
0178896640876012017011714554-77850+166667FM-15+002499999V0201101N002610548619N009999199-00301-01501100441ADDGA1021+015241999GA2071+054861999GE19MSL   +99999+99999GF199999021999015241999999MA1100412100025REMMET071METAR NZCM 171455Z 11005KT 9999 FEW050 BKN180 M03/M15 A2965 RMK SLP044=
0197896640876012017011715004-77850+166667FM-12+002499999V0201101N00261054001CN011000199-00301-01471100441ADDGA1011+015001061GA2071+054001021GE19MSL   +99999+99999GF107991011999015001999999MA1999999100021MD1610021+9999REMSYN07689664 42761 71105 11030 21147 30002 40044 56002 81508 333 56808 81650 87268=
0178896640876012017011717554-77850+166667FM-15+002499999V0201001N005110243819N009999199-00401-01501100441ADDGA1021+012191999GA2071+024381999GE19MSL   +99999+99999GF199999021999012191999999MA1100412100025REMMET071METAR NZCM 171755Z 10010KT 9999 FEW040 BKN080 M04/M15 A2965 RMK SLP044=
0197896640876012017011718004-77850+166667FM-12+002499999V0201001N00511024001CN011000199-00421-01521100441ADDGA1011+012001061GA2071+024001031GE19MSL   +99999+99999GF107991011999012001999999MA1999999100021MD1410001+9999REMSYN07689664 32661 71010 11042 21152 30002 40044 54000 81570 333 56880 81640 87358=
0200896640876012017011720554-77850+166667FM-15+002499999V0200701N005110228619N009999199-00501-01201100471ADDGA1021+012191999GA2071+022861999GE19MSL   +99999+99999GF199999021999012191999999MA1100442100055OC100881REMMET085METAR NZCM 172055Z 07010G17KT 9999 FEW040 BKN075 M05/M12 A2966 RMK SLP047 SN DSNT SW=
0225896640876012017011721004-77850+166667FM-12+002499999V0200701N00511021001CN011000199-00491-01241100471ADDAY121021AY221021GA1011+012001061GA2061+021001031GE19MSL   +99999+99999GF107991011999012001999999MA1999999100051MD1310031+9999MW1151REMSYN08289664 41661 70710 11049 21124 30005 40047 53003 71522 81570 333 56880 81640 86357=
0178896640876012017011723554-77850+166667FM-15+002499999V0200601N004610243819N009999199-00401-01201100461ADDGA1021+015241999GA2071+024381999GE19MSL   +99999+99999GF199999021999015241999999MA1100442100045REMMET071METAR NZCM 172355Z 06009KT 9999 FEW050 BKN080 M04/M12 A2966 RMK SLP046=
0241896640876012017011800004-77850+166667FM-12+002499999V0200601N00461024001CN011000199-00441-01211100461ADDGA1011+015001061GA2071+024001031GE19MSL   +99999+99999GF107991011999015001999999KA1120M-00231KA2120N-00591MA1999999100041MD1810011+9999REMSYN09489664 32761 70609 11044 21121 30004 40046 58001 81570 333 11023 21059 56880 58019 81650 87358=
0209896640876012017011802554-77850+166667FM-15+002499999V0200901V004610243819N009999199-00401-01301100371ADDGA1021+015241999GA2071+024381999GA3071+030481999GE19MSL   +99999+99999GF199999021999015241999999MA1100342099955REMMET086METAR NZCM 180255Z 09009KT 040V140 9999 FEW050 BKN080 BKN100 M04/M13 A2963 RMK SLP037=
0197896640876012017011803004-77850+166667FM-12+002499999V0200901N00461024001CN011000199-00371-01281100371ADDGA1011+015001061GA2061+024001031GE19MSL   +99999+99999GF107991011999015001999999MA1999999099961MD1610081+9999REMSYN07689664 42761 70909 11037 21128 39996 40037 56008 81570 333 56880 81650 86358=
0201896640876012017011805554-77850+166667FM-15+002499999V0200601N00671024381CN009999199-00501-01401100331ADDGA1021+015241999GA2041+024381999GA3041+039621999GE19MSL   +99999+99999GF199999021999015241999999MA1100302099915REMMET078METAR NZCM 180555Z 06013KT 9999 FEW050 SCT080 SCT130 M05/M14 A2962 RMK SLP033=
0197896640876012017011806004-77850+166667FM-12+002499999V0200601N006719999999N011000199-00511-01391100331ADDGA1011+015001061GA2031+024001031GE19MSL   +99999+99999GF103991011999015001999999MA1999999099911MD1710051+9999REMSYN07689664 32761 30613 11051 21139 39991 40033 57005 81570 333 56850 81650 83358=
0201896640876012017011811554-77850+166667FM-15+002499999V0200601N00461045721CN009999199-00301-01601100291ADDGA1021+006101999GA2021+024381999GA3021+045721999GE19MSL   +99999+99999GF199999021999006101999999MA1100272099875REMMET078METAR NZCM 181155Z 06009KT 9999 FEW020 FEW080 FEW150 M03/M16 A2961 RMK SLP029=
0251896640876012017011812004-77850+166667FM-12+002499999V0200601N004619999999N011000199-00391-01601100291ADDGA1011+006001061GA2999+999999031GA3999+999999001GE19MSL   +99999+99999GF102991011999006001999999KA1240M-00361KA2240N-00511MA1999999099871MD1710031+9999REMSYN08889664 32561 20609 11039 21160 39987 40029 57003 81571 333 11036 21051 56855 59017 81620=
0225896640876012017011814554-77850+166667FM-15+002499999V0202901N00151045721CN009999199-00701-01401100231ADDGA1021+012191999GA2021+024381999GA3041+045721999GE19MSL   +99999+99999GF199999021999012191999999MA1100202099815REMMET102METAR NZCM 181455Z 29003KT 9999 FEW040 FEW080 SCT150 M07/M14 A2959 RMK SLP023 FATA MORGANA S-SW AND W=
0231896640876012017011815004-77850+166667FM-12+002499999V0202901N001519999999N011000199-00661-01411100231ADDGA1011+012001061GA2031+045001001GA3999+999999001GE19MSL   +99999+99999GF103991011999012001999999MA1999999099821MD1710051+9999REMSYN09489664 42661 32903 11066 21141 39982 40023 57005 81571 333 56855 81640 83065 99114 99115 99116=
0194896640876012017011817554-77850+166667FM-15+002499999V0209999C000019999999N009999199-00101-01201999999ADDGA1021+021341999GA2021+045721999GE19MSL   +99999+99999GF199999021999021341999999MA1100172999999REMMET087METAR NZCM 181755Z 00000KT 9999 FEW070 FEW150 M01/M12 A2958 RMK SLPNO FATA MORGANA S-W=
0203896640876012017011818004-77850+166667FM-12+002499999V0209999C000019999999N011000199-00071-01181100205ADDGA1011+021001031GA2999+999999001GE19MSL   +99999+99999GF101991011999021001999999MA1999999099791MD1710031+9999REMSYN08289664 32861 10000 11007 21118 39979 57003 81071 333 56005 81357 99114 99115 99116=
0220896640876012017011820554-77850+166667FM-15+002499999V0209999C00001045721CN009999199-00101-00901999999ADDGA1021+018291999GA2021+027431999GA3021+045721999GE19MSL   +99999+99999GF199999021999018291999999MA1100172999999REMMET097METAR NZCM 182055Z 00000KT 9999 FEW060 FEW090 FEW150 M01/M09 A2958 RMK SLPNO FATA MORGANA SE-S-W=
0225896640876012017011821004-77850+166667FM-12+002499999V0209999C000019999999N011000199-00121-00901100205ADDGA1011+018001061GA2999+999999031GA3999+999999001GE19MSL   +99999+99999GF101991011999018001999999MA1999999099791MD1410001+9999REMSYN08889664 42761 10000 11012 21090 39979 54000 81571 333 56805 81656 99113 99114 99115 99116=
0195896640876012017011823554-77850+166667FM-15+002499999V0200601N00411027431CN009999199+00001-01401999999ADDGA1021+018291999GA2041+027431999GE19MSL   +99999+99999GF199999021999018291999999MA1100142999999REMMET088METAR NZCM 182355Z 06008KT 9999 FEW060 SCT090 00/M14 A2957 RMK SLPNO FATA MORGANA SE-SW=
0215896640876012017011900004-77850+166667FM-12+002499999V0200601N004119999999N011000199-00021-01421100185ADDGA1011+018001061GA2041+027001031GE19MSL   +99999+99999GF104991011999018001999999MA1999999099771MD1710021+9999REMSYN09489664 32761 40608 11002 21142 39977 57002 81530 333 56020 59027 81656 84359 99113 99114 99115=
0200896640876012017011902554-77850+166667FM-15+002499999V0200601N005710274319N009999199-00201-01301999999ADDGA1021+006101999GA2021+018291999GA3071+027431999GE19MSL   +99999+99999GF199999021999006101999999MA1100102999999REMMET077METAR NZCM 190255Z 06011KT 9999 FEW020 FEW060 BKN090 M02/M13 A2956 RMK SLPNO=
0191896640876012017011903004-77850+166667FM-12+002499999V0200601N00571027001CN011000199-00171-01331100135ADDGA1011+006001061GA2051+027001031GE19MSL   +99999+99999GF105991011999006001999999MA1999999099721MD1710051+9999REMSYN07089664 42561 50611 11017 21133 39972 57005 81570 333 56020 81620 85359=
0200896640876012017011905554-77850+166667FM-15+002499999V0200601N004610274319N009999199-00201-01301999999ADDGA1021+006101999GA2021+012191999GA3071+027431999GE19MSL   +99999+99999GF199999021999006101999999MA1100102999999REMMET077METAR NZCM 190555Z 06009KT 9999 FEW020 FEW040 BKN090 M02/M13 A2956 RMK SLPNO=
0191896640876012017011906004-77850+166667FM-12+002499999V0200601N00461027001CN011000199-00231-01351100135ADDGA1011+006001061GA2071+027001031GE19MSL   +99999+99999GF107991011999006001999999MA1999999099721MD1410001+9999REMSYN07089664 32561 70609 11023 21135 39972 54000 81570 333 56020 81620 87359=
0200896640876012017011908554-77850+166667FM-15+002499999V0200401N00511021341CN009999199-00301-01501999999ADDGA1021+012191999GA2041+021341999GA3071+027431999GE19MSL   +99999+99999GF199999021999012191999999MA1100172999999REMMET077METAR NZCM 190855Z 04010KT 9999 FEW040 SCT070 BKN090 M03/M15 A2958 RMK SLPNO=
0191896640876012017011909004-77850+166667FM-12+002499999V0200401N005119999999N011000199-00281-01471100205ADDGA1011+012001061GA2031+021001031GE19MSL   +99999+99999GF107991011999012001999999MA1999999099781MD1210061+9999REMSYN07089664 42661 70410 11028 21147 39978 52006 81570 333 56020 81640 83357=
0200896640876012017011911554-77850+166667FM-15+002499999V0209999C000010274319N009999199-00101-00901999999ADDGA1021+012191999GA2021+021341999GA3071+027431999GE19MSL   +99999+99999GF199999021999012191999999MA1100202999999REMMET077METAR NZCM 191155Z 00000KT 9999 FEW040 FEW070 BKN090 M01/M09 A2959 RMK SLPNO=
0197896640876012017011912004-77850+166667FM-12+002499999V0209999C00001027001CN011000199-00131-00891100235ADDGA1011+012001061GA2051+027001031GE19MSL   +99999+99999GF105991011999012001999999MA1999999099821MD1210041+9999REMSYN07689664 32661 50000 11013 21089 39982 52004 81570 333 56020 59005 81640 85359=
0154896640876012017011914554-77850+166667FM-15+002499999V0209999C000010274319N009999199-00401-00801999999ADDGA1071+027431999GE19MSL   +99999+99999GF199999071999027431999999MA1100242999999REMMET063METAR NZCM 191455Z 00000KT 9999 BKN090 M04/M08 A2960 RMK SLPNO=
0169896640876012017011915004-77850+166667FM-12+002499999V0209999C000010270019N011000199-00401-00841100275ADDGA1061+027001031GE19MSL   +99999+99999GF106991061999027001999999MA1999999099851MD1110031+9999REMSYN06489664 42961 60000 11040 21084 39985 51003 86030 333 56040 86359=
0154896640876012017011917554-77850+166667FM-15+002499999V0209999C000010274319N009999199-00401-01101999999ADDGA1071+027431999GE19MSL   +99999+99999GF199999071999027431999999MA1100302999999REMMET063METAR NZCM 191755Z 00000KT 9999 BKN090 M04/M11 A2962 RMK SLPNO=
0169896640876012017011918004-77850+166667FM-12+002499999V0209999C000010270019N011000199-00421-01071100335ADDGA1061+027001031GE19MSL   +99999+99999GF106991061999027001999999MA1999999099911MD1210061+9999REMSYN06489664 32961 60000 11042 21107 39991 52006 86030 333 56040 86359=
0177896640876012017011920554-77850+166667FM-15+002499999V0209999C000010289619N009999199-00301-00801999999ADDGA1021+012191999GA2071+028961999GE19MSL   +99999+99999GF199999021999012191999999MA1100372999999REMMET070METAR NZCM 192055Z 00000KT 9999 FEW040 BKN095 M03/M08 A2964 RMK SLPNO=
0191896640876012017011921004-77850+166667FM-12+002499999V0209999C00001027001CN011000199-00301-00791100395ADDGA1011+012001061GA2071+027001031GE19MSL   +99999+99999GF107991011999012001999999MA1999999099971MD1210061+9999REMSYN07089664 42661 70000 11030 21079 39997 52006 81570 333 56040 81640 87359=
0200896640876012017011923554-77850+166667FM-15+002499999V0202901N00261030481CN009999199-00301-00901999999ADDGA1021+010671999GA2021+021341999GA3041+030481999GE19MSL   +99999+99999GF199999021999010671999999MA1100442999999REMMET077METAR NZCM 192355Z 29005KT 9999 FEW035 FEW070 SCT100 M03/M09 A2966 RMK SLPNO=
0197896640876012017012000004-77850+166667FM-12+002499999V0202901N002619999999N011000199-00281-00911100475ADDGA1011+010501081GA2031+030001031GE19MSL   +99999+99999GF104991011999010501999999MA1999999100051MD1210081+9999REMSYN07689664 32661 42905 11028 21091 30005 52008 81270 333 56040 58028 81835 83360=
0201896640876012017012002554-77850+166667FM-15+002499999V0209999C00001030481CN009999199-00101-00701100501ADDGA1021+012191999GA2021+021341999GA3021+030481999GE19MSL   +99999+99999GF199999021999012191999999MA1100472100095REMMET078METAR NZCM 200255Z 00000KT 9999 FEW040 FEW070 FEW100 M01/M07 A2967 RMK SLP050=
0191896640876012017012003004-77850+166667FM-12+002499999V0209999C000019999999N011000199-00141-00741100501ADDGA1011+012001081GA2999+999999031GE19MSL   +99999+99999GF102991011999012001999999MA1999999100081MD1210031+9999REMSYN07089664 42661 20000 11014 21074 30008 40050 52003 81270 333 56040 81840=
0201896640876012017012005554-77850+166667FM-15+002499999V0209999C00001024381CN009999199-00101-00701100491ADDGA1021+009141999GA2021+015241999GA3021+024381999GE19MSL   +99999+99999GF199999021999009141999999MA1100442100085REMMET078METAR NZCM 200555Z 00000KT 9999 FEW030 FEW050 FEW080 M01/M07 A2966 RMK SLP049=
0191896640876012017012006004-77850+166667FM-12+002499999V0209999C000019999999N011000199-00131-00661100491ADDGA1011+009001081GA2999+999999031GE19MSL   +99999+99999GF101991011999009001999999MA1999999100071MD1610011+9999REMSYN07089664 32561 10000 11013 21066 30007 40049 56001 81170 333 56040 81830=
0201896640876012017012008554-77850+166667FM-15+002499999V0209999V002610274319N009999199-00301-00901100501ADDGA1021+007621999GA2071+027431999GA3071+045721999GE19MSL   +99999+99999GF199999021999007621999999MA1100472100085REMMET078METAR NZCM 200855Z VRB05KT 9999 FEW025 BKN090 BKN150 M03/M09 A2967 RMK SLP050=
0213896640876012017012009004-77850+166667FM-12+002499999V0209999V00261027001CN011000199-00281-00891100501ADDGA1011+007501061GA2051+027001031GA3999+999999001GE19MSL   +99999+99999GF106991011999007501999999MA1999999100081MD1110011+9999REMSYN07689664 42561 69905 11028 21089 30008 40050 51001 81471 333 56044 81625 85359=
0174896640876012017012011554-77850+166667FM-15+002499999V0203401N002610304819N009999199-00301-00701100491ADDGA1071+030481999GE19MSL   +99999+99999GF199999071999030481999999MA1100442100075MW1401REMMET077METAR NZCM 201155Z 34005KT 9999 VCFG BKN100 M03/M07 A2966 RMK SLP049 VCFG SE=
0247896640876012017012012004-77850+166667FM-12+002499999V0203401N002610300019N011000199-00301-00691100491ADDAY121021AY221021GA1061+030001031GE19MSL   +99999+99999GF106991061999030001999999KA1240M-00081KA2240N-00341MA1999999100071MD1610011+9999MW1401REMSYN09489664 31961 63405 11030 21069 30007 40049 56001 74022 86070 333 11008 21034 56040 58025 86360=
0178896640876012017012014554-77850+166667FM-15+002499999V0203301N003110335319N009999199-00401-00701100411ADDGA1021+021341999GA2071+033531999GE19MSL   +99999+99999GF199999021999021341999999MA1100372099995REMMET071METAR NZCM 201455Z 33006KT 9999 FEW070 BKN110 M04/M07 A2964 RMK SLP041=
0197896640876012017012015004-77850+166667FM-12+002499999V0203301N00311033001CN011000199-00361-00661100411ADDGA1021+021001031GA2061+033001031GE19MSL   +99999+99999GF107991021999021001999999MA1999999099991MD1710081+9999REMSYN07689664 42861 73306 11036 21066 39999 40041 57008 87070 333 56040 82357 86361=
0201896640876012017012017554-77850+166667FM-15+002499999V0209999C000010213419N009999199-00301-00701100341ADDGA1021+003051999GA2021+012191999GA3071+021341999GE19MSL   +99999+99999GF199999021999003051999999MA1100302099925REMMET078METAR NZCM 201755Z 00000KT 9999 FEW010 FEW040 BKN070 M03/M07 A2962 RMK SLP034=
0197896640876012017012018004-77850+166667FM-12+002499999V0209999C00001021001CN011000199-00351-00661100341ADDGA1011+003001061GA2061+021001031GE19MSL   +99999+99999GF107991011999003001999999MA1999999099921MD1610071+9999REMSYN07689664 32461 70000 11035 21066 39992 40034 56007 81570 333 56040 81610 86357=
0201896640876012017012020554-77850+166667FM-15+002499999V0209999V00311015241CN009999199-00301-00801100271ADDGA1021+003051999GA2041+015241999GA3071+021341999GE19MSL   +99999+99999GF199999021999003051999999MA1100242099855REMMET078METAR NZCM 202055Z VRB06KT 9999 FEW010 SCT050 BKN070 M03/M08 A2960 RMK SLP027=
0197896640876012017012021004-77850+166667FM-12+002499999V0209999V003119999999N011000199-00261-00771100271ADDGA1011+003001061GA2041+015001061GE19MSL   +99999+99999GF107991011999003001999999MA1999999099851MD1810071+9999REMSYN07689664 42461 79906 11026 21077 39985 40027 58007 84570 333 56440 81610 84650=
0201896640876012017012023554-77850+166667FM-15+002499999V0203001N002610182919N009999199-00101-01101100141ADDGA1021+003051999GA2021+012191999GA3081+018291999GE19MSL   +99999+99999GF199999021999003051999999MA1100102099735REMMET078METAR NZCM 202355Z 30005KT 9999 FEW010 FEW040 OVC060 M01/M11 A2956 RMK SLP014=
0241896640876012017012100004-77850+166667FM-12+002499999V0203001N00261018001CN011000199-00131-01071100141ADDGA1011+003001061GA2071+018001061GE19MSL   +99999+99999GF108991011999003001999999KA1120M-00101KA2120N-00371MA1999999099721MD1710131+9999REMSYN09489664 32461 83005 11013 21107 39972 40014 57013 885// 333 11010 21037 56499 59033 81610 87656=
0216896640876012017012102554-77850+166667FM-15+002499999V0209999C000010182919N009999199+00001-00901099951ADDGA1021+012191999GA2071+018291999GA3071+039621999GE19MSL   +99999+99999GF199999021999012191999999MA1099932099545REMMET093METAR NZCM 210255Z 00000KT 9999 FEW040 BKN060 BKN130 00/M09 A2951 RMK SLP995 FATA MORGANA NW=
0203896640876012017012103004-77850+166667FM-12+002499999V0209999C000019999999N011000199+00031-00941099951ADDGA1011+012001061GA2041+018001061GE19MSL   +99999+99999GF107991011999012001999999MA1999999099531MD1610191+9999REMSYN08289664 42661 70000 10003 21094 39953 49995 56019 85530 333 56440 81640 84656 99117=
0209896640876012017012105554-77850+166667FM-15+002499999V0200901V00571030481CN009999199-00201-01001099821ADDGA1021+012191999GA2041+030481999GA3071+045721999GE19MSL   +99999+99999GF199999021999012191999999MA1099801099415REMMET086METAR NZCM 210555Z 09011KT 050V120 9999 FEW040 SCT100 BKN150 M02/M10 A2947 RMK SLP982=
0208896640876012017012108554-77850+166667FM-15+002499999V0200901N00511021341CN009999199-00501-01201099711ADDGA1021+015241999GA2041+021341999GA3041+027431999GE19MSL   +99999+99999GF199999021999015241999999MA1099661099295REMMET085METAR NZCM 210855Z 09010KT 9999 FEW050 SCT070 SCT090 M05/M12 A2943 RMK ACSL S SLP971=
0197896640876012017012109004-77850+166667FM-12+002499999V0200901N005119999999N011000199-00531-01161099711ADDGA1011+015001061GA2031+021001031GE19MSL   +99999+99999GF104991011999015001999999MA1099675099291MD1710111+9999REMSYN07689664 42761 40910 11053 21116 39929 49971 57011 81540 333 56440 81650 83357=
0212896640876012017012111554-77850+166667FM-15+002499999V0200801N00571027431CN009999199-00701-01101099611ADDGA1021+001521999GA2021+015241999GA3021+027431999GE19MSL   +99999+99999GF199999021999001521999999MA1099561099195REMMET089METAR NZCM 211155Z 08011KT 9999 FEW005 FEW050 FEW090 M07/M11 A2940 RMK ACSL SW-NW SLP961=
0235896640876012017012112004-77850+166667FM-12+002499999V0200801N005719999999N011000199-00661-01141099611ADDGA1011+001501071GA2999+999999031GE19MSL   +99999+99999GF102991011999001501999999KA1240M+00031KA2240N-00741MA1099575099191MD1710101+9999REMSYN08889664 32261 20811 11066 21114 39919 49961 57010 81540 333 10003 21074 56400 59088 81705=
0189896640876012017012114554-77850+166667FM-15+002499999V0200701N005719999999N009999199-00601-01301099401ADDGA1021+000911999GA2021+027431999GE19MSL   +99999+99999GF199999021999000911999999MA1099361098985REMMET082METAR NZCM 211455Z 07011KT 9999 FEW003 FEW090 M06/M13 A2934 RMK ACSL SW-NW SLP940=
0191896640876012017012115004-77850+166667FM-12+002499999V0200701N005719999999N011000199-00651-01321099401ADDGA1011+000901071GA2999+999999031GE19MSL   +99999+99999GF102991011999000901999999MA1099375098991MD1710201+9999REMSYN07089664 42161 20711 11065 21132 39899 49940 57020 81640 333 56000 81703=
0209896640876012017012117554-77850+166667FM-15+002499999V0200601N006710365819N009999199-00701-01201099271ADDGA1021+000911999GA2071+036581999GA3071+045721999GE19MSL   +99999+99999GF199999021999000911999999MA1099221098855REMMET086METAR NZCM 211755Z 06013KT 9999 FEW003 BKN120 BKN150 M07/M12 A2930 RMK ACSL SW SLP927=
0213896640876012017012118004-77850+166667FM-12+002499999V0200601N006719999999N011000199-00681-01211099271ADDGA1011+000901071GA2041+036001031GA3999+999999001GE19MSL   +99999+99999GF106991011999000901999999MA1099245098861MD1710131+9999REMSYN07689664 32161 60613 11068 21121 39886 49927 57013 81641 333 56044 81703 84362=
0216896640876012017012120554-77850+166667FM-15+002499999V0200601N004610365819N009999199-00601-01301099151ADDGA1021+027431999GA2071+036581999GA3071+045721999GE19MSL   +99999+99999GF199999021999027431999999MA1099121098735REMMET093METAR NZCM 212055Z 06009KT 9999 FEW090 BKN120 BKN150 M06/M13 A2927 RMK ACSL SW CCSL N SLP915=
0197896640876012017012121004-77850+166667FM-12+002499999V0200601N00461036001CN011000199-00561-01261099151ADDGA1011+027001031GA2061+036001031GE19MSL   +99999+99999GF106991011999027001999999MA1099115098731MD1710131+9999REMSYN07689664 42961 60609 11056 21126 39873 49915 57013 86041 333 56044 81359 86362=
0186896640876012017012123554-77850+166667FM-15+002499999V0200401N006210457219N009999199-00401-01401099011ADDGA1041+025911999GA2071+045721999GE19MSL   +99999+99999GF199999041999025911999999MA1098951098605REMMET079METAR NZCM 212355Z 04012KT 9999 SCT085 BKN150 M04/M14 A2922 RMK ACSL SW SLP901=
0235896640876012017012200004-77850+166667FM-12+002499999V0200401N006219999999N011000199-00441-01361099011ADDGA1031+024001031GA2999+999999001GE19MSL   +99999+99999GF106991031999024001999999KA1120M-00351KA2120N-00721MA1098975098591MD1710141+9999REMSYN08889664 32961 60412 11044 21136 39859 49901 57014 83041 333 11035 21072 56044 59113 83358=
0201896640876012017012201574-77850+166667FM-15+002499999V0209999V00151027431CN009999199-00301-01101098821ADDGA1021+012191999GA2041+027431999GA3071+045721999GE19MSL   +99999+99999GF199999021999012191999999MA1098781098415REMMET078METAR NZCM 220157Z VRB03KT 9999 FEW040 SCT090 BKN150 M03/M11 A2917 RMK SLP882=
0218896640876012017012203004-77850+166667FM-12+002499999V0209999V001519999999N011000199-00281-01091098821ADDGA1011+012001061GA2031+027001031GA3999+999999001GE19MSL   +99999+99999GF105991011999012001999999MA1098795098411MD1710181+9999REMSYN08189664 42661 59903 11028 21109 39841 49882 57018 81542 333 56044 81640 83359 8506=
0200896640876012017012205554-77850+166667FM-15+002499999V0203101N00311045721CN009999199-00301-00901999999ADDGA1021+012191999GA2041+045721999GA3041+054861999GE19MSL   +99999+99999GF199999021999012191999999MA1098651999999REMMET077METAR NZCM 220555Z 31006KT 9999 FEW040 SCT150 SCT180 M03/M09 A2913 RMK SLPNO=
0200896640876012017012208554-77850+166667FM-15+002499999V0203401N00411045721CN009999199-00301-00801999999ADDGA1021+003051999GA2021+036581999GA3021+045721999GE19MSL   +99999+99999GF199999021999003051999999MA1098511999999REMMET077METAR NZCM 220855Z 34008KT 9999 FEW010 FEW120 FEW150 M03/M08 A2909 RMK SLPNO=
0195896640876012017012209004-77850+166667FM-12+002499999V0201001N016529999999N011000199+99999-00811999999ADDGA1011+003001061GA2999+999999031GA3999+999999001GE19MSL   +99999+99999GF101991011999003001999999MA1098535098151MD1710131+9999REMSYN05889664 42461 11032 21081 39815 57013 81531 333 56044 81610=
0192896640876012017012211554-77850+166667FM-15+002499999V0209999V002119999999N009999199-00301-00801999999ADDGA1021+003051999GA2021+045721999GE19MSL   +99999+99999GF199999021999003051999999MA1098371999999REMMET085METAR NZCM 221155Z VRB04KT 9999 FEW010 FEW150 M03/M08 A2905 RMK SLPNO FATA MORGANA W=
0197896640876012017012212004-77850+166667FM-12+002499999V0209999V002119999999N011000199-00321-00811098425ADDGA1011+003001061GA2999+999999001GE19MSL   +99999+99999GF101991011999003001999999MA1098385098011MD1710141+9999REMSYN07689664 32461 19904 11032 21081 39801 57014 81501 333 56004 59118 81610 99116=
0200896640876012017012214554-77850+166667FM-15+002499999V0209999V00211045721CN009999199-00301-00701999999ADDGA1021+003051999GA2021+039621999GA3021+045721999GE19MSL   +99999+99999GF199999021999003051999999MA1098311999999REMMET077METAR NZCM 221455Z VRB04KT 9999 FEW010 FEW130 FEW150 M03/M07 A2903 RMK SLPNO=
0201896640876012017012215004-77850+166667FM-12+002499999V0209999V002119999999N011000199-00261-00711098345ADDGA1011+003001071GA2999+999999031GA3999+999999001GE19MSL   +99999+99999GF101991011999003001999999MA1098305097931MD1710081+9999REMSYN06489664 42461 19904 11026 21071 39793 57008 81631 333 56844 81710=
0177896640876012017012217554-77850+166667FM-15+002499999V0203401N004610243819N009999199-00401-00901999999ADDGA1021+003051999GA2071+024381999GE19MSL   +99999+99999GF199999021999003051999999MA1098201999999REMMET070METAR NZCM 221755Z 34009KT 9999 FEW010 BKN080 M04/M09 A2900 RMK SLPNO=
0191896640876012017012218004-77850+166667FM-12+002499999V0203401N00461024001CN011000199-00401-00891098255ADDGA1011+003001071GA2061+024001031GE19MSL   +99999+99999GF106991011999003001999999MA1098215097841MD1710091+9999REMSYN07089664 32461 63409 11040 21089 39784 57009 81670 333 56840 81710 86358=
0200896640876012017012220554-77850+166667FM-15+002499999V0203101N002110243819N009999199-00101-00701999999ADDGA1021+003051999GA2021+012191999GA3071+024381999GE19MSL   +99999+99999GF199999021999003051999999MA1098201999999REMMET077METAR NZCM 222055Z 31004KT 9999 FEW010 FEW040 BKN080 M01/M07 A2900 RMK SLPNO=
0191896640876012017012221004-77850+166667FM-12+002499999V0203101N00211024001CN011000199-00151-00681098255ADDGA1011+003001071GA2051+024001031GE19MSL   +99999+99999GF105991011999003001999999MA1098215097841MD1410001+9999REMSYN07089664 42461 53104 11015 21068 39784 54000 81570 333 56040 81710 85358=
0200896640876012017012223554-77850+166667FM-15+002499999V0209999V00151045721CN009999199-00201-00701999999ADDGA1021+003051999GA2021+012191999GA3021+045721999GE19MSL   +99999+99999GF199999021999003051999999MA1098241999999REMMET077METAR NZCM 222355Z VRB03KT 9999 FEW010 FEW040 FEW150 M02/M07 A2901 RMK SLPNO=
0191896640876012017012300004-77850+166667FM-12+002499999V0209999V001519999999N011000199-00211-00721098285ADDGA1011+003001071GA2999+999999001GE19MSL   +99999+99999GF101991011999003001999999MA1098245097871MD1310031+9999REMSYN07089664 32461 19903 11021 21072 39787 53003 81501 333 56003 59072 81710=
0176896640876012017012302554-77850+166667FM-15+002499999V0202101N002119999999N009999199+00001-00901999999ADDGA1021+009141999GA2021+045721999GE19MSL   +99999+99999GF199999021999009141999999MA1098311999999REMMET069METAR NZCM 230255Z 21004KT 9999 FEW030 FEW150 00/M09 A2903 RMK SLPNO=
0185896640876012017012303004-77850+166667FM-12+002499999V0202101N002119999999N011000199+00011-00951098245ADDGA1011+009001061GA2999+999999001GE19MSL   +99999+99999GF101991011999009001999999MA1098215097841MD1210071+9999REMSYN06489664 42561 12104 10001 21095 39784 52007 81501 333 56003 81630=
0203896640876012017012305554-77850+166667FM-15+002499999V0209999V00211045721CN009999199+00201-00701999999ADDGA1021+009141999GA2021+021341999GA3021+045721999GE19MSL   +99999+99999GF199999021999009141999999MA1098481999999REMMET080METAR NZCM 230555Z COR VRB04KT 9999 FEW030 FEW070 FEW150 02/M07 A2908 RMK SLPNO=
0201896640876012017012306004-77850+166667FM-12+002499999V0209999V002119999999N011000199+00151-00671098495ADDGA1011+009001061GA2999+999999031GA3999+999999001GE19MSL   +99999+99999GF102991011999009001999999MA1098475098091MD1210151+9999REMSYN06489664 32561 29904 10015 21067 39809 52015 81571 333 56033 81630=
0199896640876012017012308554-77850+166667FM-15+002499999V0209999C00001018291CN009999199+00101-00901999999ADDGA1041+009141999GA2041+018291999GA3041+054861999GE19MSL   +99999+99999GF199999041999009141999999MA1098681999999REMMET076METAR NZCM 230855Z 00000KT 9999 SCT030 SCT060 SCT180 01/M09 A2914 RMK SLPNO=
0185896640876012017012309004-77850+166667FM-12+002499999V0209999C000019999999N011000199+00131-00891098705ADDGA1041+009001081GA2999+999999001GE19MSL   +99999+99999GF104991041999009001999999MA1098685098301MD1210211+9999REMSYN06489664 42561 40000 10013 21089 39830 52021 84801 333 56003 84830=
0199896640876012017012311554-77850+166667FM-15+002499999V0209999C00001054861CN009999199+00001-00901999999ADDGA1021+009141999GA2021+015241999GA3041+054861999GE19MSL   +99999+99999GF199999021999009141999999MA1098881999999REMMET076METAR NZCM 231155Z 00000KT 9999 FEW030 FEW050 SCT180 00/M09 A2920 RMK SLPNO=
0197896640876012017012312004-77850+166667FM-12+002499999V0209999C000019999999N011000199+00041-00891098935ADDGA1011+009001061GA2031+054001001GE19MSL   +99999+99999GF104991011999009001999999MA1098905098521MD1210221+9999REMSYN07689664 32561 40000 10004 21089 39852 52022 81401 333 56003 58051 81630 83068=
0154896640876012017012314554-77850+166667FM-15+002499999V0209999C000010103619N009999199-00201-00701999999ADDGA1071+010361999GE19MSL   +99999+99999GF199999071999010361999999MA1099121999999REMMET063METAR NZCM 231455Z 00000KT 9999 BKN034 M02/M07 A2927 RMK SLPNO=
0169896640876012017012315004-77850+166667FM-12+002499999V0209999C000010102019N011000199-00211-00701099165ADDGA1061+010201061GE19MSL   +99999+99999GF106991061999010201999999MA1099135098751MD1210231+9999REMSYN06489664 42661 60000 11021 21070 39875 52023 86500 333 56700 86634=
0200896640876012017012317554-77850+166667FM-15+002499999V0200401N004110182919N009999199-00201-00801999999ADDGA1021+010671999GA2071+018291999GA3071+054861999GE19MSL   +99999+99999GF199999021999010671999999MA1099321999999REMMET077METAR NZCM 231755Z 04008KT 9999 FEW035 BKN060 BKN180 M02/M08 A2933 RMK SLPNO=
0191896640876012017012318004-77850+166667FM-12+002499999V0200401N00411018001CN011000199-00201-00801099355ADDGA1021+010501061GA2061+018001061GE19MSL   +99999+99999GF107991021999010501999999MA1099325098941MD1210191+9999REMSYN07089664 32661 70408 11020 21080 39894 52019 86501 333 56707 82635 86656=
0226896640876012017012320554-77850+166667FM-15+002499999V0200501N004110182919N009999199+00101-00901999999ADDGA1021+006101999GA2071+018291999GA3071+054861999GE19MSL   +99999+99999GF199999021999006101999999MA1099531999999REMMET103METAR NZCM 232055Z 05008KT 9999 FEW020 BKN060 BKN180 01/M09 A2939 RMK SLPNO SN DSNT SW FATA MORGANA SE=
0225896640876012017012321004-77850+166667FM-12+002499999V0200501N00411018001CN011000199+00141-00861099575ADDAY121021AY221021GA1011+006001061GA2061+018001061GE19MSL   +99999+99999GF106991011999006001999999MA1099545099161MD1210121+9999MW1151REMSYN08289664 41561 60508 10014 21086 39916 52012 71522 81502 333 56707 81620 86656 99113=
0210896640876012017012323554-77850+166667FM-15+002499999V0209999V003110182919N009999199+00101-00401999999ADDGA1021+006101999GA2021+009141999GA3071+018291999GE19MSL   +99999+99999GF199999021999006101999999MA1099801999999REMMET087METAR NZCM 232355Z VRB06KT 9999 FEW020 FEW030 BKN060 01/M04 A2947 RMK SLPNO SN DSNT SW=
0225896640876012017012400004-77850+166667FM-12+002499999V0209999V00311018001CN011000199+00091-00431099825ADDAY121021AY221021GA1011+006001061GA2051+018001061GE19MSL   +99999+99999GF106991011999006001999999MA1099795099411MD1210251+9999MW1151REMSYN08289664 31561 69906 10009 21043 39941 52025 71522 81500 333 56700 58154 81620 85656=
0199896640876012017012402554-77850+166667FM-15+002499999V0209999V00211015241CN009999199+00201-00801999999ADDGA1021+009141999GA2041+015241999GA3041+054861999GE19MSL   +99999+99999GF199999021999009141999999MA1099972999999REMMET076METAR NZCM 240255Z VRB04KT 9999 FEW030 SCT050 SCT180 02/M08 A2952 RMK SLPNO=
0191896640876012017012403004-77850+166667FM-12+002499999V0209999V002119999999N011000199+00171-00821100005ADDGA1011+009001061GA2041+015001061GE19MSL   +99999+99999GF104991011999009001999999MA1999999099591MD1210181+9999REMSYN07089664 42561 49904 10017 21082 39959 52018 84501 333 56707 81630 84650=
0199896640876012017012405554-77850+166667FM-15+002499999V0200301N00721045721CN009999199+00001-00801999999ADDGA1021+009141999GA2021+015241999GA3021+045721999GE19MSL   +99999+99999GF199999021999009141999999MA1100142999999REMMET076METAR NZCM 240555Z 03014KT 9999 FEW030 FEW050 FEW150 00/M08 A2957 RMK SLPNO=
0185896640876012017012406004-77850+166667FM-12+002499999V0200301N007219999999N011000199-00051-00821100185ADDGA1011+009001061GA2999+999999001GE19MSL   +99999+99999GF102991011999009001999999MA1999999099771MD1210181+9999REMSYN06489664 32561 20314 11005 21082 39977 52018 81501 333 56707 81630=
0177896640876012017012408554-77850+166667FM-15+002499999V0200501N005719999999N009999199-00301-01201999999ADDGA1021+012191999GA2021+024381999GE19MSL   +99999+99999GF199999021999012191999999MA1100272999999REMMET070METAR NZCM 240855Z 05011KT 9999 FEW040 FEW080 M03/M12 A2961 RMK SLPNO=
0185896640876012017012409004-77850+166667FM-12+002499999V0200501N005719999999N011000199-00321-01191100315ADDGA1011+012001061GA2999+999999031GE19MSL   +99999+99999GF101991011999012001999999MA1999999099891MD1210121+9999REMSYN06489664 42661 10511 11032 21119 39989 52012 81570 333 56770 81640=
0200896640876012017012411554-77850+166667FM-15+002499999V0200601N00461024381CN009999199-00401-01401999999ADDGA1021+007321999GA2021+012191999GA3021+024381999GE19MSL   +99999+99999GF199999021999007321999999MA1100372999999REMMET077METAR NZCM 241155Z 06009KT 9999 FEW024 FEW040 FEW080 M04/M14 A2964 RMK SLPNO=
0191896640876012017012412004-77850+166667FM-12+002499999V0200601N004619999999N011000199-00401-01401100425ADDGA1021+007201061GA2999+999999031GE19MSL   +99999+99999GF102991021999007201999999MA1999999100001MD1110111+9999REMSYN07089664 32561 20609 11040 21140 30000 51011 82570 333 56170 58148 82624=
0200896640876012017012414554-77850+166667FM-15+002499999V0209999V00261021341CN009999199-00301-01401999999ADDGA1021+003051999GA2021+012191999GA3021+021341999GE19MSL   +99999+99999GF199999021999003051999999MA1100372999999REMMET077METAR NZCM 241455Z VRB05KT 9999 FEW010 FEW040 FEW070 M03/M14 A2964 RMK SLPNO=
0185896640876012017012415004-77850+166667FM-12+002499999V0209999V002619999999N011000199-00301-01401100435ADDGA1011+003001061GA2999+999999031GE19MSL   +99999+99999GF101991011999003001999999MA1999999100011MD1310011+9999REMSYN06489664 42461 19905 11030 21140 30001 53001 81570 333 56170 81610=
0177896640876012017012417554-77850+166667FM-15+002499999V0200401N003119999999N009999199-00201-01101999999ADDGA1021+010671999GA2021+030481999GE19MSL   +99999+99999GF199999021999010671999999MA1100412999999REMMET070METAR NZCM 241755Z 04006KT 9999 FEW035 FEW100 M02/M11 A2965 RMK SLPNO=
0185896640876012017012418004-77850+166667FM-12+002499999V0200401N003119999999N011000199-00241-01101100455ADDGA1011+010501061GA2999+999999031GE19MSL   +99999+99999GF102991011999010501999999MA1999999100031MD1310021+9999REMSYN06489664 32661 20406 11024 21110 30003 53002 81570 333 56170 81635=
0196896640876012017012420554-77850+166667FM-15+002499999V0209999C00001045721CN009999199-00201-01101999999ADDGA1041+008531999GA2041+045721999GE19MSL   +99999+99999GF199999041999008531999999MA1100372999999REMMET089METAR NZCM 242055Z 00000KT 9999 SCT028 SCT150 M02/M11 A2964 RMK SLPNO FATA MORGANA SE-SW=
0203896640876012017012421004-77850+166667FM-12+002499999V0209999C000019999999N011000199+00231-01101100425ADDGA1031+008401061GA2999+999999001GE19MSL   +99999+99999GF104991031999008401999999MA1999999100011MD1310021+9999REMSYN08289664 42561 40000 10023 21110 30001 53002 81501 333 56101 83628 99113 99114 99115=
0173896640876012017012423554-77850+166667FM-15+002499999V0209999V002110085319N009999199-00201-00201100381ADDGA1071+008531999GE19MSL   +99999+99999GF199999071999008531999999MA1100342099975REMMET082METAR NZCM 242355Z VRB04KT 9999 BKN028 M02/M02 A2963 RMK SLP038 FATA MORGANA SE-S=
0206896640876012017012500004-77850+166667FM-12+002499999V0203601N010819999999N011000199+99999+00212100381ADDGA1062+008401061GE19MSL   +99999+99999GF101992062999008401999999MA1999999099971MD1310041+9999REMSYN08289664 32561 10021 20021 39997 40038 53004 86500 333 56800 58056 86628 99114 99115=EQDQ01 008403SCOCIG
0154896640876012017012502554-77850+166667FM-15+002499999V0209999C000019999999N009999199-00101-00801999999ADDGA1041+008531999GE19MSL   +99999+99999GF199999041999008531999999MA1100242999999REMMET063METAR NZCM 250255Z 00000KT 9999 SCT028 M01/M08 A2960 RMK SLPNO=
0169896640876012017012503004-77850+166667FM-12+002499999V0209999C000019999999N011000199-00091-00791100285ADDGA1041+008401061GE19MSL   +99999+99999GF104991041999008401999999MA1999999099871MD1710101+9999REMSYN06489664 42561 40000 11009 21079 39987 57010 84500 333 56800 84628=
0169896640876012017012505554-77850+166667FM-15+002499999V0209999V001519999999N009999199+00001-00701999999ADDGA1021+008531999GE19MSL   +99999+99999GF199999021999008531999999MA1100172999999REMMET078METAR NZCM 250555Z VRB03KT 9999 FEW028 00/M07 A2958 RMK SLPNO FATA MORGANA SE=
0175896640876012017012506004-77850+166667FM-12+002499999V0209999V001519999999N011000199+00021-00711100205ADDGA1011+008401061GE19MSL   +99999+99999GF101991011999008401999999MA1999999099791MD1710081+9999REMSYN07089664 32561 19903 10002 21071 39979 57008 81500 333 56800 81628 99113=
0177896640876012017012508554-77850+166667FM-15+002499999V0200701N005719999999N009999199-00401-01501999999ADDGA1021+004571999GA2021+010671999GE19MSL   +99999+99999GF199999021999004571999999MA1100242999999REMMET070METAR NZCM 250855Z 07011KT 9999 FEW015 FEW035 M04/M15 A2960 RMK SLPNO=
0169896640876012017012509004-77850+166667FM-12+002499999V0200701N005719999999N011000199-00441-01521100285ADDGA1011+004501061GE19MSL   +99999+99999GF101991011999004501999999MA1999999099861MD1110071+9999REMSYN06489664 42461 10711 11044 21152 39986 51007 81500 333 56800 81615=
0190896640876012017012511554-77850+166667FM-15+002499999V0200901N004119999999N009999199-00301-01301999999ADDGA1021+004571999GA2021+010671999GE19MSL   +99999+99999GF199999021999004571999999MA1100302999999REMMET083METAR NZCM 251155Z 09008KT 9999 FEW015 FEW035 M03/M13 A2962 RMK SLPNO FG DSNT SE-S=
0203896640876012017012512004-77850+166667FM-12+002499999V0200901N004119999999N011000199-00261-01321100335ADDAY101021AY201021GA1011+004501061GE19MSL   +99999+99999GF101991011999004501999999MA1999999099911MD1210051+9999MW1401REMSYN07689664 31461 10908 11026 21132 39991 52005 74000 81500 333 56800 59009 81615=
0177896640876012017012514554-77850+166667FM-15+002499999V0200501N004619999999N009999199-00301-01601999999ADDGA1021+007621999GA2021+021341999GE19MSL   +99999+99999GF199999021999007621999999MA1100272999999REMMET070METAR NZCM 251455Z 05009KT 9999 FEW025 FEW070 M03/M16 A2961 RMK SLPNO=
0185896640876012017012515004-77850+166667FM-12+002499999V0200501N004619999999N011000199-00301-01601100305ADDGA1011+007501061GA2999+999999031GE19MSL   +99999+99999GF101991011999007501999999MA1999999099881MD1610031+9999REMSYN06489664 42561 10509 11030 21160 39988 56003 81570 333 56880 81625=
0113896640876012017012517554-77850+166667FM-15+002499999V0203501N005112200019N009999199-00201-00901999999ADDGF100991999999999999999999MA1100302999999REMMET060METAR NZCM 251755Z 35010KT 9999 SKC M02/M09 A2962 RMK SLPNO=
0177896640876012017012520554-77850+166667FM-15+002499999V0203301N003119999999N009999199-00501-01101999999ADDGA1021+030481999GE19MSL   +99999+99999GF199999021999030481999999MA1100302999999REMMET086METAR NZCM 252055Z 33006KT 9999 FEW100 M05/M11 A2962 RMK SLPNO FATA MORGANA SW AND NW=
0181896640876012017012521004-77850+166667FM-12+002499999V0203301N003119999999N011000199-00461-01111100335ADDGA1011+030001031GE19MSL   +99999+99999GF101991011999030001999999MA1999999099911MD1410001+9999REMSYN07689664 42961 13306 11046 21111 39991 54000 81070 333 56080 81360 99115 99117=
0154896640876012017012523554-77850+166667FM-15+002499999V0203201N004119999999N009999199-00301-01001999999ADDGA1021+045721999GE19MSL   +99999+99999GF199999021999045721999999MA1100302999999REMMET063METAR NZCM 252355Z 32008KT 9999 FEW150 M03/M10 A2962 RMK SLPNO=
0175896640876012017012600004-77850+166667FM-12+002499999V0203201N004119999999N011000199-00311-00991100335ADDGA1011+045001001GE19MSL   +99999+99999GF101991011999045001999999MA1999999099911MD1990001+9999REMSYN07089664 32961 13208 11031 21099 39991 50000 80001 333 56008 59006 81065=
0154896640876012017012602554-77850+166667FM-15+002499999V0209999V002119999999N009999199+00001-00301999999ADDGA1021+045721999GE19MSL   +99999+99999GF199999021999045721999999MA1100272999999REMMET063METAR NZCM 260255Z VRB04KT 9999 FEW150 M00/M03 A2961 RMK SLPNO=
0169896640876012017012603004-77850+166667FM-12+002499999V0209999V002119999999N011000199-00031-00321100295ADDGA1011+045001001GE19MSL   +99999+99999GF101991011999045001999999MA1999999099881MD1810031+9999REMSYN06489664 42961 19904 11003 21032 39988 58003 80001 333 56008 81065=
0177896640876012017012605554-77850+166667FM-15+002499999V0200401N00261045721CN009999199-00101-00801999999ADDGA1021+006101999GA2041+045721999GE19MSL   +99999+99999GF199999021999006101999999MA1100302999999REMMET070METAR NZCM 260555Z 04005KT 9999 FEW020 SCT150 M01/M08 A2962 RMK SLPNO=
0177896640876012017012608554-77850+166667FM-15+002499999V0209999C00001045721CN009999199-00101-01001999999ADDGA1021+006101999GA2041+045721999GE19MSL   +99999+99999GF199999021999006101999999MA1100302999999REMMET070METAR NZCM 260855Z 00000KT 9999 FEW020 SCT150 M01/M10 A2962 RMK SLPNO=
0191896640876012017012609004-77850+166667FM-12+002499999V0209999C000019999999N011000199-00131-00971100325ADDGA1011+006001061GA2031+045001001GE19MSL   +99999+99999GF103991011999006001999999MA1999999099911MD1410001+9999REMSYN07089664 42561 30000 11013 21097 39991 54000 81502 333 56808 81620 83065=
0204896640876012017012611554-77850+166667FM-15+002499999V0209999C000019999999N009999199-00201-00801999999ADDGA1021+006101999GA2021+045721999GE19MSL   +99999+99999GF199999021999006101999999MA1100302999999REMMET097METAR NZCM 261155Z 00000KT 9999 FEW020 FEW150 M02/M08 A2962 RMK SLPNO FG DSNT SE FATA MORGANA SW=
0225896640876012017012612004-77850+166667FM-12+002499999V0209999C000019999999N011000199-00191-00791100335ADDAY101021AY201021GA1011+006001061GA2999+999999001GE19MSL   +99999+99999GF101991011999006001999999MA1999999099921MD1110011+9999MW1401REMSYN08289664 31561 10000 11019 21079 39992 51001 74000 81501 333 56808 58001 81620 99115=
0221896640876012017012614554-77850+166667FM-15+002499999V0209999C00001045721CN009999199-00101-00801999999ADDGA1021+006101999GA2021+030481999GA3021+045721999GE19MSL   +99999+99999GF199999021999006101999999MA1100242999999MW1401REMMET092METAR NZCM 261455Z 00000KT 9999 VCFG FEW020 FEW100 FEW150 M01/M08 A2960 RMK SLPNO VCFG SE-S=
0229896640876012017012615004-77850+166667FM-12+002499999V0209999C000019999999N011000199-00131-00821100265ADDAY101021AY201021GA1011+006001061GA2999+999999031GA3999+999999001GE19MSL   +99999+99999GF101991011999006001999999MA1999999099851MD1810071+9999MW1401REMSYN07089664 41561 10000 11013 21082 39985 58007 74000 81572 333 56888 81620=
0169896640876012017012617554-77850+166667FM-15+002499999V0209999C000019999999N009999199-00301-00901999999ADDGA1021+015241999GE19MSL   +99999+99999GF199999021999015241999999MA1100202999999REMMET078METAR NZCM 261755Z 00000KT 9999 FEW050 M03/M09 A2959 RMK SLPNO FATA MORGANA S=
0175896640876012017012618004-77850+166667FM-12+002499999V0209999C000019999999N011000199-00291-00891100255ADDGA1011+015001061GE19MSL   +99999+99999GF101991011999015001999999MA1999999099831MD1610021+9999REMSYN07089664 32761 10000 11029 21089 39983 56002 81500 333 56800 81650 99114=
0169896640876012017012620554-77850+166667FM-15+002499999V0209999C000019999999N009999199-00301-00801999999ADDGA1041+007621999GE19MSL   +99999+99999GF199999041999007621999999MA1100242999999REMMET078METAR NZCM 262055Z 00000KT 9999 SCT025 M03/M08 A2960 RMK SLPNO FATA MORGANA W=
0175896640876012017012621004-77850+166667FM-12+002499999V0209999C000019999999N011000199-00281-00811100275ADDGA1041+007501061GE19MSL   +99999+99999GF104991041999007501999999MA1999999099851MD1110021+9999REMSYN07089664 42561 40000 11028 21081 39985 51002 84500 333 56800 84625 99116=
0203896640876012017012700004-77850+166667FM-12+002499999V0200301N004119999999N011000199+00111-00681100245ADDGA1011+007501061GA2999+999999031GE19MSL   +99999+99999GF102991011999007501999999MA1999999099831MD1610021+9999REMSYN08289664 32561 20308 10011 21068 39983 56002 81570 333 56880 59008 81625 99114 99115=
0194896640876012017012702554-77850+166667FM-15+002499999V0200701N00461060961CN009999199+00301-00701999999ADDGA1021+007621999GA2041+060961999GE19MSL   +99999+99999GF199999021999007621999999MA1100172999999REMMET087METAR NZCM 270255Z 07009KT 9999 FEW025 SCT200 03/M07 A2958 RMK SLPNO FATA MORGANA SE-S=
0203896640876012017012703004-77850+166667FM-12+002499999V0200701N004619999999N011000199+00281-00691100195ADDGA1011+007501061GA2031+060001011GE19MSL   +99999+99999GF104991011999007501999999MA1999999099781MD1810051+9999REMSYN08289664 32561 40709 10028 21069 39978 58005 81509 333 56808 81625 83170 99113 99114=
0216896640876012017012708554-77850+166667FM-15+002499999V0201101N007210045719N009999199-00501-01001999999ADDGA1041+002131999GA2071+004571999GA3071+045721999GE19MSL   +99999+99999GF199999041999002131999999MA1100242999999REMMET093METAR NZCM 270855Z 11014KT 9999 SCT007 BKN015 BKN150 M05/M10 A2960 RMK SLPNO FG DSNT GRID SE=
0219896640876012017012709004-77850+166667FM-12+002499999V0201101N00721004501CN011000199-00471-01001100295ADDAY121021AY221021GA1031+002101071GA2051+004501061GE19MSL   +99999+99999GF105991031999002101999999MA1999999099871MD1310101+9999MW1401REMSYN07689664 41361 51114 11047 21100 39987 53010 74022 85509 333 56208 83707 85615=
0231896640876012017012711554-77850+166667FM-15+002499999V0200601N007710579119N009999199-00701-01501999999ADDGA1041+007621999GA2071+057911999GA3071+067061999GE19MSL   +99999+99999GF199999041999007621999999MA1100242999999OC101081REMMET100METAR NZCM 271155Z 06015G21KT 9999 SCT025 BKN190 BKN220 M07/M15 A2960 RMK SLPNO FATA MORGANA GRID W=
0203896640876012017012712004-77850+166667FM-12+002499999V0200601N00771057001CN011000199-00691-01501100285ADDGA1031+007501061GA2051+057001021GE19MSL   +99999+99999GF105991031999007501999999MA1999999099861MD1610011+9999REMSYN08289664 32561 50615 11069 21150 39986 56001 83508 333 56208 59006 83625 85269 99116=
0192896640876012017012714554-77850+166667FM-15+002499999V0200501N007710548619N009999199-00801-01701999999ADDGA1041+012191999GA2071+054861999GE19MSL   +99999+99999GF199999041999012191999999MA1100272999999REMMET085METAR NZCM 271455Z 05015KT 9999 SCT040 BKN180 M08/M17 A2961 RMK SLPNO FATA MORGANA W=
0197896640876012017012715004-77850+166667FM-12+002499999V0200501N00771054001CN011000199-00831-01721100315ADDGA1031+012001061GA2051+054001021GE19MSL   +99999+99999GF105991031999012001999999MA1999999099891MD1310031+9999REMSYN07689664 42661 50515 11083 21172 39989 53003 83508 333 56208 83640 85268 99116=
0209896640876012017012717554-77850+166667FM-15+002499999V0200701N00821054861CN009999199-00901-01501999999ADDGA1021+012191999GA2041+054861999GE19MSL   +99999+99999GF199999021999012191999999MA1100302999999OC101131REMMET094METAR NZCM 271755Z 07016G22KT 9999 FEW040 SCT180 M09/M15 A2962 RMK SLPNO FATA MORGANA S AND W=
0203896640876012017012718004-77850+166667FM-12+002499999V0200701N008219999999N011000199-00861-01551100345ADDGA1011+012001061GA2041+054001001GE19MSL   +99999+99999GF104991011999012001999999MA1999999099921MD1210031+9999REMSYN08289664 32661 40716 11086 21155 39992 52003 81501 333 56208 81640 84068 99114 99116=
0236896640876012017012720554-77850+166667FM-15+002499999V0200601N00721054861CN009999199-00901-01501999999ADDGA1021+006101999GA2041+054861999GE19MSL   +99999+99999GF199999021999006101999999MA1100302999999OC101131OD149901331050REMMET107METAR NZCM 272055Z 06014G22KT 9999 FEW020 SCT180 M09/M15 A2962 RMK PK WND 05026/1905 SLPNO FATA MORGANA NW=
0197896640876012017012721004-77850+166667FM-12+002499999V0200601N007219999999N011000199-00911-01571100355ADDGA1011+006001061GA2031+054001001GE19MSL   +99999+99999GF103991011999006001999999MA1999999099921MD1510001+9999REMSYN07689664 42561 30614 11091 21157 39992 55000 81502 333 56208 81620 83068 99117=
0188896640876012017012723554-77850+166667FM-15+002499999V0200601N010819999999N009999199-01001-01401999999ADDGA1021+009141999GA2021+054861999GE19MSL   +99999+99999GF199999021999009141999999MA1100272999999OC101241REMMET073METAR NZCM 272355Z 06021G24KT 9999 FEW030 FEW180 M10/M14 A2961 RMK SLPNO=
0191896640876012017012800004-77850+166667FM-12+002499999V0200601N010819999999N011000199-01001-01421100325ADDGA1011+009001061GA2999+999999001GE19MSL   +99999+99999GF102991011999009001999999MA1999999099891MD1610031+9999REMSYN07089664 32561 20621 11100 21142 39989 56003 81501 333 56208 58006 81630=
0227896640876012017012802554-77850+166667FM-15+002499999V0200601N01241054861CN009999199-01101-01601999999ADDGA1021+007621999GA2021+010671999GA3021+054861999GE19MSL   +99999+99999GF199999021999007621999999MA1100142999999OC101391REMMET096METAR NZCM 280255Z 06024G27KT 9999 FEW025 FEW035 FEW180 M11/M16 A2957 RMK PK WND 06028/43 SLPNO=
0249896640876012017012805554-77850+166667FM-15+002499999V0200501N007219999999N009999199-00801-01401999999ADDGA1021+007621999GA2021+054861999GE19MSL   +99999+99999GF199999021999007621999999MA1100032999999OC101131OD149901441060REMMET120METAR NZCM 280555Z 05014G22KT 9999 FEW025 FEW180 M08/M14 A2954 RMK PK WND 06028/0327 CCSL N SLPNO FATA MORGANA SE AND W=
0197896640876012017012806004-77850+166667FM-12+002499999V0200501N007219999999N011000199-00791-01381100095ADDGA1011+007501061GA2999+999999011GE19MSL   +99999+99999GF101991011999007501999999MA1999999099671MD1710091+9999REMSYN07689664 32561 10514 11079 21138 39967 57009 81509 333 56000 81625 99113 99116=
0192896640876012017012808554-77850+166667FM-15+002499999V0201001N004119999999N009999199-00401-01701999999ADDGA1021+007621999GA2021+054861999GE19MSL   +99999+99999GF199999021999007621999999MA1099932999999REMMET085METAR NZCM 280855Z 10008KT 9999 FEW025 FEW180 M04/M17 A2951 RMK SLPNO FATA MORGANA S=
0191896640876012017012809004-77850+166667FM-12+002499999V0201001N004119999999N011000199-00391-01671099985ADDGA1011+007501061GA2999+999999001GE19MSL   +99999+99999GF101991011999007501999999MA1999999099561MD1710111+9999REMSYN07089664 42561 11008 11039 21167 39956 57011 81501 333 56008 81625 99114=
0200896640876012017012811554-77850+166667FM-15+002499999V0209999C00001054861CN009999199-00601-01701999999ADDGA1021+007621999GA2021+021341999GA3021+054861999GE19MSL   +99999+99999GF199999021999007621999999MA1099761999999REMMET077METAR NZCM 281155Z 00000KT 9999 FEW025 FEW070 FEW180 M06/M17 A2946 RMK SLPNO=
0207896640876012017012812004-77850+166667FM-12+002499999V0209999C000019999999N011000199-00581-01661099815ADDGA1011+007501061GA2999+999999031GA3999+999999001GE19MSL   +99999+99999GF102991011999007501999999MA1099775099391MD1710171+9999REMSYN07089664 32561 20000 11058 21166 39939 57017 81572 333 56088 59047 81625=
0198896640876012017012814554-77850+166667FM-15+002499999V0209999C000010064019N009999199-00201-01501999999ADDGA1021+001521999GA2071+006401999GE19MSL   +99999+99999GF199999021999001521999999MA1099561999999REMMET091METAR NZCM 281455Z 00000KT 9999 FEW005 BKN021 M02/M15 A2940 RMK SLPNO FATA MORGANA SE-SW-W=
0215896640876012017012815004-77850+166667FM-12+002499999V0209999C00001006301CN011000199-00251-01501099615ADDGA1011+001501071GA2071+006301061GE19MSL   +99999+99999GF107991011999001501999999MA1099585099201MD1810191+9999REMSYN09489664 42261 70000 11025 21150 39920 58019 87500 333 56800 81705 87621 99113 99114 99115 99116=
0154896640876012017012817554-77850+166667FM-15+002499999V0203501N003610070119N009999199-00601-01101999999ADDGA1071+007011999GE19MSL   +99999+99999GF199999071999007011999999MA1099461999999REMMET063METAR NZCM 281755Z 35007KT 9999 BKN023 M06/M11 A2937 RMK SLPNO=
0169896640876012017012818004-77850+166667FM-12+002499999V0203501N003610069019N011000199-00591-01071099505ADDGA1071+006901061GE19MSL   +99999+99999GF107991071999006901999999MA1099465099081MD1710121+9999REMSYN06489664 32561 73507 11059 21107 39908 57012 87500 333 56800 87623=
0192896640876012017012820554-77850+166667FM-15+002499999V0209999C000019999999N009999199-00501-01001999999ADDGA1021+003051999GA2021+007621999GE19MSL   +99999+99999GF199999021999003051999999MA1099361999999REMMET085METAR NZCM 282055Z 00000KT 9999 FEW010 FEW025 M05/M10 A2934 RMK SLPNO FATA MORGANA S=
0175896640876012017012821004-77850+166667FM-12+002499999V0209999C000019999999N011000199-00531-01021099415ADDGA1011+003001061GE19MSL   +99999+99999GF101991011999003001999999MA1099375098991MD1810091+9999REMSYN07089664 42461 10000 11053 21102 39899 58009 81500 333 56800 81610 99114=
0154896640876012017012823554-77850+166667FM-15+002499999V0209999V001519999999N009999199-00501-01101999999ADDGA1021+007621999GE19MSL   +99999+99999GF199999021999007621999999MA1099221999999REMMET063METAR NZCM 282355Z VRB03KT 9999 FEW025 M05/M11 A2930 RMK SLPNO=
0175896640876012017012900004-77850+166667FM-12+002499999V0209999V001519999999N011000199-00491-01101099245ADDGA1011+007501061GE19MSL   +99999+99999GF101991011999007501999999MA1099215098831MD1810161+9999REMSYN07089664 32561 19903 11049 21110 39883 58016 81500 333 56800 59106 81625=
0192896640876012017012902554-77850+166667FM-15+002499999V0209999C000010061019N009999199-00301-01001999999ADDGA1071+006101999GA2071+030481999GE19MSL   +99999+99999GF199999071999006101999999MA1099021999999REMMET085METAR NZCM 290255Z 00000KT 9999 BKN020 BKN100 M03/M10 A2924 RMK SLPNO FATA MORGANA S=
0191896640876012017012903004-77850+166667FM-12+002499999V0209999C000010060019N011000199-00281-01021099045ADDGA1051+006001061GA2999+999999031GE19MSL   +99999+99999GF105991051999006001999999MA1099015098631MD1710201+9999REMSYN07089664 42561 50000 11028 21102 39863 57020 85570 333 56880 85620 99114=
0177896640876012017012905554-77850+166667FM-15+002499999V0209999C000010045719N009999199-00101-00801999999ADDGA1071+004571999GA2071+009141999GE19MSL   +99999+99999GF199999071999004571999999MA1098811999999REMMET070METAR NZCM 290555Z 00000KT 9999 BKN015 BKN030 M01/M08 A2918 RMK SLPNO=
0169896640876012017012906004-77850+166667FM-12+002499999V0209999C000010045019N011000199-00141-00841098855ADDGA1051+004501061GE19MSL   +99999+99999GF105991051999004501999999MA1098825098441MD1710191+9999REMSYN06489664 32461 50000 11014 21084 39844 57019 85500 333 56800 85615=
0154896640876012017012908554-77850+166667FM-15+002499999V0209999C000019999999N009999199-00301-00901999999ADDGA1021+004571999GE19MSL   +99999+99999GF199999021999004571999999MA1098711999999REMMET063METAR NZCM 290855Z 00000KT 9999 FEW015 M03/M09 A2915 RMK SLPNO=
0169896640876012017012909004-77850+166667FM-12+002499999V0209999C000019999999N011000199-00351-00911098755ADDGA1011+004501061GE19MSL   +99999+99999GF101991011999004501999999MA1098725098341MD1710101+9999REMSYN06489664 42461 10000 11035 21091 39834 57010 81500 333 56800 81615=
0177896640876012017012911554-77850+166667FM-15+002499999V0209999C000019999999N009999199-00401-01001999999ADDGA1021+004571999GA2021+009141999GE19MSL   +99999+99999GF199999021999004571999999MA1098651999999REMMET070METAR NZCM 291155Z 00000KT 9999 FEW015 FEW030 M04/M10 A2913 RMK SLPNO=
0175896640876012017012912004-77850+166667FM-12+002499999V0209999C000019999999N011000199-00391-00991098685ADDGA1011+004501061GE19MSL   +99999+99999GF101991011999004501999999MA1098655098271MD1710071+9999REMSYN07089664 32461 10000 11039 21099 39827 57007 81500 333 56800 59112 81615=
0200896640876012017012914554-77850+166667FM-15+002499999V0209999C00001018291CN009999199-00401-01201999999ADDGA1021+004571999GA2021+009141999GA3021+018291999GE19MSL   +99999+99999GF199999021999004571999999MA1098581999999REMMET077METAR NZCM 291455Z 00000KT 9999 FEW015 FEW030 FEW060 M04/M12 A2911 RMK SLPNO=
0169896640876012017012915004-77850+166667FM-12+002499999V0209999C000019999999N011000199-00391-01201098635ADDGA1011+004501061GE19MSL   +99999+99999GF102991011999004501999999MA1098605098221MD1710051+9999REMSYN06489664 42461 20000 11039 21120 39822 57005 82500 333 56700 81615=
0196896640876012017012917554-77850+166667FM-15+002499999V0209999C000010051819N009999199-00401-00801999999ADDGA1071+005181999GA2071+007621999GE19MSL   +99999+99999GF199999071999005181999999MA1098581999999REMMET089METAR NZCM 291755Z 00000KT 9999 BKN017 BKN025 M04/M08 A2911 RMK SLPNO FATA MORGANA SE-SW=
0187896640876012017012918004-77850+166667FM-12+002499999V0209999C000010051019N011000199-00391-00841098615ADDGA1051+005101061GE19MSL   +99999+99999GF107991051999005101999999MA1098585098201MD1810021+9999REMSYN08289664 32461 70000 11039 21084 39820 58002 87500 333 56700 85617 99113 99114 99115=
0172896640876012017012920554-77850+166667FM-15+002499999V0209999C000010064019N009999199-00301-00701098641ADDGA1071+006401999GE19MSL   +99999+99999GF199999071999006401999999MA1098611098235REMMET081METAR NZCM 292055Z 00000KT 9999 BKN021 M03/M07 A2912 RMK SLP864 FATA MORGANA S-W=
0193896640876012017012921004-77850+166667FM-12+002499999V0209999C000010063019N011000199-00291-00721098641ADDGA1071+006301061GE19MSL   +99999+99999GF107991071999006301999999MA1098615098231MD1110031+9999REMSYN08889664 42561 70000 11029 21072 39823 49864 51003 87500 333 56700 87621 99114 99115 99116=
0177896640876012017012923554-77850+166667FM-15+002499999V0209999V00211009451CN009999199-00101-00801999999ADDGA1021+006401999GA2041+009451999GE19MSL   +99999+99999GF199999021999006401999999MA1098651999999REMMET070METAR NZCM 292355Z VRB04KT 9999 FEW021 SCT031 M01/M08 A2913 RMK SLPNO=
0235896640876012017013000004-77850+166667FM-12+002499999V0209999V002119999999N011000199-00081-00781098695ADDGA1011+006301061GA2041+009301061GE19MSL   +99999+99999GF104991011999006301999999KA1120M-00071KA2120N-00421MA1098665098281MD1310051+9999REMSYN08889664 32561 49904 11008 21078 39828 53005 84500 333 11007 21042 56700 59055 81621 84631=
0177896640876012017013002554-77850+166667FM-15+002499999V0200401N004619999999N009999199-00201-00901999999ADDGA1021+006101999GA2021+009141999GE19MSL   +99999+99999GF199999021999006101999999MA1098751999999REMMET070METAR NZCM 300255Z 04009KT 9999 FEW020 FEW030 M02/M09 A2916 RMK SLPNO=
0169896640876012017013003004-77850+166667FM-12+002499999V0200401N004619999999N011000199-00191-00951098785ADDGA1011+006001081GE19MSL   +99999+99999GF101991011999006001999999MA1098755098371MD1310091+9999REMSYN06489664 42561 10409 11019 21095 39837 53009 81800 333 56700 81820=
0205896640876012017013005554-77850+166667FM-15+002499999V0200701N00361030481CN009999199-00201-01001098921ADDGA1021+006101999GA2021+009141999GA3021+030481999GE19MSL   +99999+99999GF199999021999006101999999MA1098881098515REMMET082METAR NZCM 300555Z COR 07007KT 9999 FEW020 FEW030 FEW100 M02/M10 A2920 RMK SLP892=
0191896640876012017013006004-77850+166667FM-12+002499999V0200701N003619999999N011000199-00171-01021098921ADDGA1011+006001081GA2999+999999031GE19MSL   +99999+99999GF101991011999006001999999MA1098895098511MD1210141+9999REMSYN07089664 32561 10707 11017 21102 39851 49892 52014 81870 333 56770 81820=
0178896640876012017013008554-77850+166667FM-15+002499999V0200901N00361009141CN009999199-00401-01001099131ADDGA1021+006101999GA2041+009141999GE19MSL   +99999+99999GF199999021999006101999999MA1099091098725REMMET071METAR NZCM 300855Z 09007KT 9999 FEW020 SCT030 M04/M10 A2926 RMK SLP913=
0197896640876012017013009004-77850+166667FM-12+002499999V0200901N003619999999N011000199-00441-01011099131ADDGA1011+006001061GA2031+009001061GE19MSL   +99999+99999GF103991011999006001999999MA1099105098721MD1210211+9999REMSYN07689664 42561 30907 11044 21101 39872 49913 52021 83500 333 56700 81620 83630=
0177896640876012017013011554-77850+166667FM-15+002499999V0201001N00511009141CN009999199-00501-01101999999ADDGA1021+006101999GA2041+009141999GE19MSL   +99999+99999GF199999021999006101999999MA1099251999999REMMET070METAR NZCM 301155Z 10010KT 9999 FEW020 SCT030 M05/M11 A2931 RMK SLPNO=
0197896640876012017013012004-77850+166667FM-12+002499999V0201001N005119999999N011000199-00521-01121099315ADDGA1011+006001061GA2041+009001061GE19MSL   +99999+99999GF104991011999006001999999MA1099275098891MD1210171+9999REMSYN07689664 32561 41010 11052 21112 39889 52017 84500 333 56100 58062 81620 84630=
0177896640876012017013014554-77850+166667FM-15+002499999V0200601N005719999999N009999199-00501-01501999999ADDGA1021+039621999GA2021+054861999GE19MSL   +99999+99999GF199999021999039621999999MA1099361999999REMMET070METAR NZCM 301455Z 06011KT 9999 FEW130 FEW180 M05/M15 A2934 RMK SLPNO=
0185896640876012017013015004-77850+166667FM-12+002499999V0200601N005719999999N011000199-00531-01471099415ADDGA1011+039001031GA2999+999999001GE19MSL   +99999+99999GF102991011999039001999999MA1099375098991MD1210101+9999REMSYN06489664 42961 20611 11053 21147 39899 52010 81071 333 56088 81363=
0154896640876012017013017554-77850+166667FM-15+002499999V0200601N004119999999N009999199-00601-01501999999ADDGA1041+054861999GE19MSL   +99999+99999GF199999041999054861999999MA1099561999999REMMET063METAR NZCM 301755Z 06008KT 9999 SCT180 M06/M15 A2940 RMK SLPNO=
0169896640876012017013018004-77850+166667FM-12+002499999V0200601N004119999999N011000199-00641-01511099625ADDGA1031+054001021GE19MSL   +99999+99999GF103991031999054001999999MA1099585099201MD1210211+9999REMSYN06489664 32961 30608 11064 21151 39920 52021 80008 333 56008 83268=
0212896640876012017013020554-77850+166667FM-15+002499999V0200601N00721054861CN009999199-00801-01701099751ADDGA1021+009141999GA2021+030481999GA3021+054861999GE19MSL   +99999+99999GF199999021999009141999999MA1099691099335OC101031REMMET081METAR NZCM 302055Z 06014G20KT 9999 FEW030 FEW100 FEW180 M08/M17 A2944 RMK SLP975=
0207896640876012017013021004-77850+166667FM-12+002499999V0200601N007219999999N011000199-00801-01671099751ADDGA1011+009001061GA2999+999999031GA3999+999999021GE19MSL   +99999+99999GF102991011999009001999999MA1099715099331MD1110131+9999REMSYN07089664 42561 20614 11080 21167 39933 49975 51013 81578 333 56888 81630=
0211896640876012017013023554-77850+166667FM-15+002499999V0200601N00771054861CN009999199-00801-01601999999ADDGA1021+015241999GA2021+030481999GA3021+054861999GE19MSL   +99999+99999GF199999021999015241999999MA1099861999999OC101081REMMET080METAR NZCM 302355Z 06015G21KT 9999 FEW050 FEW100 FEW180 M08/M16 A2949 RMK SLPNO=
0207896640876012017013100004-77850+166667FM-12+002499999V0200601N007719999999N011000199-00831-01631099925ADDGA1011+015001061GA2999+999999031GA3999+999999021GE19MSL   +99999+99999GF102991011999015001999999MA1099885099501MD1210171+9999REMSYN07089664 32761 20615 11083 21163 39950 52017 81538 333 56888 58122 81650=
0154896640876012017013102554-77850+166667FM-15+002499999V0200601N006719999999N009999199-00801-01501999999ADDGA1041+054861999GE19MSL   +99999+99999GF199999041999054861999999MA1099972999999REMMET063METAR NZCM 310255Z 06013KT 9999 SCT180 M08/M15 A2952 RMK SLPNO=
0169896640876012017013103004-77850+166667FM-12+002499999V0200601N006719999999N011000199-00831-01511099995ADDGA1041+054001021GE19MSL   +99999+99999GF104991041999054001999999MA1999999099571MD1310071+9999REMSYN06489664 42961 40613 11083 21151 39957 53007 80008 333 56008 84268=
0188896640876012017013105554-77850+166667FM-15+002499999V0200601N00771054861CN009999199-00901-01601999999ADDGA1021+030481999GA2041+054861999GE19MSL   +99999+99999GF199999021999030481999999MA1100032999999OC101131REMMET073METAR NZCM 310555Z 06015G22KT 9999 FEW100 SCT180 M09/M16 A2954 RMK SLPNO=
0191896640876012017013106004-77850+166667FM-12+002499999V0200601N007719999999N011000199-00901-01601100065ADDGA1011+030001031GA2041+054001021GE19MSL   +99999+99999GF104991011999030001999999MA1999999099641MD1310071+9999REMSYN07089664 32961 40615 11090 21160 39964 53007 81078 333 56088 81360 84268=
0166896640876012017013108554-77850+166667FM-15+002499999V0200701N007219999999N009999199-01101-01701100171ADDGA1021+054861999GE19MSL   +99999+99999GF199999021999054861999999MA1100142099745OC101291REMMET067METAR NZCM 310855Z 07014G25KT 9999 FEW180 M11/M17 A2957 RMK SLP017=
0175896640876012017013109004-77850+166667FM-12+002499999V0200701N007219999999N011000199-01151-01701100171ADDGA1011+054001001GE19MSL   +99999+99999GF101991011999054001999999MA1999999099741MD1110101+9999REMSYN07089664 42961 10714 11115 21170 39974 40017 51010 81001 333 56008 81068=
0216896640876012017013111554-77850+166667FM-15+002499999V0200601N006219999999N009999199-01101-01801100191ADDGA1021+030481999GE19MSL   +99999+99999GF199999021999030481999999MA1100142099765OC100981OD149901441060REMMET103METAR NZCM 311155Z 06012G19KT 9999 FEW100 M11/M18 A2957 RMK PK WND 06028/1003 SLP019 FATA MORGANA W-NW=
0193896640876012017013112004-77850+166667FM-12+002499999V0200601N006219999999N011000199-01081-01801100191ADDGA1011+030001031GE19MSL   +99999+99999GF101991011999030001999999MA1999999099751MD1110021+9999REMSYN08889664 32961 10612 11108 21180 39975 40019 51002 81070 333 56080 58087 81360 99116 99117=
0170896640876012017013114554-77850+166667FM-15+002499999V0200601N006719999999N009999199-00901-01701100241ADDGA1021+030481999GE19MSL   +99999+99999GF199999021999030481999999MA1100202099815REMMET079METAR NZCM 311455Z 06013KT 9999 FEW100 M09/M17 A2959 RMK SLP024 FATA MORGANA W=
0181896640876012017013115004-77850+166667FM-12+002499999V0200601N006719999999N011000199-00951-01731100241ADDGA1011+030001031GE19MSL   +99999+99999GF101991011999030001999999MA1999999099811MD1110061+9999REMSYN07689664 42961 10613 11095 21173 39981 40024 51006 81070 333 56080 81360 99116=
0193896640876012017013117554-77850+166667FM-15+002499999V0200801N007219999999N009999199-01201-01701100281ADDGA1021+045721999GE19MSL   +99999+99999GF199999021999045721999999MA1100242099855OC100981REMMET094METAR NZCM 311755Z 08014G19KT 9999 FEW150 M12/M17 A2960 RMK CCSL W SLP028 FATA MORGANA SE-S-W=
0199896640876012017013118004-77850+166667FM-12+002499999V0200801N007219999999N011000199-01191-01721100281ADDGA1011+045001011GE19MSL   +99999+99999GF101991011999045001999999MA1999999099851MD1110041+9999REMSYN09489664 32961 10814 11119 21172 39985 40028 51004 80009 333 56000 81165 99113 99114 99115 99116=
0185896640876012017013120554-77850+166667FM-15+002499999V0200801N006219999999N009999199-01201-01701100351ADDGA1021+045721999GE19MSL   +99999+99999GF199999021999045721999999MA1100302099925OC101031REMMET086METAR NZCM 312055Z 08012G20KT 9999 FEW150 M12/M17 A2962 RMK SLP035 FATA MORGANA SE-SW=
0193896640876012017013121004-77850+166667FM-12+002499999V0200801N006219999999N011000199-01181-01681100351ADDGA1011+045001001GE19MSL   +99999+99999GF101991011999045001999999MA1999999099911MD1110061+9999REMSYN08889664 42961 10812 11118 21168 39991 40035 51006 80001 333 56006 81065 99113 99114 99115=
0181896640876012017013123554-77850+166667FM-15+002499999V0200801N005719999999N009999199-00901-01801100311ADDGA1021+039621999GE19MSL   +99999+99999GF199999021999039621999999MA1100272099885OC100881REMMET082METAR NZCM 312355Z 08011G17KT 9999 FEW130 M09/M18 A2961 RMK SLP031 FATA MORGANA S=
0225896640876012017020100004-77850+166667FM-12+002499999V0200801N005719999999N011000199-00871-01841100311ADDGA1011+039001001GE19MSL   +99999+99999GF101991011999039001999999KA1120M-00831KA2120N-01321MA1100265099881MD1710031+9999REMSYN09489664 32961 10811 11087 21184 39988 40031 57003 80002 333 11083 21132 56006 58038 81063 99114=
0188896640876012017020102554-77850+166667FM-15+002499999V0200801N005719999999N009999199-00801-01801100251ADDGA1021+039621999GE19MSL   +99999+99999GF199999021999039621999999MA1100201099835OC100881REMMET089METAR NZCM 010255Z 08011G17KT 9999 FEW130 M08/M18 A2959 RMK SLP025 FATA MORGANA S AND NW=
0187896640876012017020103004-77850+166667FM-12+002499999V0200801N005719999999N011000199-00801-01761100251ADDGA1011+039001031GE19MSL   +99999+99999GF101991011999039001999999MA1100205099821MD1610061+9999REMSYN08289664 42961 10811 11080 21176 39982 40025 56006 81070 333 56060 81363 99114 99127=
0129896640876012017020105554-77850+166667FM-15+002499999V0200701N003612200019N009999199-00401-02001100141ADDGF100991999999999999999999MA1100101099725REMMET076METAR NZCM 010555Z 07007KT 9999 SKC M04/M20 A2956 RMK SLP014 FATA MORGANA S=
0099896640876012017020106004-77850+166667FM-12+002499999V0200701N003619999999N011000199-00421-01981100141ADDMA1100105099721MD1610101+9999REMSYN05889664 32961 00707 11042 21198 39972 40014 56010 333 99124=
0200896640876012017020108554-77850+166667FM-15+002499999V0200301N004119999999N009999199-00501-01901100061ADDGA1021+006101999GA2021+030481999GE19MSL   +99999+99999GF199999021999006101999999MA1100001099645REMMET093METAR NZCM 010855Z 03008KT 9999 FEW020 FEW100 M05/M19 A2953 RMK SLP006 FATA MORGANA SE-SW-NW=
0221896640876012017020109004-77850+166667FM-12+002499999V0200301N004119999999N011000199-00521-01951100061ADDGA1011+006001061GA2999+999999031GE19MSL   +99999+99999GF101991011999006001999999MA1100015099631MD1610091+9999REMSYN10089664 42561 10308 11052 21195 39963 40006 56009 81570 333 56080 81620 99113 99114 99115 99156 99157=
0136896640876012017020111554-77850+166667FM-15+002499999V0200401N002612200019N009999199-00501-01601099971ADDGF100991999999999999999999MA1099931099555REMMET083METAR NZCM 011155Z 04005KT 9999 SKC M05/M16 A2951 RMK SLP997 FATA MORGANA SE-SW-NW=
0167896640876012017020112004-77850+166667FM-12+002499999V0200401N002619999999N011000199-00521-01621099971ADDKA1240M-00391KA2240N-00871MA1099925099541MD1710091-0211REMSYN10089664 32961 00405 11052 21162 39954 49997 57009 333 11039 21087 59021 99153 99154 99115 99116 99157=
0176896640876012017020114554-77850+166667FM-15+002499999V0209999C000019999999N009999199-00701-01701099831ADDGA1021+007621999GE19MSL   +99999+99999GF199999021999007621999999MA1099801099415REMMET085METAR NZCM 011455Z 00000KT 9999 FEW025 M07/M17 A2947 RMK SLP983 FATA MORGANA S AND W=
0187896640876012017020115004-77850+166667FM-12+002499999V0209999C000019999999N011000199-00711-01661099831ADDGA1011+007501061GE19MSL   +99999+99999GF101991011999007501999999MA1099795099411MD1710131+9999REMSYN08289664 42561 10000 11071 21166 39941 49983 57013 81500 333 56800 81625 99114 99116=
0172896640876012017020117554-77850+166667FM-15+002499999V0209999V002110061019N009999199-00801-01601099761ADDGA1071+006101999GE19MSL   +99999+99999GF199999071999006101999999MA1099731099345REMMET081METAR NZCM 011755Z VRB04KT 9999 BKN020 M08/M16 A2945 RMK SLP976 FATA MORGANA S-W=
0193896640876012017020118004-77850+166667FM-12+002499999V0209999V002110060019N011000199-00811-01581099761ADDGA1061+006001061GE19MSL   +99999+99999GF106991061999006001999999MA1099725099341MD1710071+9999REMSYN08889664 32561 69904 11081 21158 39934 49976 57007 86500 333 56800 86620 99114 99115 99116=
0176896640876012017020120554-77850+166667FM-15+002499999V0209999C000010054919N009999199-00601-01001099661ADDGA1071+005491999GE19MSL   +99999+99999GF199999071999005491999999MA1099631099245REMMET085METAR NZCM 012055Z 00000KT 9999 BKN018 M06/M10 A2942 RMK SLP966 FATA MORGANA SE-SW-W=
0199896640876012017020121004-77850+166667FM-12+002499999V0209999C000010054019N011000199-00641-01031099661ADDGA1061+005401061GE19MSL   +99999+99999GF106991061999005401999999MA1099615099231MD1710111+9999REMSYN09489664 42461 60000 11064 21103 39923 49966 57011 86500 333 56800 86618 99113 99154 99155 99116=
0174896640876012017020123554-77850+166667FM-15+002499999V0202001N001510054919N009999199-00501-00901099551ADDGA1071+005491999GE19MSL   +99999+99999GF199999071999005491999999MA1099531099135REMMET083METAR NZCM 012355Z 20003KT 9999 BKN018 M05/M09 A2939 RMK SLP955 FATA MORGANA SE-SW=
0237896640876012017020200004-77850+166667FM-12+002499999V0202001N001510054019N011000199-00471-00861099551ADDGA1071+005401061GE19MSL   +99999+99999GF107991071999005401999999KA1120M-00391KA2120N-00931MA1099525099141MD1710091+9999REMSYN10689664 32461 72003 11047 21086 39914 49955 57009 87500 333 11039 21093 56800 59074 87618 99153 99154 99155=
0174896640876012017020201554-77850+166667FM-15+002499999V0202201N002110048819N009999199-00501-00901099471ADDGA1071+004881999GE19MSL   +99999+99999GF199999071999004881999999MA1099421099055REMMET083METAR NZCM 020155Z 22004KT 9999 BKN016 M05/M09 A2936 RMK SLP947 FATA MORGANA SE-SW=
0174896640876012017020202554-77850+166667FM-15+002499999V0202101N001510045719N009999199-00501-00901099421ADDGA1071+004571999GE19MSL   +99999+99999GF199999071999004571999999MA1099391099005REMMET083METAR NZCM 020255Z 21003KT 9999 BKN015 M05/M09 A2935 RMK SLP942 FATA MORGANA SE-SW=
0193896640876012017020203004-77850+166667FM-12+002499999V0202101N001510045019N011000199-00471-00911099421ADDGA1051+004501061GE19MSL   +99999+99999GF105991051999004501999999MA1099375098991MD1710151+9999REMSYN08889664 42461 52103 11047 21091 39899 49942 57015 85500 333 56800 85615 99153 99114 99115=
0173896640876012017020205554-77850+166667FM-15+002499999V0209999C000019999999N009999199-00401-00901099301ADDGA1021+004571999GE19MSL   +99999+99999GF199999021999004571999999MA1099251098895REMMET082METAR NZCM 020555Z 00000KT 9999 FEW015 M04/M09 A2931 RMK SLP930 FATA MORGANA SE-S=
0187896640876012017020206004-77850+166667FM-12+002499999V0209999C000019999999N011000199-00381-00871099301ADDGA1021+004501061GE19MSL   +99999+99999GF102991021999004501999999MA1099255098871MD1710121+9999REMSYN08289664 32461 20000 11038 21087 39887 49930 57012 82500 333 56800 82615 99153 99114=
0175896640876012017020208554-77850+166667FM-15+002499999V0209999C000019999999N009999199-00401-00901099241ADDGA1021+004571999GE19MSL   +99999+99999GF199999021999004571999999MA1099221098835REMMET084METAR NZCM 020855Z 00000KT 9999 FEW015 M04/M09 A2930 RMK SLP924 FATA MORGANA SE-S-W=
0199896640876012017020209004-77850+166667FM-12+002499999V0209999C000019999999N011000199-00421-00881099241ADDGA1011+004501061GE19MSL   +99999+99999GF101991011999004501999999MA1099215098831MD1610041+9999REMSYN09489664 42461 10000 11042 21088 39883 49924 56004 81500 333 56000 81615 99113 99154 99155 99116=
0170896640876012017020211554-77850+166667FM-15+002499999V0209999C000019999999N009999199-00601-00901099181ADDGA1021+004571999GE19MSL   +99999+99999GF199999021999004571999999MA1099151098765REMMET079METAR NZCM 021155Z 00000KT 9999 FEW015 M06/M09 A2928 RMK SLP918 FATA MORGANA W=
0219896640876012017020212004-77850+166667FM-12+002499999V0209999C000019999999N011000199-00631-00931099181ADDGA1011+004501061GE19MSL   +99999+99999GF101991011999004501999999KA1240M-00341KA2240N-00931MA1099155098771MD1610061+9999REMSYN08889664 32461 10000 11063 21093 39877 49918 56006 81500 333 11034 21093 56000 81615 99116=
0204896640876012017020214554-77850+166667FM-15+002499999V0209999C000019999999N009999199-00701-01001099161ADDGA1021+003051999GA2021+015241999GE19MSL   +99999+99999GF199999021999003051999999MA1099121098745MW1121REMMET091METAR NZCM 021455Z 00000KT 9999 MIFG FEW010 FEW050 M07/M10 A2927 RMK SLP916 FATA MORGANA W=
0209896640876012017020215004-77850+166667FM-12+002499999V0209999C000019999999N011000199-00671-01011099161ADDAY101021AY201021GA1011+003001071GE19MSL   +99999+99999GF101991011999003001999999MA1099115098731MD1710041+9999MW1111REMSYN08289664 41461 10000 11067 21101 39873 49916 57004 71100 81500 333 56800 81710 99116=
0143896640876012017020217554-77850+166667FM-15+002499999V0209999C000012200019N009999199-00701-01001099131ADDGF100991999999999999999999MA1099091098715MW1121REMMET084METAR NZCM 021755Z 00000KT 9999 MIFG SKC M07/M10 A2926 RMK SLP913 FATA MORGANA SE-S=
0133896640876012017020218004-77850+166667FM-12+002499999V0209999C000019999999N011000199-00711-00991099131ADDAY101021AY201021MA1099095098711MD1610021+9999MW1111REMSYN07089664 31961 00000 11071 21099 39871 49913 56002 71100 333 99113 99114=
0141896640876012017020220554-77850+166667FM-15+002499999V0209999V002612200019N009999199-00501-01201099171ADDGF100991999999999999999999MA1099151098765MW1121REMMET082METAR NZCM 022055Z VRB05KT 9999 MIFG SKC M05/M12 A2928 RMK SLP917 FATA MORGANA SW=
0127896640876012017020221004-77850+166667FM-12+002499999V0209999V002619999999N011000199-00491-01191099171ADDAY101021AY201021MA1099145098761MD1310051+9999MW1111REMSYN06489664 42961 09905 11049 21119 39876 49917 53005 71100 333 99115=
0184896640876012017020223554-77850+166667FM-15+002499999V0200901N006719999999N009999199-00601-01601099251ADDGA1021+006101999GE19MSL   +99999+99999GF199999021999006101999999MA1099221098835OC100881REMMET085METAR NZCM 022355Z 09013G17KT 9999 FEW020 M06/M16 A2930 RMK SLP925 FATA MORGANA S-SW=
0231896640876012017020300004-77850+166667FM-12+002499999V0200901N006719999999N011000199-00561-01581099251ADDGA1011+006001061GE19MSL   +99999+99999GF101991011999006001999999KA1120M-00421KA2120N-00961MA1099215098831MD1210071+9999REMSYN10089664 32561 10913 11056 21158 39883 49925 52007 81500 333 11042 21096 56000 59031 81620 99114 99115=
0166896640876012017020302554-77850+166667FM-15+002499999V0201001N007219999999N009999199-00801-01601099281ADDGA1021+006101999GE19MSL   +99999+99999GF199999021999006101999999MA1099221098865OC101031REMMET067METAR NZCM 030255Z 10014G20KT 9999 FEW020 M08/M16 A2930 RMK SLP928=
0175896640876012017020303004-77850+166667FM-12+002499999V0201001N007219999999N011000199-00811-01641099281ADDGA1011+006001061GE19MSL   +99999+99999GF101991011999006001999999MA1099235098851MD1210021+9999REMSYN07089664 42561 11014 11081 21164 39885 49928 52002 81500 333 56000 81620=
0198896640876012017020305554-77850+166667FM-15+002499999V0200501N006719999999N009999199-00801-01701099261ADDGA1021+024381999GE19MSL   +99999+99999GF199999021999024381999999MA1099221098845OC101031OD149901391050REMMET085METAR NZCM 030555Z 05013G20KT 9999 FEW080 M08/M17 A2930 RMK PK WND 05027/0406 SLP926=
0175896640876012017020306004-77850+166667FM-12+002499999V0200501N006719999999N011000199-00811-01721099261ADDGA1011+024001031GE19MSL   +99999+99999GF101991011999024001999999MA1099215098831MD1810021+9999REMSYN07089664 32861 10513 11081 21172 39883 49926 58002 81070 333 56080 81358=
0201896640876012017020308554-77850+166667FM-15+002499999V0200901N00461045721CN009999199-00401-01901099251ADDGA1021+009141999GA2021+030481999GA3021+045721999GE19MSL   +99999+99999GF199999021999009141999999MA1099221098845REMMET078METAR NZCM 030855Z 09009KT 9999 FEW030 FEW100 FEW150 M04/M19 A2930 RMK SLP925=
0207896640876012017020309004-77850+166667FM-12+002499999V0200901N004619999999N011000199-00451-01911099251ADDGA1011+009001061GA2999+999999031GA3999+999999001GE19MSL   +99999+99999GF101991011999009001999999MA1099225098841MD1110011+9999REMSYN07089664 32561 10909 11045 21191 39884 49925 51001 81531 333 56088 81630=
0189896640876012017020311554-77850+166667FM-15+002499999V0209999C00001039621CN009999199-00701-01601099251ADDGA1021+030481999GA2041+039621999GE19MSL   +99999+99999GF199999021999030481999999MA1099221098835REMMET082METAR NZCM 031155Z 00000KT 9999 FEW100 SCT130 M07/M16 A2930 RMK ACSL SE-SW SLP925=
0245896640876012017020312004-77850+166667FM-12+002499999V0209999C000019999999N011000199-00691-01621099251ADDGA1011+030001031GA2031+039001031GE19MSL   +99999+99999GF103991011999030001999999KA1240M-00391KA2240N-01001MD1610011+9999REMSYN09489664 32961 30000 11069 21162 39983 49925 56001 83040 333 11039 21100 56040 58106 81360 83363=EQDQ01998.3 3APOSP 
0243896640876012017020314554-77850+166667FM-15+002499999V0200801N00361036581CN009999199-00601-01801099281ADDGA1021+030481999GA2041+036581999GA3071+054861999GE19MSL   +99999+99999GF199999021999030481999999MA1099221098865OC100771REMMET112METAR NZCM 031455Z 08007G15KT 9999 FEW100 SCT120 BKN180 M06/M18 A2930 RMK ACSL S-W CCSL W SLP928 FATA MORGANA S=
0203896640876012017020315004-77850+166667FM-12+002499999V0200801N003619999999N011000199-00571-01841099281ADDGA1011+030001031GA2031+036001031GE19MSL   +99999+99999GF106991011999030001999999MA1099235098851MD1310021+9999REMSYN08289664 42961 60807 11057 21184 39885 49928 53002 84049 333 56044 81360 83362 99114=
0228896640876012017020317554-77850+166667FM-15+002499999V0200901N005110365819N009999199-00401-01901099241ADDGA1041+027431999GA2071+036581999GA3071+054861999GE19MSL   +99999+99999GF199999041999027431999999MA1099191098835REMMET105METAR NZCM 031755Z 09010KT 9999 SCT090 BKN120 BKN180 M04/M19 A2929 RMK CCSL W SLP924 FATA MORGANA SE-S-W=
0221896640876012017020318004-77850+166667FM-12+002499999V0200901N00511036001CN011000199-00421-01931099241ADDGA1031+027001031GA2031+036001031GE19MSL   +99999+99999GF107991031999027001999999MA1099205098821MD1810031+9999REMSYN10089664 32961 70910 11042 21193 39882 49924 58003 86079 333 56044 83359 83362 99113 99114 99115 99116=
0185896640876012017020320554-77850+166667FM-15+002499999V0201101N003610304819N009999199-00301-01801099261ADDGA1041+024381999GA2071+030481999GE19MSL   +99999+99999GF199999041999024381999999MA1099221098855REMMET078METAR NZCM 032055Z 11007KT 9999 SCT080 BKN100 M03/M18 A2930 RMK ACSL S SLP926=
0197896640876012017020321004-77850+166667FM-12+002499999V0201101N003610300019N011000199-00281-01791099261ADDGA1031+024001031GA2061+030001031GE19MSL   +99999+99999GF107991031999024001999999MA1099235098851MD1310031+9999REMSYN07689664 42861 71107 11028 21179 39885 49926 53003 87070 333 56040 83358 86360=
0185896640876012017020323554-77850+166667FM-15+002499999V0200701N003610259119N009999199-00201-01601099251ADDGA1071+025911999GA2071+030481999GE19MSL   +99999+99999GF199999071999025911999999MA1099221098845REMMET078METAR NZCM 032355Z 07007KT 9999 BKN085 BKN100 M02/M16 A2930 RMK ACSL S SLP925=
0219896640876012017020400004-77850+166667FM-12+002499999V0200701N003610240019N011000199-00241-01601099251ADDGA1051+024001031GE19MSL   +99999+99999GF107991051999024001999999KA1120M-00221KA2120N-00811MA1099225098841MD1810011+9999REMSYN08889664 32961 70707 11024 21160 39884 49925 58001 87070 333 11022 21081 56040 58001 85358=
0177896640876012017020402554-77850+166667FM-15+002499999V0201401N004610259119N009999199+00001-01701099141ADDGA1071+025911999GA2071+030481999GE19MSL   +99999+99999GF199999071999025911999999MA1099121098735REMMET070METAR NZCM 040255Z 14009KT 9999 BKN085 BKN100 00/M17 A2927 RMK SLP914=
0175896640876012017020403004-77850+166667FM-12+002499999V0201401N004610240019N011000199-00011-01691099141ADDGA1061+024001031GE19MSL   +99999+99999GF107991061999024001999999MA1099115098731MD1810111+9999REMSYN07089664 42961 71409 11001 21169 39873 49914 58011 87070 333 56040 86358=
0200896640876012017020405554-77850+166667FM-15+002499999V0201101N004110259119N009999199-00101-01401099191ADDGA1071+025911999GA2071+030481999GE19MSL   +99999+99999GF199999071999025911999999MA1099151098785OC100771REMMET085METAR NZCM 040555Z 11008G15KT 9999 BKN085 BKN100 M01/M14 A2928 RMK SLP919 SN DSNT SW=
0203896640876012017020406004-77850+166667FM-12+002499999V0201101N004110240019N011000199-00091-01411099191ADDAY121021AY221021GA1051+024001031GE19MSL   +99999+99999GF107991051999024001999999MA1099165098781MD1310051+9999MW1151REMSYN07689664 31961 71108 11009 21141 39878 49919 53005 71522 87070 333 56040 85358=
0237896640876012017020408554-77850+166667FM-15+002499999V0201401N005710304819N009999199-00201-01401099241ADDGA1021+024381999GA2071+030481999GA3071+039621999GE19MSL   +99999+99999GF199999021999024381999999MA1099221098835OC100931REMMET106METAR NZCM 040855Z 14011G18KT 9999 FEW080 BKN100 BKN130 M02/M14 A2930 RMK SLP924 BLSN DSNT S SN DSNT SW-W=
0225896640876012017020409004-77850+166667FM-12+002499999V0201401N00571030001CN011000199-00231-01371099241ADDAY121021AY221021GA1011+024001031GA2051+030001031GE19MSL   +99999+99999GF107991011999024001999999MA1099215098831MD1110051+9999MW1151REMSYN08289664 41861 71411 11023 21137 39883 49924 51005 71522 87070 333 56040 81358 85360=
0286896640876012017020411554-77850+166667FM-15+002499999V0201201N00571024381CN009999199-00601-01101099311ADDGA1021+010671999GA2041+024381999GA3071+045721999GE19MSL   +99999+99999GF199999021999010671999999MA1099291098895OC101181OD149901391100REMMET141METAR NZCM 041155Z 12011G23KT 9999 FEW035 SCT080 BKN150 M06/M11 A2932 RMK PK WND 10027/0954 ACSL N AND E AND SW SLP931 BLSN DSNT S SN DSNT W=
0285896640876012017020412004-77850+166667FM-12+002499999V0201201N005719999999N011000199-00631-01091099311ADDAY121021AY221021GA1011+010501061GA2041+024001031GA3999+999999001GE19MSL   +99999+99999GF107991011999010501999999KA1240M+00031KA2240N-00631MA1099285098901MD1210071+9999MW1151REMSYN10089664 31561 71211 11063 21109 39890 49931 52007 71522 81542 333 10003 21063 56444 59093 81635 84358=
0262896640876012017020414554-77850+166667FM-15+002499999V0200801N007710426719N009999199-00401-01101099371ADDGA1041+024381999GA2071+042671999GE19MSL   +99999+99999GF199999041999024381999999MA1099321098965OC101131OD149901331070REMMET133METAR NZCM 041455Z 08015G22KT 9999 SCT080 BKN140 M04/M11 A2933 RMK PK WND 07026/1210 ACSL N AND S-SW SLP937 BLSN DSNT SE-S SN DSNT W=
0225896640876012017020415004-77850+166667FM-12+002499999V0200801N00771042001CN011000199-00451-01071099371ADDAY121021AY221021GA1041+024001031GA2041+042001001GE19MSL   +99999+99999GF107991041999024001999999MA1099345098961MD1110061+9999MW1151REMSYN08289664 41861 70815 11045 21107 39896 49937 51006 71522 84042 333 56044 84358 84064=
0253896640876012017020417554-77850+166667FM-15+002499999V0200601N00621024381CN009999199-00401-01201099361ADDGA1021+009141999GA2041+024381999GA3041+042671999GE19MSL   +99999+99999GF199999021999009141999999MA1099321098955OD149901391120REMMET116METAR NZCM 041755Z 06012KT 9999 FEW030 SCT080 SCT140 M04/M12 A2933 RMK PK WND 12027/1621 ACSL SW SLP936 BLSN DSNT S=
0249896640876012017020420554-77850+166667FM-15+002499999V0200901N00671024381CN009999199-00201-00901099391ADDGA1021+009141999GA2041+024381999GA3071+030481999GE19MSL   +99999+99999GF199999021999009141999999MA1099361098985OC100981REMMET118METAR NZCM 042055Z 09013G19KT 9999 FEW030 SCT080 BKN100 M02/M09 A2934 RMK ACSL SE AND S SLP939 BLSN DSNT SE SN DSNT S=
0247896640876012017020421004-77850+166667FM-12+002499999V0200901N006710300019N011000199-00231-00931099391ADDAY111021AY211021GA1011+009001061GA2031+024001031GA3051+030001031GE19MSL   +99999+99999GF105991011999009001999999MA1099355098971MD1310021+9999MW1151REMSYN08889664 41561 50913 11023 21093 39897 49939 53002 71511 81549 333 56444 81630 83358 85360=
0236896640876012017020423554-77850+166667FM-15+002499999V0201001N00671024381CN009999199-00101-00901099381ADDGA1021+009141999GA2041+024381999GA3071+030481999GE19MSL   +99999+99999GF199999021999009141999999MA1099361098975OC101031REMMET105METAR NZCM 042355Z 10013G20KT 9999 FEW030 SCT080 BKN100 M01/M09 A2934 RMK ACSL SE AND S SLP938 SN DSNT S=
0291896640876012017020500004-77850+166667FM-12+002499999V0201001N006710300019N011000199-00131-00951099381ADDAY121021AY221021GA1011+009001061GA2031+024001031GA3051+030001031GE19MSL   +99999+99999GF105991011999009001999999KA1120M-00121KA2120N-00641MA1099355098971MD1410001+9999MW1151REMSYN10689664 31561 51013 11013 21095 39897 49938 54000 71522 81540 333 11012 21064 56440 58013 81630 83358 85360=
0256896640876012017020502554-77850+166667FM-15+002499999V0201101N00411024381CN009999199-00101-01001099301ADDGA1021+009141999GA2041+024381999GA3071+039621999GE19MSL   +99999+99999GF199999021999009141999999MA1099251098895OC100881REMMET125METAR NZCM 050255Z COR 11008G17KT 9999 FEW030 SCT080 BKN130 M01/M10 A2931 RMK PK WND 15028/23 ACSL N AND S SLP930 SN DSNT SW=
0247896640876012017020503004-77850+166667FM-12+002499999V0201101N004110390019N011000199-00111-01031099301ADDAY121021AY221021GA1011+009001061GA2031+024001031GA3051+039001031GE19MSL   +99999+99999GF106991011999009001999999MA1099275098891MD1810081+9999MW1151REMSYN08889664 41561 61108 11011 21103 39889 49930 58008 71522 81540 333 56040 81630 83358 85363=
0244896640876012017020505554-77850+166667FM-15+002499999V0200401N00511024381CN009999199-00201-01201099241ADDGA1021+015241999GA2041+024381999GA3071+076201999GE19MSL   +99999+99999GF199999021999015241999999MA1099191098835OD149901391150REMMET107METAR NZCM 050555Z COR 04010KT 9999 FEW050 SCT080 BKN250 M02/M12 A2929 RMK PK WND 15027/0325 ACSL S SLP924=
0200896640876012017020508554-77850+166667FM-15+002499999V0209999V002610259119N009999199+00001-01401099131ADDGA1021+015241999GA2071+025911999GA3071+076201999GE19MSL   +99999+99999GF199999021999015241999999MA1099091098725REMMET077METAR NZCM 050855Z VRB05KT 9999 FEW050 BKN085 BKN250 00/M14 A2926 RMK SLP913=
0213896640876012017020509004-77850+166667FM-12+002499999V0209999V00261024001CN011000199+00011-01371099131ADDGA1011+015001061GA2061+024001031GA3999+999999001GE19MSL   +99999+99999GF107991011999015001999999MA1099105098721MD1810101+9999REMSYN07689664 42761 79905 10001 21137 39872 49913 58010 81571 333 56444 81650 86358=
0229896640876012017020511554-77850+166667FM-15+002499999V0200601N00881024381CN009999199-00501-01001099051ADDGA1021+015241999GA2041+024381999GA3041+076201999GE19MSL   +99999+99999GF199999021999015241999999MA1099021098645REMMET106METAR NZCM 051155Z 06017KT 9999 FEW050 SCT080 SCT250 M05/M10 A2924 RMK ACSL S AND SW-W SLP905 BLSN DSNT S=
0257896640876012017020512004-77850+166667FM-12+002499999V0200601N008819999999N011000199-00481-01031099051ADDGA1011+015001081GA2041+024001031GA3999+999999001GE19MSL   +99999+99999GF104991011999015001999999KA1240M+00041KA2240N-00501MA1099015098631MD1810091+9999REMSYN09489664 32761 40617 11048 21103 39863 49905 58009 81141 333 10004 21050 56444 59027 81850 84358=
0216896640876012017020514554-77850+166667FM-15+002499999V0200601N00621039621CN009999199-00401-01101098911ADDGA1021+015241999GA2041+039621999GA3041+076201999GE19MSL   +99999+99999GF199999021999015241999999MA1098881098505REMMET093METAR NZCM 051455Z 06012KT 9999 FEW050 SCT130 SCT250 M04/M11 A2920 RMK ACSL N AND S-W SLP891=
0213896640876012017020515004-77850+166667FM-12+002499999V0200601N006219999999N011000199-00391-01111098911ADDGA1011+015001081GA2031+039001031GA3999+999999001GE19MSL   +99999+99999GF104991011999015001999999MA1098885098501MD1710131+9999REMSYN07689664 42761 40612 11039 21111 39850 49891 57013 81141 333 56444 81850 83363=
0215896640876012017020517554-77850+166667FM-15+002499999V0200501N00361076201CN009999199-00201-01201098761ADDGA1021+012191999GA2021+024381999GA3021+076201999GE19MSL   +99999+99999GF199999021999012191999999MA1098711098355REMMET092METAR NZCM 051755Z 05007KT 9999 FEW040 FEW080 FEW250 M02/M12 A2915 RMK ACSL S AND SW SLP876=
0161896640876012017020518004-77850+166667FM-12+002499999V0200501N003619999999N011000199-00241+99999098352ADDGA1999+012501999GE19MSL   +99999+99999GF101991999999012501999999MA1098312097942REMSYN07089664 32661 10507 11024 31122 49835 49876 56015 81141 333 56404 81840=
0201896640876012017020520554-77850+166667FM-15+002499999V0209999V00151045721CN009999199-00201-01201098681ADDGA1021+009141999GA2021+030481999GA3021+045721999GE19MSL   +99999+99999GF199999021999009141999999MA1098651098275REMMET078METAR NZCM 052055Z VRB03KT 9999 FEW030 FEW100 FEW150 M02/M12 A2913 RMK SLP868=
0207896640876012017020521004-77850+166667FM-12+002499999V0209999V001519999999N011000199-00191-01201098681ADDGA1011+009001061GA2999+999999031GA3999+999999001GE19MSL   +99999+99999GF102991011999009001999999MA1098655098271MD1810081+9999REMSYN07089664 42561 29903 11019 21120 39827 49868 58008 81572 333 56444 81630=
0200896640876012017020523554-77850+166667FM-15+002499999V0209999V00311045721CN009999199+00001-01501098541ADDGA1021+009141999GA2021+030481999GA3021+045721999GE19MSL   +99999+99999GF199999021999009141999999MA1098511098145REMMET077METAR NZCM 052355Z VRB06KT 9999 FEW030 FEW100 FEW150 00/M15 A2909 RMK SLP854=
0251896640876012017020600004-77850+166667FM-12+002499999V0209999V003119999999N011000199-00031-01501098541ADDGA1011+009001061GA2999+999999031GA3999+999999001GE19MSL   +99999+99999GF102991011999009001999999KA1120M-00021KA2120N-00581MA1098515098131MD1710141+9999REMSYN08889664 32561 29906 11003 21150 39813 49854 57014 81572 333 11002 21058 56444 59084 81630=
0201896640876012017020602554-77850+166667FM-15+002499999V0200901N005710457219N009999199-00101-01501098491ADDGA1021+030481999GA2021+039621999GA3071+045721999GE19MSL   +99999+99999GF199999021999030481999999MA1098441098085REMMET078METAR NZCM 060255Z 09011KT 9999 FEW100 FEW130 BKN150 M01/M15 A2907 RMK SLP849=
0197896640876012017020603004-77850+166667FM-12+002499999V0200901N005719999999N011000199-00091-01481098491ADDGA1011+030001031GA2041+045001021GE19MSL   +99999+99999GF106991011999030001999999MA1098465098081MD1710051+9999REMSYN07689664 42961 60911 11009 21148 39808 49849 57005 82078 333 56044 81360 84265=
0200896640876012017020605554-77850+166667FM-15+002499999V0200601N00571045721CN009999199+00001-01401098451ADDGA1021+024381999GA2021+039621999GA3041+045721999GE19MSL   +99999+99999GF199999021999024381999999MA1098411098055REMMET077METAR NZCM 060555Z 06011KT 9999 FEW080 FEW130 SCT150 00/M14 A2906 RMK SLP845=
0191896640876012017020606004-77850+166667FM-12+002499999V0200601N005719999999N011000199-00031-01381098451ADDGA1011+024001031GA2999+999999021GE19MSL   +99999+99999GF103991011999024001999999MA1098415098041MD1710041+9999REMSYN07089664 32861 30611 11003 21138 39804 49845 57004 82078 333 56044 81358=
0178896640876012017020608554-77850+166667FM-15+002499999V0200201N004610396219N009999199-00101-01101098531ADDGA1021+021341999GA2071+039621999GE19MSL   +99999+99999GF199999021999021341999999MA1098481098125REMMET071METAR NZCM 060855Z 02009KT 9999 FEW070 BKN130 M01/M11 A2908 RMK SLP853=
0197896640876012017020609004-77850+166667FM-12+002499999V0200201N00461039001CN011000199-00111-01111098531ADDGA1011+021001031GA2061+039001031GE19MSL   +99999+99999GF106991011999021001999999MA1098495098111MD1310071+9999REMSYN07689664 42861 60209 11011 21111 39811 49853 53007 86050 333 56040 81357 86363=
0201896640876012017020611554-77850+166667FM-15+002499999V0209999C000010335319N009999199-00301-01001098641ADDGA1041+024381999GA2071+033531999GA3071+045721999GE19MSL   +99999+99999GF199999041999024381999999MA1098611098235REMMET078METAR NZCM 061155Z 00000KT 9999 SCT080 BKN110 BKN150 M03/M10 A2912 RMK SLP864=
0241896640876012017020612004-77850+166667FM-12+002499999V0209999C00001033001CN011000199-00321-00971098641ADDGA1031+024001031GA2031+033001031GE19MSL   +99999+99999GF106991031999024001999999KA1240M+00061KA2240N-00381MA1098615098231MD1210121+9999REMSYN09489664 32861 60000 11032 21097 39823 49864 52012 85079 333 10006 21038 56044 59040 83358 83361=
0178896640876012017020614554-77850+166667FM-15+002499999V0209999C000010335319N009999199-00301-00701098721ADDGA1041+027431999GA2071+033531999GE19MSL   +99999+99999GF199999041999027431999999MA1098681098315REMMET071METAR NZCM 061455Z 00000KT 9999 SCT090 BKN110 M03/M07 A2914 RMK SLP872=
0197896640876012017020615004-77850+166667FM-12+002499999V0209999C000010330019N011000199-00311-00671098721ADDGA1031+027001031GA2071+033001031GE19MSL   +99999+99999GF107991031999027001999999MA1098695098311MD1210081+9999REMSYN07689664 42961 70000 11031 21067 39831 49872 52008 87070 333 56040 83359 87361=
0178896640876012017020617554-77850+166667FM-15+002499999V0209999V002110335319N009999199-00201-00601098831ADDGA1021+027431999GA2071+033531999GE19MSL   +99999+99999GF199999021999027431999999MA1098781098425REMMET071METAR NZCM 061755Z VRB04KT 9999 FEW090 BKN110 M02/M06 A2917 RMK SLP883=
0197896640876012017020618004-77850+166667FM-12+002499999V0209999V00211033001CN011000199-00221-00561098831ADDGA1021+027001031GA2051+033001031GE19MSL   +99999+99999GF105991021999027001999999MA1098795098411MD1210101+9999REMSYN07689664 32961 59904 11022 21056 39841 49883 52010 85070 333 56040 82359 85361=
0143896640876012017020620554-77850+166667FM-15+002499999V0209999C000019999999N009999199-00205-00605099011ADDMA1098985999999MW1165REMMET091METAR NZCM 062055Z 00000KT 9999 VCSN FEW025 SCT070 OVC090 M02/M06 A2923 RMK SLP901 VCSN SE=EQDD01      0ADE735
0225896640876012017020621004-77850+166667FM-12+002499999V0209999C00001027001CN011000199-00161-00561099011ADDAY121021AY221021GA1021+007501061GA2051+027001031GE19MSL   +99999+99999GF108991021999007501999999MA1098985098601MD1210191+9999MW1161REMSYN08289664 41561 80000 11016 21056 39860 49901 52019 71622 8257/ 333 56449 82625 85359=
0172896640876012017020623554-77850+166667FM-15+002499999V0201401N008219999999N009999199-00705-01005099251ADDMA1099225999999MW1711OC101131REMMET112METAR NZCM 062355Z 14016G22KT 9999 -SN VCBLSN FEW015 BKN060 BKN080 M07/M10 A2930 RMK SNB2104 SLP925 VCBLSN SE-S=EQDD01      0ADE693
0308896640876012017020700004-77850+166667FM-12+002499999V0201401N008219999999N011000199-00671-00961099251ADDAA106000021AL19900031AY171021AY221021GA1011+004501061GA2041+010501061GE19MSL   +99999+99999GF107991011999004501999999KA1120M-00151KA2120N-00681MA1099215098831MD1210231+9999MW1711REMSYN11889664 11461 71416 11067 21096 39883 49925 52023 69901 77172 86570 333 11015 21068 56440 58070 81615 84635 90931 93193=
0198896640876012017020702554-77850+166667FM-15+002499999V0200801N010319999999N009999199-01305-01705999999ADDMA1099465999999MW1165OC101391REMMET138METAR NZCM 070255Z 08020G27KT 9999 VCBLSN FEW010 SCT035 BKN080 M13/M17 A2937 RMK PK WND 07029/26 SNE0047ICB0047ICE0135SLP951 VCBLSN SE-SW=EQDD01      0ADE735
0225896640876012017020703004-77850+166667FM-12+002499999V0200801N010319999999N011000199-01261-01711099511ADDAY171021AY221021GA1011+003001071GA2041+010501061GE19MSL   +99999+99999GF105991011999003001999999MA1099465099081MD1210251+9999MW1011REMSYN08289664 41461 50820 11126 21171 39908 49951 52025 70172 84570 333 56440 81710 84635=
0182896640876012017020705554-77850+166667FM-15+002499999V0200501N016019999999N009999199-01405-01905099641ADDMA1099595999999MW1761OC101801REMMET122METAR NZCM 070555Z 05031G35KT 9999 IC VCBLSN FEW010 FEW035 M14/M19 A2941 RMK PK WND 09036/10 ICB0349 SLP964 VCBLSN SE-S-W=EQDD01      0ADE693
0189896640876012017020708554-77850+166667FM-15+002499999V0200801N005719999999N009999199-00905-01405099961ADDMA1099935999999MW1761OC100881OD149901641060REMMET115METAR NZCM 070855Z 08011G17KT 9999 IC VCBLSN FEW010 FEW035 M09/M14 A2951 RMK PK WND 06032/0610 SLP996 VCBLSN SE-SW=EQDD01      0ADE693
0203896640876012017020709004-77850+166667FM-12+002499999V0200801N005719999999N011000199-00911-01391099961ADDAY171021AY271021GA1011+003001061GE19MSL   +99999+99999GF101991011999003001999999MA1099925099541MD1210321+9999MW1761REMSYN07689664 41461 10811 11091 21139 39954 49996 52032 77677 81800 333 56400 81610=
0203896640876012017020711554-77850+166667FM-15+002499999V0200701N005710106719N009999199-00701-01201100021ADDGA1021+003051999GA2071+010671999GE19MSL   +99999+99999GF199999021999003051999999MA1099971099605MW1711REMMET090METAR NZCM 071155Z 07011KT 9999 -SN FEW010 BKN035 M07/M12 A2952 RMK ICE1015SNB1015 SLP002=
0308896640876012017020712004-77850+166667FM-12+002499999V0200701N00571010501CN011000199-00711-01251100021ADDAA112000021AL19900031AY171021AY271021GA1011+003001071GA2071+010501061GE19MSL   +99999+99999GF107991011999003001999999KA1240M-00711KA2240N-01441MA1099975099591MD1110051+9999MW1711REMSYN11889664 11461 70711 11071 21125 39959 40002 51005 69902 77177 87500 333 11071 21144 56400 58136 81710 87635 90973 93197=
0227896640876012017020714554-77850+166667FM-15+002499999V0201101N003610152419N009999199-00401-00901100011ADDGA1021+009141999GA2071+015241999GA3071+030481999GE19MSL   +99999+99999GF199999021999009141999999MA1099971099595MW1711REMMET098METAR NZCM 071455Z 11007KT 9999 -SN FEW030 BKN050 BKN100 M04/M09 A2952 RMK PK WND 17027/32 SLP001=
0225896640876012017020715004-77850+166667FM-12+002499999V0201101N00361015001CN011000199-00421-00871100011ADDAY171021AY271021GA1011+009001061GA2061+015001061GE19MSL   +99999+99999GF107991011999009001999999MA1099965099581MD1710011+9999MW1711REMSYN08289664 41561 71107 11042 21087 39958 40001 57001 77177 86570 333 56440 81630 86650=
0215896640876012017020717554-77850+166667FM-15+002499999V0201601N010810152419N009999199-00401-00701099921ADDGA1021+003051999GA2071+015241999GE19MSL   +99999+99999GF199999021999003051999999MA1099901099505MW1711OC101441REMMET094METAR NZCM 071755Z 16021G28KT 9999 -SN FEW010 BKN050 M04/M07 A2950 RMK PK WND 16035/48 SLP992=
0199896640876012017020720554-77850+166667FM-15+002499999V0201701N012410182919N009999199-00401-00601100001ADDGA1021+004571999GA2071+018291999GE19MSL   +99999+99999GF199999021999004571999999MA1099931099585MW1711OC101651REMMET078METAR NZCM 072055Z 17024G32KT 9999 -SN FEW015 BKN060 M04/M06 A2951 RMK SLP000=
0225896640876012017020721004-77850+166667FM-12+002499999V0201701N01241018001CN011000199-00361-00621100001ADDAY171021AY271021GA1011+004501061GA2071+018001061GE19MSL   +99999+99999GF107991011999004501999999MA1099955099571MD1210081+9999MW1711REMSYN08289664 41461 71724 11036 21062 39957 40000 52008 77177 87500 333 56400 81615 87656=
0262896640876012017020723554-77850+166667FM-15+002499999V0200901N00881004571CN009999199-00401-00601100121ADDGA1021+002741999GA2041+004571999GA3081+018291999GE19MSL   +99999+99999GF199999021999002741999999MA1100071099705MW1711OC101081OD149901951170REMMET111METAR NZCM 072355Z 09017G21KT 9999 -SN FEW009 SCT015 OVC060 M04/M06 A2955 RMK PK WND 17038/2118 WSHFT19 SLP012=
0163896640876012017020802554-77850+166667FM-15+002499999V0201401V007219999999N009999199-00305-00505100061ADDMA1100035999999MW1711REMMET111METAR NZCM 080255Z 14014KT 090V170 9999 -SN VCBLSN FEW015 SCT035 OVC050 M03/M05 A2954 RMK SLP006 VCBLSN SE-S-W=EQDD01      0ADE693
0225896640876012017020803004-77850+166667FM-12+002499999V0201401N00721015001CN011000199-00261-00551100061ADDAY171021AY271021GA1021+004501061GA2041+015001061GE19MSL   +99999+99999GF108991021999004501999999MA1100025099641MD1810061+9999MW1711REMSYN08289664 41461 81414 11026 21055 39964 40006 58006 77177 885// 333 56499 82615 84650=
0238896640876012017020805554-77850+166667FM-15+002499999V0201501N01031004571CN009999199-00301-00501100061ADDGA1021+002741999GA2041+004571999GA3081+013721999GE19MSL   +99999+99999GF199999021999002741999999MA1100031099655MW1711OC101341REMMET101METAR NZCM 080555Z 15020G26KT 9999 -SN FEW009 SCT015 OVC045 M03/M05 A2954 RMK PK WND 16028/26 SLP006=
0215896640876012017020808554-77850+166667FM-15+002499999V0201301N006710137219N009999199-00301-00501100081ADDGA1021+004571999GA2081+013721999GE19MSL   +99999+99999GF199999021999004571999999MA1100031099665MW1711OC101081REMMET094METAR NZCM 080855Z 13013G21KT 9999 -SN FEW015 OVC045 M03/M05 A2954 RMK PK WND 13028/52 SLP008=
0225896640876012017020809004-77850+166667FM-12+002499999V0201301N00671013501CN011000199-00301-00511100081ADDAY171021AY271021GA1011+004501061GA2071+013501061GE19MSL   +99999+99999GF108991011999004501999999MA1100045099661MD1310021+9999MW1711REMSYN08289664 41461 81313 11030 21051 39966 40008 53002 77177 885// 333 56499 81615 87645=
0243896640876012017020811554-77850+166667FM-15+002499999V0200501N004110146319N009999199-00301-00501100061ADDGA1021+002741999GA2071+014631999GA3071+024381999GE19MSL   +99999+99999GF199999021999002741999999MA1100031099655MW1711OD149901541130REMMET100METAR NZCM 081155Z 05008KT 9999 -SN FEW009 BKN048 BKN080 M03/M05 A2954 RMK PK WND 13030/0923 SLP006=
0188896640876012017020814554-77850+166667FM-15+002499999V0200601N006710243819N009999199-00201-00801099941ADDGA1041+018291999GA2071+024381999GE19MSL   +99999+99999GF199999041999018291999999MA1099901099535MW1711REMMET075METAR NZCM 081455Z 06013KT 9999 -SN SCT060 BKN080 M02/M08 A2950 RMK SLP994=
0225896640876012017020815004-77850+166667FM-12+002499999V0200601N006710240019N011000199-00261-00791099941ADDAY171021AY271021GA1041+018001061GA2061+024001031GE19MSL   +99999+99999GF106991041999018001999999MA1099915099531MD1710111+9999MW1711REMSYN08289664 41761 60613 11026 21079 39953 49994 57011 77177 84530 333 56440 84656 86358=
0242896640876012017020817554-77850+166667FM-15+002499999V0200501N006210243819N009999199-00201-01101099851ADDGA1021+018291999GA2071+024381999GA3071+054861999GE19MSL   +99999+99999GF199999021999018291999999MA1099801099445OC100931REMMET111METAR NZCM 081755Z COR 05012G18KT 9999 FEW060 BKN080 BKN180 M02/M11 A2947 RMK SNE1527 SLP985 FATA MORGANA SE-S=
0248896640876012017020818004-77850+166667FM-12+002499999V0200501N00621030001CN011000199-00251-01061099851ADDAA118000021AL19900031GA1011+024001031GA2051+030001031GE19MSL   +99999+99999GF105991011999024001999999MA1099815099431MD1710101+9999REMSYN10689664 12861 50512 11025 21106 39943 49985 57010 69903 85071 333 56044 81358 85360 90933 93197 99153 99154=
0201896640876012017020820554-77850+166667FM-15+002499999V0209999V002610213419N009999199-00201-00701099791ADDGA1041+003051999GA2071+021341999GA3071+030481999GE19MSL   +99999+99999GF199999041999003051999999MA1099761099385REMMET078METAR NZCM 082055Z VRB05KT 9999 SCT010 BKN070 BKN100 M02/M07 A2946 RMK SLP979=
0173896640876012017020823554-77850+166667FM-15+002499999V0203401N003610030519N009999199-00101-00401099711ADDGA1071+003051999GE19MSL   +99999+99999GF199999071999003051999999MA1099661099305REMMET082METAR NZCM 082355Z 34007KT 9999 BKN010 M01/M04 A2943 RMK SLP971 FATA MORGANA SE-S=
0196896640876012017020902554-77850+166667FM-15+002499999V0200201N004110036619N009999199-00201-00701099611ADDGA1071+003661999GA2071+030481999GE19MSL   +99999+99999GF199999071999003661999999MA1099561099205REMMET089METAR NZCM 090255Z 02008KT 9999 BKN012 BKN100 M02/M07 A2940 RMK SLP961 FATA MORGANA SE-S=
0203896640876012017020903004-77850+166667FM-12+002499999V0200201N004110036019N011000199-00211-00741099611ADDGA1061+003601071GA2999+999999031GE19MSL   +99999+99999GF106991061999003601999999MA1099585099201MD1710091+9999REMSYN08289664 42461 60208 11021 21074 39920 49961 57009 86670 333 56880 86712 99113 99114=
0201896640876012017020905554-77850+166667FM-15+002499999V0200501N00621006101CN009999199-00301-01201099511ADDGA1021+003661999GA2041+006101999GA3041+060961999GE19MSL   +99999+99999GF199999021999003661999999MA1099461099105REMMET078METAR NZCM 090555Z 05012KT 9999 FEW012 SCT020 SCT200 M03/M12 A2937 RMK SLP951=
0178896640876012017020908554-77850+166667FM-15+002499999V0200701N006210073219N009999199-00501-01501099471ADDGA1071+007321999GA2081+009141999GE19MSL   +99999+99999GF199999071999007321999999MA1099421099055REMMET071METAR NZCM 090855Z 07012KT 9999 BKN024 OVC030 M05/M15 A2936 RMK SLP947=
0175896640876012017020909004-77850+166667FM-12+002499999V0200701N006210072019N011000199-00491-01461099471ADDGA1071+007201061GE19MSL   +99999+99999GF108991071999007201999999MA1099435099051MD1610041+9999REMSYN07089664 42561 80712 11049 21146 39905 49947 56004 885// 333 56800 87624=
0194896640876012017020911554-77850+166667FM-15+002499999V0200801N010310085319N009999199-00901-01601099461ADDGA1071+008531999GA2081+010671999GE19MSL   +99999+99999GF199999071999008531999999MA1099421099045MW1711REMMET081METAR NZCM 091155Z 08020KT 9999 -SN BKN028 OVC035 M09/M16 A2936 RMK SNB37 SLP946=
0286896640876012017020912004-77850+166667FM-12+002499999V0200801N010310084019N011000199-00871-01631099461ADDAA106000021AL19900031AY171021AY221021GA1071+008401061GE19MSL   +99999+99999GF108991071999008401999999KA1240M+00101KA2240N-00891MA1099435099051MD1410001+9999MW1711REMSYN11289664 11561 80820 11087 21163 39905 49946 54000 69901 77172 885// 333 10010 21089 56800 59059 87628 90910 93197=
0212896640876012017020914554-77850+166667FM-15+002499999V0200701N009810106719N009999199-01001-01501099481ADDGA1081+010671999GE19MSL   +99999+99999GF199999081999010671999999MA1099421099065MW1711OC101291OD149901491070REMMET093METAR NZCM 091455Z COR 07019G25KT 9999 -SN OVC035 M10/M15 A2936 RMK PK WND 07029/1349 SLP948=
0203896640876012017020915004-77850+166667FM-12+002499999V0200701N009810105019N011000199-00961-01491099481ADDAY171021AY271021GA1081+010501061GE19MSL   +99999+99999GF108991081999010501999999MA1099445099061MD1310011+9999MW1711REMSYN07689664 41661 80719 11096 21149 39906 49948 53001 77177 885// 333 56800 88635=
0235896640876012017020917554-77850+166667FM-15+002499999V0200801N007710121919N009999199-00901-01501099491ADDGA1071+012191999GA2081+016761999GE19MSL   +99999+99999GF199999071999012191999999MA1099421099075MW1711OC101081OD149901391070REMMET100METAR NZCM 091755Z COR 08015G21KT 9999 -SN BKN040 OVC055 M09/M15 A2936 RMK PK WND 07027/1552 SLP949=
0264896640876012017020918004-77850+166667FM-12+002499999V0200801N007710120019N011000199-00921-01481099491ADDAA112000021AL19900031AY171021AY271021GA1051+012001061GA2081+015001061GE19MSL   +99999+99999GF108991051999012001999999MA1099445099061MD1410001+9999MW1711REMSYN10089664 11661 80815 11092 21148 39906 49949 54000 69902 77177 885// 333 56899 85640 88650 90973 93197=
0194896640876012017020920554-77850+166667FM-15+002499999V0200901N008210182919N009999199-01001-01401099501ADDGA1081+018291999GE19MSL   +99999+99999GF199999081999018291999999MA1099461099085MW1711OC101241REMMET089METAR NZCM 092055Z 09016G24KT 9999 -SN OVC060 M10/M14 A2937 RMK PK WND 09028/1934 SLP950=
0203896640876012017020921004-77850+166667FM-12+002499999V0200901N008210180019N011000199-00961-01431099501ADDAY171021AY271021GA1081+018001061GE19MSL   +99999+99999GF108991081999018001999999MA1099465099081MD1310021+9999MW1711REMSYN07689664 41761 80916 11096 21143 39908 49950 53002 77177 885// 333 56099 88656=
0222896640876012017020923554-77850+166667FM-15+002499999V0200701N006710076219N009999199-00901-01501099601ADDGA1021+003051999GA2071+007621999GA3071+015241999GE19MSL   +99999+99999GF199999021999003051999999MA1099561099185MW1711OC101081REMMET085METAR NZCM 092355Z 07013G21KT 9999 -SN FEW010 BKN025 BKN050 M09/M15 A2940 RMK SLP960=
0308896640876012017021000004-77850+166667FM-12+002499999V0200701N00671007501CN011000199-00941-01481099601ADDAA118000021AL19900031AY171021AY271021GA1011+003001071GA2071+007501061GE19MSL   +99999+99999GF107991011999003001999999KA1120M-00751KA2120N-00981MA1099565099181MD1310101+9999MW1711REMSYN11889664 11461 70713 11094 21148 39918 49960 53010 69903 77177 87500 333 11075 21098 56000 59011 81710 87625 90983 93197=
0211896640876012017021002554-77850+166667FM-15+002499999V0200601N006210106719N009999199-00901-01801099631ADDGA1021+007621999GA2071+010671999GA3071+015241999GE19MSL   +99999+99999GF199999021999007621999999MA1099591099215MW1711REMMET082METAR NZCM 100255Z 06012KT 9999 -SN FEW025 BKN035 BKN050 M09/M18 A2941 RMK SLP963=
0225896640876012017021003004-77850+166667FM-12+002499999V0200601N006210105019N011000199-00881-01761099631ADDAY171021AY271021GA1021+007501061GA2071+010501061GE19MSL   +99999+99999GF107991021999007501999999MA1099585099201MD1990021+9999MW1711REMSYN08289664 41561 70612 11088 21176 39920 49963 50002 77177 87500 333 56000 82625 87635=
0188896640876012017021005554-77850+166667FM-15+002499999V0200701N006210091419N009999199-00801-01801099641ADDGA1071+009141999GA2071+015241999GE19MSL   +99999+99999GF199999071999009141999999MA1099591099225MW1711REMMET075METAR NZCM 100555Z 07012KT 9999 -SN BKN030 BKN050 M08/M18 A2941 RMK SLP964=
0242896640876012017021006004-77850+166667FM-12+002499999V0200701N006210090019N011000199-00801-01761099641ADDAA106000021AL19900031AY171021AY271021GA1071+009001061GE19MSL   +99999+99999GF107991071999009001999999MA1099605099221MD1110021+9999MW1711REMSYN09489664 11561 70712 11080 21176 39922 49964 51002 69901 77177 87500 333 56000 87630 90983 93197=
0178896640876012017021008554-77850+166667FM-15+002499999V0200601N002610128019N009999199-00601-01901099681ADDGA1021+009141999GA2071+012801999GE19MSL   +99999+99999GF199999021999009141999999MA1099631099265REMMET071METAR NZCM 100855Z 06005KT 9999 FEW030 BKN042 M06/M19 A2942 RMK SLP968=
0225896640876012017021009004-77850+166667FM-12+002499999V0200601N00261012601CN011000199-00631-01861099681ADDAY171021AY221021GA1011+009001061GA2071+012601061GE19MSL   +99999+99999GF107991011999009001999999MA1099645099261MD1210041+9999MW1021REMSYN08289664 41561 70605 11063 21186 39926 49968 52004 70272 87500 333 56000 81630 87642=
0193896640876012017021011554-77850+166667FM-15+002499999V0200701N001010143319N009999199-00801-01501099721ADDGA1021+009141999GA2071+014331999GE19MSL   +99999+99999GF199999021999009141999999MA1099661099305REMMET086METAR NZCM 101155Z 07002KT 9999 FEW030 BKN047 M08/M15 A2943 RMK SLP972 FATA MORGANA W=
0314896640876012017021012004-77850+166667FM-12+002499999V0200701N00101014101CN011000199-00801-01491099721ADDAA112000021AL19900031AY171021AY221021GA1011+009001061GA2071+014101061GE19MSL   +99999+99999GF107991011999009001999999KA1240M-00521KA2240N-00921MA1099675099291MD1210031+9999MW1021REMSYN12489664 11561 70702 11080 21149 39929 49972 52003 69902 70272 87500 333 11052 21092 56000 58024 81630 87647 90953 93197 99116=
0201896640876012017021014554-77850+166667FM-15+002499999V0209999C000010167619N009999199-00601-01501099661ADDGA1021+010671999GA2071+016761999GA3071+024381999GE19MSL   +99999+99999GF199999021999010671999999MA1099631099245REMMET078METAR NZCM 101455Z 00000KT 9999 FEW035 BKN055 BKN080 M06/M15 A2942 RMK SLP966=
0197896640876012017021015004-77850+166667FM-12+002499999V0209999C00001015001CN011000199-00651-01531099661ADDGA1011+010501061GA2061+015001061GE19MSL   +99999+99999GF107991011999010501999999MA1099615099231MD1810061+9999REMSYN07689664 42661 70000 11065 21153 39923 49966 58006 86570 333 56000 81635 86650=
0178896640876012017021017554-77850+166667FM-15+002499999V0209999C000010198119N009999199-00701-01301099631ADDGA1071+019811999GA2071+025911999GE19MSL   +99999+99999GF199999071999019811999999MA1099591099215REMMET071METAR NZCM 101755Z 00000KT 9999 BKN065 BKN085 M07/M13 A2941 RMK SLP963=
0230896640876012017021018004-77850+166667FM-12+002499999V0209999C000010180019N011000199-00691-01351099631ADDAA118000021AL19900031GA1061+018001061GA2999+999999031GE19MSL   +99999+99999GF107991061999018001999999MA1099595099211MD1510021+9999REMSYN08889664 12761 70000 11069 21135 39921 49963 55002 69903 86570 333 56560 86656 90973 93197=
0185896640876012017021020554-77850+166667FM-15+002499999V0209999V002110198119N009999199-00501-01701099601ADDGA1071+019811999GA2071+025911999GE19MSL   +99999+99999GF199999071999019811999999MA1099561099185REMMET078METAR NZCM 102055Z VRB04KT 9999 BKN065 BKN085 M05/M17 A2940 RMK SCSL S SLP960=
0191896640876012017021021004-77850+166667FM-12+002499999V0209999V002110180019N011000199-00531-01681099601ADDGA1061+018001061GA2999+999999031GE19MSL   +99999+99999GF107991061999018001999999MA1099555099171MD1810041+9999REMSYN07089664 42761 79904 11053 21168 39917 49960 58004 86570 333 56560 86656=
0178896640876012017021023554-77850+166667FM-15+002499999V0209999V002610243819N009999199-00401-01701099561ADDGA1021+019811999GA2071+024381999GE19MSL   +99999+99999GF199999021999019811999999MA1099531099155REMMET071METAR NZCM 102355Z VRB05KT 9999 FEW065 BKN080 M04/M17 A2939 RMK SLP956=
0280896640876012017021100004-77850+166667FM-12+002499999V0209999V00261024001CN011000199-00451-01751099561ADDAA124000021AL19900031GA1021+018001061GA2041+024001031GE19MSL   +99999+99999GF105991021999018001999999KA1120M-00411KA2120N-00871MA1099525099141MD1810031+9999REMSYN11289664 12661 59905 11045 21175 39914 49956 58003 69904 82570 333 11041 21087 56560 59004 82656 84358 90983 93197=
0178896640876012017021102554-77850+166667FM-15+002499999V0201301N002610259119N009999199-00401-01801099491ADDGA1021+018291999GA2071+025911999GE19MSL   +99999+99999GF199999021999018291999999MA1099461099085REMMET071METAR NZCM 110255Z 13005KT 9999 FEW060 BKN085 M04/M18 A2937 RMK SLP949=
0197896640876012017021103004-77850+166667FM-12+002499999V0201301N00261024001CN011000199-00431-01771099491ADDGA1011+018001061GA2051+024001031GE19MSL   +99999+99999GF105991011999018001999999MA1099465099081MD1710061+9999REMSYN07689664 42761 51305 11043 21177 39908 49949 57006 81570 333 56560 81656 85358=
0178896640876012017021105554-77850+166667FM-15+002499999V0200801N003610289619N009999199-00501-01601099421ADDGA1021+018291999GA2071+028961999GE19MSL   +99999+99999GF199999021999018291999999MA1099391099005REMMET071METAR NZCM 110555Z 08007KT 9999 FEW060 BKN095 M05/M16 A2935 RMK SLP942=
0197896640876012017021106004-77850+166667FM-12+002499999V0200801N00361027001CN011000199-00461-01611099421ADDGA1011+018001061GA2061+027001031GE19MSL   +99999+99999GF106991011999018001999999MA1099375098991MD1610091+9999REMSYN07689664 32761 60807 11046 21161 39899 49942 56009 81570 333 56560 81656 86359=
0155896640876012017021108554-77850+166667FM-15+002499999V0200601N007710289619N009999199-00701-01501099361ADDGA1071+028961999GE19MSL   +99999+99999GF199999071999028961999999MA1099321098945REMMET064METAR NZCM 110855Z 06015KT 9999 BKN095 M07/M15 A2933 RMK SLP936=
0175896640876012017021109004-77850+166667FM-12+002499999V0200601N007710270019N011000199-00691-01511099361ADDGA1061+027001031GE19MSL   +99999+99999GF106991061999027001999999MA1099315098931MD1710061+9999REMSYN07089664 42961 60615 11069 21151 39893 49936 57006 86030 333 56060 86359=
0166896640876012017021111554-77850+166667FM-15+002499999V0200601N005719999999N009999199-00801-01901099301ADDGA1021+028961999GE19MSL   +99999+99999GF199999021999028961999999MA1099251098885OC100931REMMET067METAR NZCM 111155Z 06011G18KT 9999 FEW095 M08/M19 A2931 RMK SLP930=
0219896640876012017021112004-77850+166667FM-12+002499999V0200601N005719999999N011000199-00771-01921099301ADDGA1021+027001031GE19MSL   +99999+99999GF102991021999027001999999KA1240M-00261KA2240N-00851MA1099265098881MD1710051+9999REMSYN08889664 32961 20611 11077 21192 39888 49930 57005 82030 333 11026 21085 56050 59041 82359=
0155896640876012017021114554-77850+166667FM-15+002499999V0200401N006719999999N009999199-00701-01801099191ADDGA1021+028961999GE19MSL   +99999+99999GF199999021999028961999999MA1099151098775REMMET064METAR NZCM 111455Z 04013KT 9999 FEW095 M07/M18 A2928 RMK SLP919=
0175896640876012017021115004-77850+166667FM-12+002499999V0200401N006719999999N011000199-00701-01801099191ADDGA1011+027001031GE19MSL   +99999+99999GF101991011999027001999999MA1099155098771MD1810111+9999REMSYN07089664 42961 10413 11070 21180 39877 49919 58011 81030 333 56050 81359=
0199896640876012017021117554-77850+166667FM-15+002499999V0209999C000019999999N009999199-00501-01301099111ADDGA1021+009141999GA2021+027431999GE19MSL   +99999+99999GF199999021999009141999999MA1099091098705REMMET092METAR NZCM 111755Z 00000KT 9999 FEW030 FEW090 M05/M13 A2926 RMK SLP911 FATA MORGANA SE-SW-W=
0215896640876012017021118004-77850+166667FM-12+002499999V0209999C000019999999N011000199-00531-01261099111ADDGA1011+009001061GA2999+999999031GE19MSL   +99999+99999GF101991011999009001999999MA1099085098701MD1710071+9999REMSYN09489664 32561 10000 11053 21126 39870 49911 57007 81530 333 56550 81630 99113 99114 99115 99116=
0198896640876012017021120554-77850+166667FM-15+002499999V0209999V002619999999N009999199-00501-01201099091ADDGA1021+009141999GA2021+027431999GE19MSL   +99999+99999GF199999021999009141999999MA1099051098685REMMET091METAR NZCM 112055Z VRB05KT 9999 FEW030 FEW090 M05/M12 A2925 RMK SLP909 FATA MORGANA S-W-NW=
0215896640876012017021121004-77850+166667FM-12+002499999V0209999V002619999999N011000199-00461-01201099091ADDGA1011+009001061GA2999+999999031GE19MSL   +99999+99999GF101991011999009001999999MA1099045098661MD1810041+9999REMSYN09489664 42561 19905 11046 21120 39866 49909 58004 81570 333 56550 81630 99114 99115 99126 99127=
0197896640876012017021123554-77850+166667FM-15+002499999V0209999V00211009141CN009999199-00401-01201099071ADDGA1021+006101999GA2041+009141999GE19MSL   +99999+99999GF199999021999006101999999MA1099021098665REMMET090METAR NZCM 112355Z VRB04KT 9999 FEW020 SCT030 M04/M12 A2924 RMK SLP907 FATA MORGANA SE-SW=
0259896640876012017021200004-77850+166667FM-12+002499999V0209999V002119999999N011000199-00361-01181099071ADDGA1011+006001061GA2041+009001061GE19MSL   +99999+99999GF104991011999006001999999KA1120M-00361KA2120N-00791MA1099035098651MD1610011+9999REMSYN11289664 32561 49904 11036 21118 39865 49907 56001 84500 333 11036 21079 56800 59049 81620 84630 99113 99114 99115=
0175896640876012017021202554-77850+166667FM-15+002499999V0209999V001519999999N009999199-00401-01201099021ADDGA1041+009141999GE19MSL   +99999+99999GF199999041999009141999999MA1098981098615REMMET084METAR NZCM 120255Z VRB03KT 9999 SCT030 M04/M12 A2923 RMK SLP902 FATA MORGANA SE-S-W=
0199896640876012017021203004-77850+166667FM-12+002499999V0209999V001519999999N011000199-00421-01241099021ADDGA1031+009001081GE19MSL   +99999+99999GF103991031999009001999999MA1098985098601MD1710051+9999REMSYN09489664 42561 39903 11042 21124 39860 49902 57005 83100 333 56800 83830 99113 99114 99115 99116=
0170896640876012017021205554-77850+166667FM-15+002499999V0201001N003619999999N009999199-00401-01401099041ADDGA1021+009141999GE19MSL   +99999+99999GF199999021999009141999999MA1099021098635REMMET079METAR NZCM 120555Z 10007KT 9999 FEW030 M04/M14 A2924 RMK SLP904 FATA MORGANA S=
0181896640876012017021206004-77850+166667FM-12+002499999V0201001N003619999999N011000199-00451-01451099041ADDGA1011+009001081GE19MSL   +99999+99999GF101991011999009001999999MA1099015098631MD1310031+9999REMSYN07689664 32561 11007 11045 21145 39863 49904 53003 81100 333 56800 81830 99114=
0189896640876012017021208554-77850+166667FM-15+002499999V0200901N005719999999N009999199-00801-01701099121ADDGA1021+007621999GA2021+030481999GE19MSL   +99999+99999GF199999021999007621999999MA1099091098705OC101131REMMET074METAR NZCM 120855Z 09011G22KT 9999 FEW025 FEW100 M08/M17 A2926 RMK SLP912=
0191896640876012017021209004-77850+166667FM-12+002499999V0200901N005719999999N011000199-00841-01701099121ADDGA1021+007501061GA2999+999999031GE19MSL   +99999+99999GF102991021999007501999999MA1099085098701MD1210071+9999REMSYN07089664 42561 20911 11084 21170 39870 49912 52007 82570 333 56880 82625=
0166896640876012017021211554-77850+166667FM-15+002499999V0200801N008219999999N009999199-00901-02101099181ADDGA1021+007621999GE19MSL   +99999+99999GF199999021999007621999999MA1099121098765OC101031REMMET067METAR NZCM 121155Z 08016G20KT 9999 FEW025 M09/M21 A2927 RMK SLP918=
0219896640876012017021212004-77850+166667FM-12+002499999V0200801N008219999999N011000199-00941-02151099181ADDGA1021+007501061GE19MSL   +99999+99999GF102991021999007501999999KA1240M-00351KA2240N-00961MA1099135098751MD1210051+9999REMSYN08889664 32561 20816 11094 21215 39875 49918 52005 82500 333 11035 21096 56800 59013 82625=
0189896640876012017021214554-77850+166667FM-15+002499999V0200901N008810137219N009999199-00901-02201099231ADDGA1021+007621999GA2071+013721999GE19MSL   +99999+99999GF199999021999007621999999MA1099191098815OC101081REMMET074METAR NZCM 121455Z 09017G21KT 9999 FEW025 BKN045 M09/M22 A2929 RMK SLP923=
0201896640876012017021215004-77850+166667FM-12+002499999V0200901N00881013501CN011000199-00941-02191099231ADDGA1021+007501061GA2041+013501061GE19MSL   +99999+99999GF105991021999007501999999MD1310051+9999REMSYN07689664 42561 50917 11094 21219 39980 49923 53005 85500 333 56800 82625 84645=EQDQ01998   3APOSP 
0194896640876012017021217554-77850+166667FM-15+002499999V0200601N008210152419N009999199-01001-02001099251ADDGA1021+010671999GA2071+015241999GE19MSL   +99999+99999GF199999021999010671999999MA1099221098835REMMET087METAR NZCM 121755Z 06016KT 9999 FEW035 BKN050 M10/M20 A2930 RMK SLP925 FATA MORGANA SE=
0203896640876012017021218004-77850+166667FM-12+002499999V0200601N00821015001CN011000199-00971-02021099251ADDGA1021+010501061GA2051+015001061GE19MSL   +99999+99999GF107991021999010501999999MA1099215098831MD1310031+9999REMSYN08289664 32661 70616 11097 21202 39883 49925 53003 87500 333 56800 82635 85650 99113=
0204896640876012017021220554-77850+166667FM-15+002499999V0200601N009310182919N009999199-01001-02101099361ADDGA1021+014631999GA2071+018291999GE19MSL   +99999+99999GF199999021999014631999999MA1099321098945OC101181REMMET089METAR NZCM 122055Z 06018G23KT 9999 FEW048 BKN060 M10/M21 A2933 RMK SLP936 FATA MORGANA S=
0203896640876012017021221004-77850+166667FM-12+002499999V0200601N00931018001CN011000199-01021-02101099361ADDGA1011+014401061GA2061+018001061GE19MSL   +99999+99999GF107991011999014401999999MA1099315098931MD1310101+9999REMSYN08289664 42661 70618 11102 21210 39893 49936 53010 87500 333 56800 81648 86656 99114=
0193896640876012017021223554-77850+166667FM-15+002499999V0200701N008210137219N009999199-01101-02101099491ADDGA1071+013721999GA2071+018291999GE19MSL   +99999+99999GF199999071999013721999999MA1099461099065REMMET086METAR NZCM 122355Z COR 07016KT 9999 BKN045 BKN060 M11/M21 A2937 RMK SNB2200E40 SLP949=
0286896640876012017021300004-77850+166667FM-12+002499999V0200701N008210135019N011000199-01091-02111099491ADDAA106000021AL19900031AY171021AY221021GA1061+013501061GE19MSL   +99999+99999GF107991061999013501999999KA1120M-00881KA2120N-01111MA1099445099061MD1210131+9999MW1221REMSYN11289664 11661 70716 11109 21211 39906 49949 52013 69901 72272 87500 333 11088 21111 56700 58041 86645 90921 93197=
0225896640876012017021302554-77850+166667FM-15+002499999V0200701N008810146319N009999199-01001-02101099511ADDGA1071+014631999GA2071+018291999GE19MSL   +99999+99999GF199999071999014631999999MA1099461099095OC101131OD149901331060REMMET096METAR NZCM 130255Z COR 07017G22KT 9999 BKN048 BKN060 M10/M21 A2937 RMK PK WND 06026/0123 SLP951=
0175896640876012017021303004-77850+166667FM-12+002499999V0200701N008810144019N011000199-00961-02141099511ADDGA1071+014401061GE19MSL   +99999+99999GF107991071999014401999999MA1099475099091MD1110031+9999REMSYN07089664 42661 70717 11096 21214 39909 49951 51003 87500 333 56700 87648=
0189896640876012017021305554-77850+166667FM-15+002499999V0200601N008210167619N009999199-00901-02301099621ADDGA1021+009141999GA2071+016761999GE19MSL   +99999+99999GF199999021999009141999999MA1099591099205OC101031REMMET074METAR NZCM 130555Z 06016G20KT 9999 FEW030 BKN055 M09/M23 A2941 RMK SLP962=
0197896640876012017021306004-77850+166667FM-12+002499999V0200601N00821015001CN011000199-00881-02351099621ADDGA1011+009001061GA2061+015001061GE19MSL   +99999+99999GF106991011999009001999999MA1099585099201MD1310111+9999REMSYN07689664 32561 60616 11088 21235 39920 49962 53011 86500 333 56700 81630 86650=
0205896640876012017021308554-77850+166667FM-15+002499999V0200701N007710167619N009999199-00901-02301099711ADDGA1021+007621999GA2071+016761999GE19MSL   +99999+99999GF199999021999007621999999MA1099661099295OC101081REMMET090METAR NZCM 130855Z 07015G21KT 9999 FEW025 BKN055 M09/M23 A2943 RMK SLP971 FATA MORGANA SE=
0203896640876012017021309004-77850+166667FM-12+002499999V0200701N00771015001CN011000199-00911-02321099711ADDGA1011+007501061GA2061+015001061GE19MSL   +99999+99999GF106991011999007501999999MA1099675099291MD1210091+9999REMSYN08289664 42561 60715 11091 21232 39929 49971 52009 86500 333 56800 81625 86650 99113=
0155896640876012017021311554-77850+166667FM-15+002499999V0200701N006710167619N009999199-00901-02301099721ADDGA1071+016761999GE19MSL   +99999+99999GF199999071999016761999999MA1099661099305REMMET064METAR NZCM 131155Z 07013KT 9999 BKN055 M09/M23 A2943 RMK SLP972=
0219896640876012017021312004-77850+166667FM-12+002499999V0200701N006710150019N011000199-00881-02321099721ADDGA1061+015001061GE19MSL   +99999+99999GF106991061999015001999999KA1240M-00861KA2240N-01141MA1099675099291MD1410001+9999REMSYN08889664 32761 60713 11088 21232 39929 49972 54000 86500 333 11086 21114 56800 58054 86650=
0178896640876012017021314554-77850+166667FM-15+002499999V0200701N006710167619N009999199-01001-02301099271ADDGA1071+016761999GA2071+030481999GE19MSL   +99999+99999GF199999071999016761999999MA1099661098855REMMET071METAR NZCM 131455Z 07013KT 9999 BKN055 BKN100 M10/M23 A2943 RMK SLP927=
0191896640876012017021315004-77850+166667FM-12+002499999V0200701N006710150019N011000199-00961-02291099702ADDGA1051+015001061GA2999+999999031GE19MSL   +99999+99999GF105991051999015001999999MA1099655099272MD1810021+9999REMSYN07089664 42761 50713 11096 21229 39927 49970 58002 85570 333 56550 85650=
0178896640876012017021317554-77850+166667FM-15+002499999V0200901N008810167619N009999199-01001-02201099671ADDGA1071+016761999GA2071+030481999GE19MSL   +99999+99999GF199999071999016761999999MA1099631099255REMMET071METAR NZCM 131755Z 09017KT 9999 BKN055 BKN100 M10/M22 A2942 RMK SLP967=
0191896640876012017021318004-77850+166667FM-12+002499999V0200901N008810150019N011000199-00961-02221099671ADDGA1051+015001061GA2999+999999031GE19MSL   +99999+99999GF105991051999015001999999MA1099635099251MD1810021+9999REMSYN07089664 32761 50917 11096 21222 39925 49967 58002 85570 333 56550 85650=
0178896640876012017021320554-77850+166667FM-15+002499999V0200801N004610182919N009999199-00901-02101099661ADDGA1071+018291999GA2071+030481999GE19MSL   +99999+99999GF199999071999018291999999MA1099631099245REMMET071METAR NZCM 132055Z 08009KT 9999 BKN060 BKN100 M09/M21 A2942 RMK SLP966=
0191896640876012017021321004-77850+166667FM-12+002499999V0200801N004610180019N011000199-00881-02121099661ADDGA1051+018001061GA2999+999999031GE19MSL   +99999+99999GF105991051999018001999999MA1099615099231MD1710021+9999REMSYN07089664 42761 50809 11088 21212 39923 49966 57002 85570 333 56550 85656=
0203896640876012017021323554-77850+166667FM-15+002499999V0200701N00571076201CN009999199-00801-02101099661ADDGA1041+018291999GA2041+076201999GE19MSL   +99999+99999GF199999041999018291999999MA1099631099245REMMET096METAR NZCM 132355Z COR 07011KT 9999 SCT060 SCT250 M08/M21 A2942 RMK SLP966 FATA MORGANA SE-SW-W=
0259896640876012017021400004-77850+166667FM-12+002499999V0200701N005719999999N011000199-00831-02071099661ADDGA1031+018001061GA2999+999999001GE19MSL   +99999+99999GF104991031999018001999999KA1120M-00811KA2120N-01091MA1099615099231MD1410001+9999REMSYN11289664 32761 40711 11083 21207 39923 49966 54000 83502 333 11081 21109 56707 58017 83656 99113 99114 99115 99116=
0189896640876012017021402554-77850+166667FM-15+002499999V0200901N006219999999N009999199-00801-02101099601ADDGA1021+018291999GA2021+060961999GE19MSL   +99999+99999GF199999021999018291999999MA1099561099185OC100771REMMET074METAR NZCM 140255Z 09012G15KT 9999 FEW060 FEW200 M08/M21 A2940 RMK SLP960=
0191896640876012017021403004-77850+166667FM-12+002499999V0200901N006219999999N011000199-00821-02121099601ADDGA1011+018001061GA2999+999999001GE19MSL   +99999+99999GF101991011999018001999999MA1099565099181MD1710051+9999REMSYN07089664 42761 10912 11082 21212 39918 49960 57005 81501 333 56707 81656=
0155896640876012017021405554-77850+166667FM-15+002499999V0200801N004619999999N009999199-00801-02201099591ADDGA1021+018291999GE19MSL   +99999+99999GF199999021999018291999999MA1099561099175REMMET064METAR NZCM 140555Z 08009KT 9999 FEW060 M08/M22 A2940 RMK SLP959=
0175896640876012017021406004-77850+166667FM-12+002499999V0200801N004619999999N011000199-00791-02161099591ADDGA1011+018001061GE19MSL   +99999+99999GF101991011999018001999999MA1099555099171MD1610011+9999REMSYN07089664 32761 10809 11079 21216 39917 49959 56001 81500 333 56700 81656=
0170896640876012017021408554-77850+166667FM-15+002499999V0209999V001519999999N009999199-00601-02201099541ADDGA1021+010671999GE19MSL   +99999+99999GF199999021999010671999999MA1099491099125REMMET079METAR NZCM 140855Z VRB03KT 9999 FEW035 M06/M22 A2938 RMK SLP954 FATA MORGANA S=
0181896640876012017021409004-77850+166667FM-12+002499999V0209999V001519999999N011000199-00651-02211099541ADDGA1011+010501061GE19MSL   +99999+99999GF101991011999010501999999MA1099505099121MD1610051+9999REMSYN07689664 42661 19903 11065 21221 39912 49954 56005 81500 333 56700 81635 99114=
0196896640876012017021411554-77850+166667FM-15+002499999V0209999C000019999999N009999199-00701-02101099561ADDGA1021+010671999GA2021+030481999GE19MSL   +99999+99999GF199999021999010671999999MA1099421099145REMMET089METAR NZCM 141155Z 00000KT 9999 FEW035 FEW100 M07/M21 A2936 RMK SLP956 FATA MORGANA SW-W=
0247896640876012017021412004-77850+166667FM-12+002499999V0209999C000019999999N011000199-00721-02081099561ADDGA1011+010501061GA2999+999999031GE19MSL   +99999+99999GF101991011999010501999999KA1240M-00621KA2240N-00881MA1099425099041MD1710081+9999REMSYN10089664 42661 10000 11072 21208 39904 49956 57008 81530 333 11062 21088 56770 59025 81635 99115 99116=
0155896640876012017021414554-77850+166667FM-15+002499999V0200401N003619999999N009999199-00901-02101098961ADDGA1021+021341999GE19MSL   +99999+99999GF199999021999021341999999MA1099321098545REMMET064METAR NZCM 141455Z 04007KT 9999 FEW070 M09/M21 A2933 RMK SLP896=
0175896640876012017021415004-77850+166667FM-12+002499999V0200401N003619999999N011000199-00861-02131099382ADDGA1021+021001031GE19MSL   +99999+99999GF102991021999021001999999MA1099345098962MD1710081+9999REMSYN07089664 42861 20407 11086 21213 39896 49938 57008 82070 333 56070 82357=
0170896640876012017021417554-77850+166667FM-15+002499999V0209999C000019999999N009999199-00801-02101099301ADDGA1021+021341999GE19MSL   +99999+99999GF199999021999021341999999MA1099251098885REMMET079METAR NZCM 141755Z 00000KT 9999 FEW070 M08/M21 A2931 RMK SLP930 FATA MORGANA W=
0181896640876012017021418004-77850+166667FM-12+002499999V0209999C000019999999N011000199-00821-02091099301ADDGA1011+021001031GE19MSL   +99999+99999GF101991011999021001999999MA1099255098871MD1710091+9999REMSYN07689664 32861 10000 11082 21209 39887 49930 57009 81070 333 56070 81357 99116=
0179896640876012017021420554-77850+166667FM-15+002499999V0209999C000019999999N009999199-00701-01901099201ADDGA1021+021341999GE19MSL   +99999+99999GF199999021999021341999999MA1099151098785REMMET088METAR NZCM 142055Z 00000KT 9999 FEW070 M07/M19 A2928 RMK SLP920 FATA MORGANA SE-S AND W=
0193896640876012017021421004-77850+166667FM-12+002499999V0209999C000019999999N011000199-00741-01901099201ADDGA1011+021001031GE19MSL   +99999+99999GF101991011999021001999999MA1099165098781MD1710091+9999REMSYN08889664 42861 10000 11074 21190 39878 49920 57009 81070 333 56070 81357 99113 99114 99116=
0180896640876012017021423554-77850+166667FM-15+002499999V0209999C000019999999N009999199-00601-01501099121ADDGA1021+021341999GE19MSL   +99999+99999GF199999021999021341999999MA1099091098705REMMET089METAR NZCM 142355Z COR 00000KT 9999 FEW070 M06/M15 A2926 RMK SLP912 FATA MORGANA SE-SW-W=
0243896640876012017021500004-77850+166667FM-12+002499999V0209999C000019999999N011000199-00651-01491099121ADDGA1011+021001031GE19MSL   +99999+99999GF101991011999021001999999KA1120M-00601KA2120N-00911MA1099085098701MD1710081+9999REMSYN11289664 32761 10000 11065 21149 39870 49912 57008 81070 333 11060 21091 56070 59053 81357 99113 99114 99115 99116=
0199896640876012017021502574-77850+166667FM-15+002499999V0209999C000019999999N009999199-00501-01401098971ADDGA1021+009141999GA2021+021341999GE19MSL   +99999+99999GF199999021999009141999999MA1098921098565REMMET092METAR NZCM 150257Z 00000KT 9999 FEW030 FEW070 M05/M14 A2921 RMK SLP897 FATA MORGANA SE-SW-W=
0215896640876012017021503004-77850+166667FM-12+002499999V0209999C000019999999N011000199-00471-01441098971ADDGA1011+009001061GA2999+999999031GE19MSL   +99999+99999GF101991011999009001999999MA1098925098541MD1710161+9999REMSYN09489664 42561 10000 11047 21144 39854 49897 57016 81570 333 56440 81630 99113 99114 99115 99116=
0175896640876012017021505554-77850+166667FM-15+002499999V0209999C000019999999N009999199-00501-01401098841ADDGA1021+045721999GE19MSL   +99999+99999GF199999021999045721999999MA1098781098435REMMET084METAR NZCM 150555Z 00000KT 9999 FEW150 M05/M14 A2917 RMK SLP884 FATA MORGANA SE-S-W=
0199896640876012017021506004-77850+166667FM-12+002499999V0209999C000019999999N011000199-00491-01381098841ADDGA1011+045001001GE19MSL   +99999+99999GF101991011999045001999999MA1098795098411MD1710131+9999REMSYN09489664 32961 10000 11049 21138 39841 49884 57013 80001 333 56004 81065 99113 99114 99115 99116=
0198896640876012017021508554-77850+166667FM-15+002499999V0209999C000019999999N009999199-00601-01501098721ADDGA1021+010671999GA2021+045721999GE19MSL   +99999+99999GF199999021999010671999999MA1098681098315REMMET091METAR NZCM 150855Z 00000KT 9999 FEW035 FEW150 M06/M15 A2914 RMK SLP872 FATA MORGANA SE-S-W=
0215896640876012017021509004-77850+166667FM-12+002499999V0209999C000019999999N011000199-00581-01551098721ADDGA1021+010501061GA2999+999999001GE19MSL   +99999+99999GF102991021999010501999999MA1098675098291MD1710121+9999REMSYN09489664 42661 20000 11058 21155 39829 49872 57012 82501 333 56804 82635 99113 99114 99115 99116=
0177896640876012017021511554-77850+166667FM-15+002499999V0200301N002110106719N009999199-00801-01601098641ADDGA1071+010671999GE19MSL   +99999+99999GF199999071999010671999999MA1098611098225REMMET086METAR NZCM 151155Z 03004KT 9999 BKN035 M08/M16 A2912 RMK SLP864 FATA MORGANA SE-SW-NW=
0249896640876012017021512004-77850+166667FM-12+002499999V0200301N002110105019N011000199-00801-01581098641ADDGA1051+010501061GE19MSL   +99999+99999GF105991051999010501999999KA1240M-00421KA2240N-00801MA1098605098221MD1710071+9999REMSYN11889664 32661 50304 11080 21158 39822 49864 57007 85500 333 11042 21080 56800 59082 85635 99153 99154 99145 99116 99117=
0221896640876012017021517554-77850+166667FM-15+002499999V0200801N004110134119N009999199-01001-01601098471ADDGA1021+009141999GA2071+013411999GE19MSL   +99999+99999GF199999021999009141999999MA1098411098055MW1711REMMET108METAR NZCM 151755Z COR 08008KT 9999 -SN FEW030 BKN044 M10/M16 A2906 RMK SNB1630 SLP847 FATA MORGANA SE-SW-W=
0184896640876012017021520554-77850+166667FM-15+002499999V0201001N004110128019N009999199-01001-01701098461ADDGA1071+012801999GE19MSL   +99999+99999GF199999071999012801999999MA1098411098045REMMET093METAR NZCM 152055Z 10008KT 9999 BKN042 M10/M17 A2906 RMK SNE1840 SLP846 FATA MORGANA SE-SW-W=
0227896640876012017021521004-77850+166667FM-12+002499999V0201001N004110126019N011000199-01051-01701098461ADDAY171021AY221021GA1061+012601061GE19MSL   +99999+99999GF106991061999012601999999MA1098415098041MD1410001+9999MW1011REMSYN10089664 41661 61008 11105 21170 39804 49846 54000 70172 86500 333 56800 86642 99113 99114 99115 99116=
0176896640876012017021523554-77850+166667FM-15+002499999V0209999V003119999999N009999199-00501-01601098411ADDGA1021+012191999GE19MSL   +99999+99999GF199999021999012191999999MA1098371098005REMMET085METAR NZCM 152355Z VRB06KT 9999 FEW040 M05/M16 A2905 RMK SLP841 FATA MORGANA SE-SW-W=
0310896640876012017021600004-77850+166667FM-12+002499999V0209999V003119999999N011000199-00541-01601098411ADDAA112000021AL19900031AY171021AY211021GA1021+012001061GE19MSL   +99999+99999GF102991021999012001999999KA1120M-00531KA2120N-01391MA1098365097991MD1810051+9999MW1011REMSYN13689664 11661 29906 11054 21160 39799 49841 58005 69902 70171 82500 333 11053 21139 56800 59071 82640 90961 93197 99113 99114 99115 99116=
0177896640876012017021605554-77850+166667FM-15+002499999V0200801N003619999999N009999199-00701-01601098441ADDGA1021+009141999GE19MSL   +99999+99999GF199999021999009141999999MA1098411098035REMMET086METAR NZCM 160555Z 08007KT 9999 FEW030 M07/M16 A2906 RMK SLP844 FATA MORGANA SE-SW-NW=
0205896640876012017021606004-77850+166667FM-12+002499999V0200801N003619999999N011000199-00681-01641098441ADDGA1011+009001061GE19MSL   +99999+99999GF101991011999009001999999MA1098395098021MD1110031+9999REMSYN10089664 32561 10807 11068 21164 39802 49844 51003 81500 333 56000 81630 99113 99114 99145 99146 99117=
0200896640876012017021608554-77850+166667FM-15+002499999V0200501N004619999999N009999199-00701-01701098521ADDGA1021+009141999GA2021+030481999GE19MSL   +99999+99999GF199999021999009141999999MA1098481098115REMMET093METAR NZCM 160855Z 05009KT 9999 FEW030 FEW100 M07/M17 A2908 RMK SLP852 FATA MORGANA SE-SW-NW=
0221896640876012017021609004-77850+166667FM-12+002499999V0200501N004619999999N011000199-00731-01691098521ADDGA1011+009001061GA2999+999999031GE19MSL   +99999+99999GF101991011999009001999999MA1098485098101MD1210081+9999REMSYN10089664 42561 10509 11073 21169 39810 49852 52008 81570 333 56080 81630 99143 99144 99155 99156 99117=
0177896640876012017021611554-77850+166667FM-15+002499999V0209999C000019999999N009999199-01001-01501098591ADDGA1041+009141999GE19MSL   +99999+99999GF199999041999009141999999MA1098541098175REMMET086METAR NZCM 161155Z 00000KT 9999 SCT030 M10/M15 A2910 RMK SLP859 FATA MORGANA SE-SW-NW=
0249896640876012017021612004-77850+166667FM-12+002499999V0209999C000019999999N011000199-01011-01521098591ADDGA1031+009001061GE19MSL   +99999+99999GF103991031999009001999999KA1240M-00471KA2240N-01021MA1098555098171MD1210071+9999REMSYN11889664 32561 30000 11101 21152 39817 49859 52007 83500 333 11047 21102 56800 59005 83630 99143 99154 99155 99116 99117=
0196896640876012017021617554-77850+166667FM-15+002499999V0200801N007710137219N009999199-01101-02101098811ADDGA1041+010671999GA2071+013721999GE19MSL   +99999+99999GF199999041999010671999999MA1098751098395MW1711REMMET083METAR NZCM 161755Z 08015KT 9999 -SN SCT035 BKN045 M11/M21 A2916 RMK SNB1630 SLP881=
0264896640876012017021618004-77850+166667FM-12+002499999V0200801N007710135019N011000199-01101-02121098811ADDAA106000021AL19900031AY171021AY221021GA1031+010501061GA2061+013501061GE19MSL   +99999+99999GF106991031999010501999999MA1098765098381MD1210121+9999MW1711REMSYN10089664 11661 60815 11110 21212 39838 49881 52012 69901 77172 86500 333 56700 83635 86645 90921 93197=
0165896640876012017021620554-77850+166667FM-15+002499999V0200701N007710121919N009999199-01001-02101098941ADDGA1071+012191999GE19MSL   +99999+99999GF199999071999012191999999MA1098881098525MW1711REMMET068METAR NZCM 162055Z 07015KT 9999 -SN BKN040 M10/M21 A2920 RMK SLP894=
0203896640876012017021621004-77850+166667FM-12+002499999V0200701N007710120019N011000199-01021-02141098941ADDAY171021AY271021GA1061+012001061GE19MSL   +99999+99999GF106991061999012001999999MA1098895098511MD1210131+9999MW1711REMSYN07689664 41661 60715 11102 21214 39851 49894 52013 77177 86500 333 56700 86640=
0163896640876012017021623554-77850+166667FM-15+002499999V0200701N007719999999N009999199-01001-02101099091ADDGA1041+015241999GE19MSL   +99999+99999GF199999041999015241999999MA1099051098675REMMET072METAR NZCM 162355Z 07015KT 9999 SCT050 M10/M21 A2925 RMK SNE2230 SLP909=
0286896640876012017021700004-77850+166667FM-12+002499999V0200701N007719999999N011000199-01041-02091099091ADDAA112000021AL19900031AY171021AY211021GA1041+015001061GE19MSL   +99999+99999GF104991041999015001999999KA1120M-00881KA2120N-01601MA1099045098661MD1210151+9999MW1011REMSYN11289664 11761 40715 11104 21209 39866 49909 52015 69902 70171 84500 333 11088 21160 56700 58067 84650 90922 93197=
0181896640876012017021705554-77850+166667FM-15+002499999V0201401N005119999999N009999199-00901-02101099271ADDGA1041+016761999GE19MSL   +99999+99999GF199999041999016761999999MA1099221098855OC100881REMMET082METAR NZCM 170555Z 14010G17KT 9999 SCT055 M09/M21 A2930 RMK SLP927 FATA MORGANA W=
0181896640876012017021706004-77850+166667FM-12+002499999V0201401N005119999999N011000199-00891-02101099271ADDGA1041+015001061GE19MSL   +99999+99999GF104991041999015001999999MA1099235098851MD1210191+9999REMSYN07689664 32761 41410 11089 21210 39885 49927 52019 84500 333 56700 84650 99116=
0170896640876012017021708554-77850+166667FM-15+002499999V0200601N006210167619N009999199-00901-02301099251ADDGA1071+016761999GE19MSL   +99999+99999GF199999071999016761999999MA1099191098835REMMET079METAR NZCM 170855Z 06012KT 9999 BKN055 M09/M23 A2929 RMK SLP925 FATA MORGANA W=
0181896640876012017021709004-77850+166667FM-12+002499999V0200601N006210150019N011000199-00931-02271099251ADDGA1051+015001061GE19MSL   +99999+99999GF105991051999015001999999MA1099205098821MD1810031+9999REMSYN07689664 42761 50612 11093 21227 39882 49925 58003 85500 333 56700 85650 99116=
0170896640876012017021711554-77850+166667FM-15+002499999V0200501N004610198119N009999199-00901-02401099181ADDGA1071+019811999GE19MSL   +99999+99999GF199999071999019811999999MA1099121098765REMMET079METAR NZCM 171155Z 05009KT 9999 BKN065 M09/M24 A2927 RMK SLP918 FATA MORGANA W=
0155896640876012017021717554-77850+166667FM-15+002499999V0209999C000019999999N009999199-01001-02101099101ADDGA1021+009141999GE19MSL   +99999+99999GF199999021999009141999999MA1099051098685REMMET064METAR NZCM 171755Z 00000KT 9999 FEW030 M10/M21 A2925 RMK SLP910=
0175896640876012017021718004-77850+166667FM-12+002499999V0209999C000019999999N011000199-00981-02121099101ADDGA1011+009001061GE19MSL   +99999+99999GF101991011999009001999999MA1099055098671MD1810061+9999REMSYN07089664 32561 10000 11098 21212 39867 49910 58006 81500 333 56300 81630=
0155896640876012017021720554-77850+166667FM-15+002499999V0209999C000019999999N009999199-00901-02001099051ADDGA1021+021341999GE19MSL   +99999+99999GF199999021999021341999999MA1099021098635REMMET064METAR NZCM 172055Z 00000KT 9999 FEW070 M09/M20 A2924 RMK SLP905=
0175896640876012017021721004-77850+166667FM-12+002499999V0209999C000019999999N011000199-00871-01961099051ADDGA1011+021001031GE19MSL   +99999+99999GF101991011999021001999999MA1099015098631MD1610041+9999REMSYN07089664 42861 10000 11087 21196 39863 49905 56004 81030 333 56030 81357=
0114896640876012017021723554-77850+166667FM-15+002499999V0209999C000012200019N009999199-00701-01901099011ADDGF100991999999999999999999MA1098951098595REMMET061METAR NZCM 172355Z 00000KT 9999 SKC M07/M19 A2922 RMK SLP901=
0137896640876012017021800004-77850+166667FM-12+002499999V0209999C000019999999N011000199-00741-01861099011ADDKA1120M-00691KA2120N-01211MA1098975098591MD1610041-0071REMSYN07089664 32961 00000 11074 21186 39859 49901 56004 333 11069 21121 59007=
0204896640876012017021805554-77850+166667FM-15+002499999V0200601N007719999999N009999199-01001-02601098831ADDGA1021+012191999GA2021+036581999GE19MSL   +99999+99999GF199999021999012191999999MA1098781098415OC101081REMMET089METAR NZCM 180555Z 06015G21KT 9999 FEW040 FEW120 M10/M26 A2917 RMK SLP883 FATA MORGANA W=
0197896640876012017021806004-77850+166667FM-12+002499999V0200601N007719999999N011000199-01051-02591098831ADDGA1011+012001061GA2999+999999031GE19MSL   +99999+99999GF101991011999012001999999MA1098795098411MD1710091+9999REMSYN07689664 32661 10615 11105 21259 39841 49883 57009 81570 333 56080 81640 99116=
0216896640876012017021808554-77850+166667FM-15+002499999V0200801N00621030481CN009999199-01201-02501098861ADDGA1021+006101999GA2021+012191999GA3021+030481999GE19MSL   +99999+99999GF199999021999006101999999MA1098811098445REMMET093METAR NZCM 180855Z 08012KT 9999 FEW020 FEW040 FEW100 M12/M25 A2918 RMK SLP886 FATA MORGANA W=
0197896640876012017021809004-77850+166667FM-12+002499999V0200801N006219999999N011000199-01161-02481098861ADDGA1011+006001061GA2999+999999031GE19MSL   +99999+99999GF101991011999006001999999MA1098825098441MD1310031+9999REMSYN07689664 42561 10812 11116 21248 39844 49886 53003 81570 333 56080 81620 99116=
0181896640876012017021811554-77850+166667FM-15+002499999V0200901N007219999999N009999199-01301-02501098841ADDGA1021+030481999GE19MSL   +99999+99999GF199999021999030481999999MA1098781098415OC100931REMMET082METAR NZCM 181155Z 09014G18KT 9999 FEW100 M13/M25 A2917 RMK SLP884 FATA MORGANA W=
0225896640876012017021812004-77850+166667FM-12+002499999V0200901N007219999999N011000199-01351-02501098841ADDGA1021+030001031GE19MSL   +99999+99999GF102991021999030001999999KA1240M-00731KA2240N-01351MA1098795098411MD1810031+9999REMSYN09489664 32961 20914 11135 21250 39841 49884 58003 82070 333 11073 21135 56080 59035 82360 99116=
0181896640876012017021817554-77850+166667FM-15+002499999V0200701N006210182919N009999199-01201-02601098851ADDGA1071+018291999GE19MSL   +99999+99999GF199999071999018291999999MA1098781098435OC101081REMMET082METAR NZCM 181755Z 07012G21KT 9999 BKN060 M12/M26 A2917 RMK SLP885 FATA MORGANA W=
0181896640876012017021818004-77850+166667FM-12+002499999V0200701N006210180019N011000199-01211-02581098851ADDGA1071+018001061GE19MSL   +99999+99999GF107991071999018001999999MA1098795098411MD1410001+9999REMSYN07689664 32761 70712 11121 21258 39841 49885 54000 87500 333 56700 87656 99146=
0173896640876012017021820554-77850+166667FM-15+002499999V0200901N005710182919N009999199-01501-02401098871ADDGA1071+018291999GE19MSL   +99999+99999GF199999071999018291999999MA1098811098445REMMET082METAR NZCM 182055Z 09011KT 9999 BKN060 M15/M24 A2918 RMK SLP887 FATA MORGANA W-NW=
0187896640876012017021821004-77850+166667FM-12+002499999V0200901N005710180019N011000199-01541-02411098871ADDGA1071+018001061GE19MSL   +99999+99999GF107991071999018001999999MA1098815098431MD1210021+9999REMSYN08289664 42761 70911 11154 21241 39843 49887 52002 87500 333 56700 87656 99116 99127=
0155896640876012017021823554-77850+166667FM-15+002499999V0209999C000019999999N009999199-01101-02201098911ADDGA1021+018291999GE19MSL   +99999+99999GF199999021999018291999999MA1098851098495REMMET064METAR NZCM 182355Z 00000KT 9999 FEW060 M11/M22 A2919 RMK SLP891=
0219896640876012017021900004-77850+166667FM-12+002499999V0209999C000019999999N011000199-01111-02181098911ADDGA1011+018001061GE19MSL   +99999+99999GF101991011999018001999999KA1120M-01061KA2120N-01541MA1098855098471MD1210041+9999REMSYN08889664 32761 10000 11111 21218 39847 49891 52004 81500 333 11106 21154 56700 59012 81656=
0114896640876012017021905554-77850+166667FM-15+002499999V0209999C000012200019N009999199-01101-02001098911ADDGF100991999999999999999999MA1098851098495REMMET061METAR NZCM 190555Z 00000KT 9999 SKC M11/M20 A2919 RMK SLP891=
0089896640876012017021906004-77850+166667FM-12+002499999V0209999C000019999999N011000199-01141-01991098911ADDMA1098865098481MD1110021+9999REMSYN04889664 32961 00000 11114 21199 39848 49891 51002=
0155896640876012017021908554-77850+166667FM-15+002499999V0209999C000019999999N009999199-01001-02101098961ADDGA1021+012191999GE19MSL   +99999+99999GF199999021999012191999999MA1098921098545REMMET064METAR NZCM 190855Z 00000KT 9999 FEW040 M10/M21 A2921 RMK SLP896=
0175896640876012017021909004-77850+166667FM-12+002499999V0209999C000019999999N011000199-01031-02061098961ADDGA1011+012001061GE19MSL   +99999+99999GF101991011999012001999999MA1098915098531MD1210051+9999REMSYN07089664 42661 10000 11103 21206 39853 49896 52005 81500 333 56700 81640=
0155896640876012017021911554-77850+166667FM-15+002499999V0209999C000019999999N009999199-01101-02101098971ADDGA1021+012191999GE19MSL   +99999+99999GF199999021999012191999999MA1098921098555REMMET064METAR NZCM 191155Z 00000KT 9999 FEW040 M11/M21 A2921 RMK SLP897=
0219896640876012017021912004-77850+166667FM-12+002499999V0209999C000019999999N011000199-01121-02121098971ADDGA1011+012001061GE19MSL   +99999+99999GF101991011999012001999999KA1240M-00891KA2240N-01331MA1098925098541MD1110011+9999REMSYN08889664 32661 10000 11112 21212 39854 49897 51001 81500 333 11089 21133 56700 58013 81640=
0114896640876012017021917554-77850+166667FM-15+002499999V0209999C000012200019N009999199-01201-02001098911ADDGF100991999999999999999999MA1098851098495REMMET061METAR NZCM 191755Z 00000KT 9999 SKC M12/M20 A2919 RMK SLP891=
0089896640876012017021918004-77850+166667FM-12+002499999V0209999C000019999999N011000199-01191-02021098911ADDMA1098865098481MD1810011+9999REMSYN04889664 32961 00000 11119 21202 39848 49891 58001=
0176896640876012017021920554-77850+166667FM-15+002499999V0200501N005119999999N009999199-01001-02501098881ADDGA1021+018291999GE19MSL   +99999+99999GF199999021999018291999999MA1098811098465REMMET085METAR NZCM 192055Z 05010KT 9999 FEW060 M10/M25 A2918 RMK SLP888 FATA MORGANA SE-SW-W=
0199896640876012017021921004-77850+166667FM-12+002499999V0200501N005119999999N011000199-00971-02521098881ADDGA1011+018001031GE19MSL   +99999+99999GF101991011999018001999999MA1098835098451MD1710031+9999REMSYN09489664 42761 10510 11097 21252 39845 49888 57003 81500 333 56000 81356 99113 99114 99115 99116=
0187896640876012017021923554-77850+166667FM-15+002499999V0200501N007219999999N009999199-01101-02301098891ADDGA1021+018291999GE19MSL   +99999+99999GF199999021999018291999999MA1098811098475OC101031REMMET088METAR NZCM 192355Z 05014G20KT 9999 FEW060 M11/M23 A2918 RMK SLP889 FATA MORGANA SE-SW-W=
0243896640876012017022000004-77850+166667FM-12+002499999V0200501N007219999999N011000199-01151-02321098891ADDGA1011+018001061GE19MSL   +99999+99999GF101991011999018001999999KA1120M-00891KA2120N-01331MA1098835098451MD1410001+9999REMSYN11289664 32761 10514 11115 21232 39845 49889 54000 81500 333 11089 21133 56700 58013 81656 99113 99114 99115 99116=
0172896640876012017022005554-77850+166667FM-15+002499999V0200701N006219999999N009999199-01101-02501098751ADDGA1021+009141999GE19MSL   +99999+99999GF199999021999009141999999MA1098681098335MW1761REMMET075METAR NZCM 200555Z 07012KT 9999 IC FEW030 M11/M25 A2914 RMK ICB0450 SLP875=
0242896640876012017022006004-77850+166667FM-12+002499999V0200701N006219999999N011000199-01071-02501098751ADDAA106000021AL19900031AY171021AY201021GA1021+009001061GE19MSL   +99999+99999GF102991021999009001999999MA1098705098321MD1810131+9999MW1761REMSYN09489664 11561 20712 11107 21250 39832 49875 58013 69901 77670 82500 333 56700 82630 90921 93197=
0184896640876012017022008554-77850+166667FM-15+002499999V0200401N006210091419N009999199-01001-02401098581ADDGA1071+009141999GE19MSL   +99999+99999GF199999071999009141999999MA1098541098165REMMET093METAR NZCM 200855Z 04012KT 9999 BKN030 M10/M24 A2910 RMK ICE0625 SLP858 FATA MORGANA S AND W=
0215896640876012017022009004-77850+166667FM-12+002499999V0200401N006210090019N011000199-01051-02441098581ADDAY171021AY211021GA1071+009001061GE19MSL   +99999+99999GF107991071999009001999999MA1098535098151MD1710171+9999MW1031REMSYN08889664 41561 70412 11105 21244 39815 49858 57017 70371 87500 333 56700 87630 99114 99116=
0221896640876012017022011554-77850+166667FM-15+002499999V0200901N006210121919N009999199-01401-02201098451ADDGA1021+007621999GA2071+012191999GE19MSL   +99999+99999GF199999021999007621999999MA1098371098025REMMET114METAR NZCM 201155Z 09012KT 9999 FEW025 BKN040 M14/M22 A2905 RMK SNB0930E37 SLP845 SN DSNT W FATA MORGANA S AND NW=
0326896640876012017022012004-77850+166667FM-12+002499999V0200901N00621012001CN011000199-01441-02161098451ADDAA112000021AL19900031AY171021AY211021GA1021+007501061GA2061+012001061GE19MSL   +99999+99999GF107991021999007501999999KA1240M-00811KA2240N-01601MA1098385098011MD1710141+9999MW1221REMSYN13689664 11561 70912 11144 21216 39801 49845 57014 69902 72271 87500 333 11081 21160 56700 59053 82625 86640 90935 93197 96015 99114 99117=
0196896640876012017022017554-77850+166667FM-15+002499999V0201001N008810076219N009999199-01601-02501098381ADDGA1071+007621999GA2081+016761999GE19MSL   +99999+99999GF199999071999007621999999MA1098311097955MW1711REMMET083METAR NZCM 201755Z 10017KT 9999 -SN BKN025 OVC055 M16/M25 A2903 RMK SNB1630 SLP838=
0264896640876012017022018004-77850+166667FM-12+002499999V0201001N008810075019N011000199-01611-02531098381ADDAA118000021AL19900031AY171021AY221021GA1051+007501061GA2081+018001061GE19MSL   +99999+99999GF108991051999007501999999MA1098325097951MD1310031+9999MW1711REMSYN10089664 11561 81017 11161 21253 39795 49838 53003 69903 77172 885// 333 56799 85625 88656 90921 93197=
0199896640876012017022020554-77850+166667FM-15+002499999V0200801N009810167619N009999199-01601-02501098471ADDGA1041+007621999GA2071+016761999GE19MSL   +99999+99999GF199999041999007621999999MA1098411098045MW1711OC101651REMMET078METAR NZCM 202055Z 08019G32KT 9999 -SN SCT025 BKN055 M16/M25 A2906 RMK SLP847=
0225896640876012017022021004-77850+166667FM-12+002499999V0200801N009810180019N011000199-01561-02491098471ADDAY171021AY271021GA1041+007501061GA2071+018001061GE19MSL   +99999+99999GF107991041999007501999999MA1098415098041MD1210091+9999MW1711REMSYN08289664 41561 70819 11156 21249 39804 49847 52009 77177 87500 333 56700 84625 87656=
0206896640876012017022023554-77850+166667FM-15+002499999V0200801N007719999999N009999199-01601-02601098541ADDGA1041+016761999GE19MSL   +99999+99999GF199999041999016761999999MA1098481098115OC101241OD149901331060REMMET093METAR NZCM 202355Z 08015G24KT 9999 SCT055 M16/M26 A2908 RMK PK WND 06026/2206 SNE2230 SLP854=
0286896640876012017022100004-77850+166667FM-12+002499999V0200801N007719999999N011000199-01561-02561098541ADDAA124000021AL19900031AY171021AY211021GA1031+018001061GE19MSL   +99999+99999GF103991031999018001999999KA1120M-00841KA2120N-01901MA1098495098111MD1210071+9999MW1011REMSYN11289664 11761 30815 11156 21256 39811 49854 52007 69904 70171 83500 333 11084 21190 56700 59034 83656 90922 93197=
0202896640876012017022105554-77850+166667FM-15+002499999V0200501N006210143319N009999199-01401-02501098871ADDGA1071+014331999GE19MSL   +99999+99999GF199999071999014331999999MA1098811098445MW1711OC101081REMMET097METAR NZCM 210555Z 05012G21KT 9999 -SN BKN047 M14/M25 A2918 RMK SNB0530 SLP887 FATA MORGANA SW-W=
0254896640876012017022106004-77850+166667FM-12+002499999V0200501N006210141019N011000199-01411-02511098871ADDAA106000021AL19900031AY171021AY211021GA1061+014101061GE19MSL   +99999+99999GF106991061999014101999999MA1098825098441MD1210141+9999MW1711REMSYN10689664 11661 60512 11141 21251 39844 49887 52014 69901 77171 86500 333 56700 86647 90910 93197 99115 99116=
0186896640876012017022108554-77850+166667FM-15+002499999V0200701N004610182919N009999199-01301-02401099081ADDGA1071+018291999GE19MSL   +99999+99999GF199999071999018291999999MA1099021098655REMMET095METAR NZCM 210855Z 07009KT 9999 BKN060 M13/M24 A2924 RMK SNE35 SLP908 SN DSNT W FATA MORGANA W=
0209896640876012017022109004-77850+166667FM-12+002499999V0200701N004610180019N011000199-01351-02391099081ADDAY171021AY221021GA1071+018001061GE19MSL   +99999+99999GF107991071999018001999999MA1099035098651MD1210211+9999MW1151REMSYN08289664 41761 70709 11135 21239 39865 49908 52021 71572 87500 333 56700 87656 99116=
0176896640876012017022111554-77850+166667FM-15+002499999V0200701N004110167619N009999199-01301-02401099171ADDGA1071+016761999GE19MSL   +99999+99999GF199999071999016761999999MA1099121098745REMMET085METAR NZCM 211155Z 07008KT 9999 BKN055 M13/M24 A2927 RMK SLP917 FATA MORGANA SE-SW-W=
0310896640876012017022112004-77850+166667FM-12+002499999V0200701N004110150019N011000199-01311-02441099171ADDAA112000021AL19900031AY171021AY221021GA1071+015001061GE19MSL   +99999+99999GF107991071999015001999999KA1240M-01301KA2240N-01631MA1099125098741MD1110091+9999MW1021REMSYN13689664 11761 70708 11131 21244 39874 49917 51009 69902 70272 87500 333 11130 21163 56700 58073 87650 90942 93197 99113 99114 99115 99116=
0155896640876012017022117554-77850+166667FM-15+002499999V0200601N004610152419N009999199-01401-02601099401ADDGA1071+015241999GE19MSL   +99999+99999GF199999071999015241999999MA1099361098975REMMET064METAR NZCM 211755Z 06009KT 9999 BKN050 M14/M26 A2934 RMK SLP940=
0214896640876012017022118004-77850+166667FM-12+002499999V0200601N004610150019N011000199-01441-02631099401ADDAA118000021AL19900031GA1071+015001061GE19MSL   +99999+99999GF107991071999015001999999MA1099355098971MD1210121+9999REMSYN08889664 12761 70609 11144 21263 39897 49940 52012 69903 87500 333 56700 87650 90972 93197=
0189896640876012017022120554-77850+166667FM-15+002499999V0200501N007710213419N009999199-01701-02601099571ADDGA1021+015241999GA2071+021341999GE19MSL   +99999+99999GF199999021999015241999999MA1099531099135OC101181REMMET074METAR NZCM 212055Z 05015G23KT 9999 FEW050 BKN070 M17/M26 A2939 RMK SLP957=
0197896640876012017022121004-77850+166667FM-12+002499999V0200501N00771021001CN011000199-01741-02621099571ADDGA1011+015001061GA2071+021001031GE19MSL   +99999+99999GF107991011999015001999999MA1099515099131MD1210161+9999REMSYN07689664 42761 70515 11174 21262 39913 49957 52016 81570 333 56770 81650 87357=
0178896640876012017022123554-77850+166667FM-15+002499999V0200501N005110213419N009999199-01601-02601099741ADDGA1021+015241999GA2071+021341999GE19MSL   +99999+99999GF199999021999015241999999MA1099691099315REMMET071METAR NZCM 212355Z 05010KT 9999 FEW050 BKN070 M16/M26 A2944 RMK SLP974=
0258896640876012017022200004-77850+166667FM-12+002499999V0200501N00511021001CN011000199-01591-02621099741ADDAA124000021GA1011+015001061GA2071+021001031GE19MSL   +99999+99999GF107991011999015001999999KA1120M-01261KA2120N-01791MA1099685099301MD1210171+9999REMSYN10089664 12761 70510 11159 21262 39930 49974 52017 69904 81570 333 11126 21179 56770 58119 81650 87357=
0201896640876012017022205554-77850+166667FM-15+002499999V0200401N00671018291CN009999199-01501-02701099921ADDGA1021+015241999GA2041+018291999GA3071+021341999GE19MSL   +99999+99999GF199999021999015241999999MA1099861099495REMMET078METAR NZCM 220555Z 04013KT 9999 FEW050 SCT060 BKN070 M15/M27 A2949 RMK SLP992=
0197896640876012017022206004-77850+166667FM-12+002499999V0200401N006719999999N011000199-01471-02681099921ADDGA1011+015001061GA2031+018001061GE19MSL   +99999+99999GF107991011999015001999999MA1099865099481MD1110051+9999REMSYN07689664 32761 70413 11147 21268 39948 49992 51005 83570 333 56770 81650 83656=
0200896640876012017022208554-77850+166667FM-15+002499999V0200501N006210243819N009999199-01401-02701100031ADDGA1021+015241999GA2071+024381999GE19MSL   +99999+99999GF199999021999015241999999MA1099971099605REMMET093METAR NZCM 220855Z 05012KT 9999 FEW050 BKN080 M14/M27 A2952 RMK SLP003 FATA MORGANA S AND NW=
0209896640876012017022209004-77850+166667FM-12+002499999V0200501N00621024001CN011000199-01391-02671100031ADDGA1021+015001061GA2051+024001031GE19MSL   +99999+99999GF107991021999015001999999MA1099975099591MD1310111+9999REMSYN08889664 42761 70512 11139 21267 39959 40003 53011 82570 333 56770 82650 85358 99144 99117=
0196896640876012017022211554-77850+166667FM-15+002499999V0200501N004610152419N009999199-01201-01801100111ADDGA1071+015241999GA2071+024381999GE19MSL   +99999+99999GF199999071999015241999999MA1100071099685REMMET089METAR NZCM 221155Z 05009KT 9999 BKN050 BKN080 M12/M18 A2955 RMK SLP011 FATA MORGANA W-NW=
0247896640876012017022212004-77850+166667FM-12+002499999V0200501N004610150019N011000199-01241-02802100111ADDGA1051+015001061GA2999+999999031GE19MSL   +99999+99999GF107991051999015001999999KA1240M-01241KA2240N-01571MA1100055099671MD1210081+9999REMSYN10089664 32761 70509 11124 21280 39967 40011 52008 85570 333 11124 21157 56770 58093 85650 99116 99117=
0212896640876012017022217554-77850+166667FM-15+002499999V0200701N005710152419N009999199-01401-02001100311ADDGA1021+010671999GA2071+015241999GA3071+021341999GE19MSL   +99999+99999GF199999021999010671999999MA1100271099885OC100771REMMET081METAR NZCM 221755Z 07011G15KT 9999 FEW035 BKN050 BKN070 M14/M20 A2961 RMK SLP031=
0197896640876012017022218004-77850+166667FM-12+002499999V0200701N00571015001CN011000199-01371-02021100311ADDGA1021+010501061GA2061+015001061GE19MSL   +99999+99999GF107991021999010501999999MA1100255099871MD1210091+9999REMSYN07689664 32661 70711 11137 21202 39987 40031 52009 87570 333 56570 82635 86650=
0176896640876012017022220554-77850+166667FM-15+002499999V0201101N004110182919N009999199-01301-02101100481ADDGA1071+018291999GE19MSL   +99999+99999GF199999071999018291999999MA1100412100055REMMET085METAR NZCM 222055Z 11008KT 9999 BKN060 M13/M21 A2965 RMK SLP048 FATA MORGANA SE-SW-W=
0199896640876012017022221004-77850+166667FM-12+002499999V0201101N004110180019N011000199-01321-02061100481ADDGA1071+018001061GE19MSL   +99999+99999GF107991071999018001999999MA1999999100041MD1310171+9999REMSYN09489664 42761 71108 11132 21206 30004 40048 53017 87500 333 56700 87656 99113 99114 99115 99116=
0173896640876012017022223554-77850+166667FM-15+002499999V0209999V002119999999N009999199-01301-01801100701ADDGA1041+018291999GE19MSL   +99999+99999GF199999041999018291999999MA1100642100275REMMET082METAR NZCM 222355Z VRB04KT 9999 SCT060 M13/M18 A2972 RMK SLP070 FATA MORGANA SW-W=
0231896640876012017022300004-77850+166667FM-12+002499999V0209999V002119999999N011000199-01281-01831100701ADDGA1031+018001061GE19MSL   +99999+99999GF103991031999018001999999KA1120M-00931KA2120N-01461MA1999999100261MD1210221+9999REMSYN10089664 32761 39904 11128 21183 30026 40070 52022 83500 333 11093 21146 56700 58096 83656 99115 99116=
0194896640876012017022305554-77850+166667FM-15+002499999V0209999V002619999999N009999199-00901-01901100861ADDGA1021+018291999GA2021+024381999GE19MSL   +99999+99999GF199999021999018291999999MA1100812100435REMMET087METAR NZCM 230555Z VRB05KT 9999 FEW060 FEW080 M09/M19 A2977 RMK SLP086 FATA MORGANA SE=
0197896640876012017022306004-77850+166667FM-12+002499999V0209999V002619999999N011000199-00861-01941100861ADDGA1011+018001061GA2999+999999031GE19MSL   +99999+99999GF101991011999018001999999MA1999999100411MD1990051+9999REMSYN07689664 32761 19905 11086 21194 30041 40086 50005 81570 333 56770 81656 99113=
0178896640876012017022308554-77850+166667FM-15+002499999V0201001N002619999999N009999199-00901-02401100831ADDGA1021+024381999GA2021+030481999GE19MSL   +99999+99999GF199999021999024381999999MA1100782100405REMMET071METAR NZCM 230855Z 10005KT 9999 FEW080 FEW100 M09/M24 A2976 RMK SLP083=
0175896640876012017022309004-77850+166667FM-12+002499999V0201001N002619999999N011000199-00891-02411100831ADDGA1011+024001031GE19MSL   +99999+99999GF101991011999024001999999MA1999999100391MD1610021+9999REMSYN07089664 42861 11005 11089 21241 30039 40083 56002 81070 333 56070 81358=
0172896640876012017022311554-77850+166667FM-15+002499999V0209999C000019999999N009999199-01301-01901100741ADDGA1041+054861999GE19MSL   +99999+99999GF199999041999054861999999MA1100682100315REMMET081METAR NZCM 231155Z 00000KT 9999 SCT180 M13/M19 A2973 RMK SLP074 FATA MORGANA S-W=
0237896640876012017022312004-77850+166667FM-12+002499999V0209999C000019999999N011000199-01331-01921100741ADDGA1041+054001001GE19MSL   +99999+99999GF104991041999054001999999KA1240M-00821KA2240N-01491MA1999999100291MD1810101+9999REMSYN10689664 32961 40000 11133 21192 30029 40074 58010 80004 333 11082 21149 56007 58062 84068 99114 99115 99116=
0155896640876012017022317554-77850+166667FM-15+002499999V0209999C000019999999N009999199-01101-01801100441ADDGA1041+060961999GE19MSL   +99999+99999GF199999041999060961999999MA1100371100015REMMET064METAR NZCM 231755Z 00000KT 9999 SCT200 M11/M18 A2964 RMK SLP044=
0175896640876012017022318004-77850+166667FM-12+002499999V0209999C000019999999N011000199-01071-01841100441ADDGA1041+060001021GE19MSL   +99999+99999GF104991041999060001999999MA1999999100011MD1810171+9999REMSYN07089664 32961 40000 11107 21184 30001 40044 58017 80008 333 56007 84270=
0155896640876012017022320554-77850+166667FM-15+002499999V0209999V001519999999N009999199-01001-01801100241ADDGA1041+060961999GE19MSL   +99999+99999GF199999041999060961999999MA1100201099815REMMET064METAR NZCM 232055Z VRB03KT 9999 SCT200 M10/M18 A2959 RMK SLP024=
0130896640876012017022321004-77850+166667FM-12+002499999V0209999V001519999999N011000199-01091-01771999999ADDGE19MSL   +99999+99999GF103991999999999999999999REMSYN07089664 42961 39903 11109 21177 29982 40024 58019 80008 333 56007 83270=
0178896640876012017022323554-77850+166667FM-15+002499999V0200101N003119999999N009999199-00601-01501100041ADDGA1021+054861999GA2021+060961999GE19MSL   +99999+99999GF199999021999054861999999MA1100001099625REMMET071METAR NZCM 232355Z 01006KT 9999 FEW180 FEW200 M06/M15 A2953 RMK SLP004=
0219896640876012017022400004-77850+166667FM-12+002499999V0209999V003119999999N011000199-00601-01481100041ADDGA1011+054001021GE19MSL   +99999+99999GF102991011999054001999999KA1120M-00601KA2120N-01371MA1099995099611MD1810211+9999REMSYN08889664 32961 29906 11060 21148 39961 40004 58021 80008 333 11060 21137 56007 59065 81268=
0208896640876012017022405554-77850+166667FM-15+002499999V0203501N00411054861CN009999199-00501-01301099721ADDGA1021+009141999GA2021+048771999GA3021+054861999GE19MSL   +99999+99999GF199999021999009141999999MA1099661099305REMMET085METAR NZCM 240555Z 35008KT 9999 FEW030 FEW160 FEW180 M05/M13 A2943 RMK CCSL W SLP972=
0191896640876012017022406004-77850+166667FM-12+002499999V0203501N004119999999N011000199-00491-01291099721ADDGA1011+009001061GA2999+999999011GE19MSL   +99999+99999GF102991011999009001999999MA1099675099291MD1610121+9999REMSYN07089664 32561 23508 11049 21129 39929 49972 56012 81509 333 56707 81630=
0201896640876012017022408554-77850+166667FM-15+002499999V0203301N00361054861CN009999199-00601-01201099601ADDGA1021+030481999GA2021+039621999GA3021+054861999GE19MSL   +99999+99999GF199999021999030481999999MA1099561099185REMMET078METAR NZCM 240855Z 33007KT 9999 FEW100 FEW130 FEW180 M06/M12 A2940 RMK SLP960=
0191896640876012017022409004-77850+166667FM-12+002499999V0203301N003619999999N011000199-00581-01231099601ADDGA1011+030001031GA2999+999999001GE19MSL   +99999+99999GF102991011999030001999999MA1099555099171MD1710121+9999REMSYN07089664 42961 23307 11058 21123 39917 49960 57012 81072 333 56077 81360=
0201896640876012017022411554-77850+166667FM-15+002499999V0203301N00211048771CN009999199-00701-01201099471ADDGA1021+009141999GA2021+030481999GA3021+048771999GE19MSL   +99999+99999GF199999021999009141999999MA1099421099055REMMET078METAR NZCM 241155Z 33004KT 9999 FEW030 FEW100 FEW160 M07/M12 A2936 RMK SLP947=
0251896640876012017022412004-77850+166667FM-12+002499999V0203301N002119999999N011000199-00701-01251099471ADDGA1011+009001061GA2999+999999031GA3999+999999021GE19MSL   +99999+99999GF101991011999009001999999KA1240M-00481KA2240N-00951MA1099425099041MD1710131+9999REMSYN08889664 32561 13304 11070 21125 39904 49947 57013 81578 333 11048 21095 56877 59125 81630=
0155896640876012017022417554-77850+166667FM-15+002499999V0209999C000019999999N009999199-00901-01301099251ADDGA1021+009141999GE19MSL   +99999+99999GF199999021999009141999999MA1099221098835REMMET064METAR NZCM 241755Z 00000KT 9999 FEW030 M09/M13 A2930 RMK SLP925=
0175896640876012017022418004-77850+166667FM-12+002499999V0209999C000019999999N011000199-00941-01271099251ADDGA1011+009001061GE19MSL   +99999+99999GF101991011999009001999999MA1099215098831MD1610081+9999REMSYN07089664 32561 10000 11094 21127 39883 49925 56008 81500 333 56300 81630=
0155896640876012017022420554-77850+166667FM-15+002499999V0209999C000019999999N009999199-00701-01201099161ADDGA1021+009141999GE19MSL   +99999+99999GF199999021999009141999999MA1099121098745REMMET064METAR NZCM 242055Z 00000KT 9999 FEW030 M07/M12 A2927 RMK SLP916=
0175896640876012017022421004-77850+166667FM-12+002499999V0209999C000019999999N011000199-00711-01181099161ADDGA1011+009001061GE19MSL   +99999+99999GF101991011999009001999999MA1099115098731MD1610101+9999REMSYN07089664 42561 10000 11071 21118 39873 49916 56010 81500 333 56300 81630=
0155896640876012017022423554-77850+166667FM-15+002499999V0200801N003119999999N009999199-00801-01301099081ADDGA1021+009141999GE19MSL   +99999+99999GF199999021999009141999999MA1099051098665REMMET064METAR NZCM 242355Z 08006KT 9999 FEW030 M08/M13 A2925 RMK SLP908=
0219896640876012017022500004-77850+166667FM-12+002499999V0200801N003119999999N011000199-00841-01341099081ADDGA1011+009001061GE19MSL   +99999+99999GF101991011999009001999999KA1120M-00621KA2120N-01021MA1099045098661MD1610071+9999REMSYN08889664 32561 10806 11084 21134 39866 49908 56007 81500 333 11062 21102 56300 59095 81630=
0187896640876012017022505554-77850+166667FM-15+002499999V0209999C000010091419N009999199-00701-01201098891ADDGA1071+009141999GE19MSL   +99999+99999GF199999071999009141999999MA1098851098475MW1711REMMET090METAR NZCM 250555Z 00000KT 9999 -SN BKN030 M07/M12 A2919 RMK SNB40 SLP889 FATA MORGANA NW=
0248896640876012017022506004-77850+166667FM-12+002499999V0209999C000010090019N011000199-00681-01231098891ADDAA106000021AL19900031AY111021AY211021GA1061+009001061GE19MSL   +99999+99999GF106991061999009001999999MA1098855098471MD1610091+9999MW1711REMSYN10089664 11561 60000 11068 21123 39847 49889 56009 69901 77111 86500 333 56300 86630 90910 93197 99157=
0165896640876012017022508554-77850+166667FM-15+002499999V0201101N004110076219N009999199-00901-01401098851ADDGA1071+007621999GE19MSL   +99999+99999GF199999071999007621999999MA1098811098435MW1711REMMET068METAR NZCM 250855Z 11008KT 9999 -SN BKN025 M09/M14 A2918 RMK SLP885=
0203896640876012017022509004-77850+166667FM-12+002499999V0201101N004110075019N011000199-00911-01361098851ADDAY171021AY271021GA1071+007501061GE19MSL   +99999+99999GF107991071999007501999999MA1098815098431MD1610041+9999MW1711REMSYN07689664 41561 71108 11091 21136 39843 49885 56004 77177 87500 333 56300 87625=
0199896640876012017022511554-77850+166667FM-15+002499999V0200601N007710121919N009999199-01501-02101098811ADDGA1041+007621999GA2071+012191999GE19MSL   +99999+99999GF199999041999007621999999MA1098751098385MW1711OC101081REMMET078METAR NZCM 251155Z 06015G21KT 9999 -SN SCT025 BKN040 M15/M21 A2916 RMK SLP881=
0308896640876012017022512004-77850+166667FM-12+002499999V0200601N00771012001CN011000199-01461-02091098811ADDAA112000021AL19900031AY171021AY271021GA1031+007501061GA2051+012001061GE19MSL   +99999+99999GF107991031999007501999999KA1240M-00631KA2240N-01471MA1098755098371MD1610061+9999MW1711REMSYN11889664 11561 70615 11146 21209 39837 49881 56006 69902 77177 87500 333 11063 21147 56400 59067 83625 85640 90962 93197=
0192896640876012017022517554-77850+166667FM-15+002499999V0200901N009810103619N009999199-01801-02201098761ADDGA1081+010361999GE19MSL   +99999+99999GF199999081999010361999999MA1098711098335MW1711OC101391REMMET087METAR NZCM 251755Z 09019G27KT 9999 -SN OVC034 M18/M22 A2915 RMK PK WND 09028/47 SLP876=
0242896640876012017022518004-77850+166667FM-12+002499999V0200901N009810102019N011000199-01801-02231098761ADDAA118000021AL19900031AY171021AY271021GA1081+010201061GE19MSL   +99999+99999GF108991081999010201999999MA1098715098331MD1410001+9999MW1711REMSYN09489664 11661 80919 11180 21223 39833 49876 54000 69903 77177 885// 333 56499 88634 90983 93197=
0215896640876012017022520554-77850+166667FM-15+002499999V0200801N010810103619N009999199-01601-02101098811ADDGA1071+010361999GA2081+013721999GE19MSL   +99999+99999GF199999071999010361999999MA1098751098385MW1711OC101491REMMET094METAR NZCM 252055Z 08021G29KT 9999 -SN BKN034 OVC045 M16/M21 A2916 RMK PK WND 09031/15 SLP881=
0203896640876012017022521004-77850+166667FM-12+002499999V0200801N010810102019N011000199-01601-02141098811ADDAY171021AY271021GA1061+010201061GE19MSL   +99999+99999GF108991061999010201999999MA1098765098381MD1110051+9999MW1711REMSYN07689664 41661 80821 11160 21214 39838 49881 51005 77177 885// 333 56499 86634=
0220896640876012017022523554-77850+166667FM-15+002499999V0200701N00621010361CN009999199-01401-02201098941ADDGA1021+004571999GA2041+010361999GA3071+013721999GE19MSL   +99999+99999GF199999021999004571999999MA1098881098515OC101081REMMET089METAR NZCM 252355Z 07012G21KT 9999 FEW015 SCT034 BKN045 M14/M22 A2920 RMK SNE2200 SLP894=
0308896640876012017022600004-77850+166667FM-12+002499999V0200701N006219999999N011000199-01411-02181098941ADDAA124000021AL19900031AY171021AY221021GA1011+004501061GA2041+010201061GE19MSL   +99999+99999GF107991011999004501999999KA1120M-01401KA2120N-01831MA1098895098511MD1210121+9999MW1011REMSYN11889664 11461 70712 11141 21218 39851 49894 52012 69904 70172 87500 333 11140 21183 56400 59015 81615 84634 90923 93197=
0237896640876012017022605554-77850+166667FM-15+002499999V0200701N008210121919N009999199-01601-02201099001ADDGA1041+004571999GA2071+012191999GE19MSL   +99999+99999GF199999041999004571999999MA1098951098575OC101081OD149901331090REMMET108METAR NZCM 260555Z 07016G21KT 9999 SCT015 BKN040 M16/M22 A2922 RMK PK WND 09026/0330 SLP900 FATA MORGANA NW=
0203896640876012017022606004-77850+166667FM-12+002499999V0200601N00821012001CN011000199-01621-02161099001ADDGA1041+004501061GA2041+012001061GE19MSL   +99999+99999GF107991041999004501999999MA1098945098561MD1210051+9999REMSYN08289664 32461 70616 11162 21216 39856 49900 52005 87500 333 56400 84615 84640 99117=
0246896640876012017022608554-77850+166667FM-15+002499999V0200601N007710121919N009999199-01501-02201099021ADDGA1021+004571999GA2071+012191999GA3071+016761999GE19MSL   +99999+99999GF199999021999004571999999MA1098981098595MW1711OC101081REMMET109METAR NZCM 260855Z 06015G21KT 9999 -SN FEW015 BKN040 BKN055 M15/M22 A2923 RMK SNB0731 SLP902 FATA MORGANA NW=
0231896640876012017022609004-77850+166667FM-12+002499999V0200601N00771012001CN011000199-01511-02171099021ADDAY171021AY221021GA1021+004501061GA2031+012001061GE19MSL   +99999+99999GF107991021999004501999999MA1098975098591MD1310031+9999MW1711REMSYN08889664 41461 70615 11151 21217 39859 49902 53003 77172 87500 333 56400 82615 83640 99117=
0236896640876012017022611554-77850+166667FM-15+002499999V0200701N006710121919N009999199-01301-02301099041ADDGA1021+009141999GA2071+012191999GA3071+016761999GE19MSL   +99999+99999GF199999021999009141999999MA1098981098615MW1711REMMET107METAR NZCM 261155Z 07013KT 9999 -SN FEW030 BKN040 BKN055 M13/M23 A2923 RMK SNE15B37 SLP904 FATA MORGANA SE=
0314896640876012017022612004-77850+166667FM-12+002499999V0200701N00671012001CN011000199-01311-02301099041ADDAA106000021AL19900031AY171021AY271021GA1021+009001061GA2041+012001061GE19MSL   +99999+99999GF107991021999009001999999KA1240M-01261KA2240N-01631MA1098995098611MD1110021+9999MW1711REMSYN12489664 11561 70713 11131 21230 39861 49904 51002 69901 77177 87500 333 11126 21163 56400 58024 82630 84640 90915 93197 99113=
0188896640876012017022617554-77850+166667FM-15+002499999V0200701N004110091419N009999199-01301-02101098961ADDGA1071+009141999GA2081+015241999GE19MSL   +99999+99999GF199999071999009141999999MA1098921098535MW1711REMMET075METAR NZCM 261755Z 07008KT 9999 -SN BKN030 OVC050 M13/M21 A2921 RMK SLP896=
0242896640876012017022618004-77850+166667FM-12+002499999V0200701N004110090019N011000199-01291-02061098961ADDAA112000021AL19900031AY171021AY271021GA1061+009001061GE19MSL   +99999+99999GF108991061999009001999999MA1098915098531MD1710021+9999MW1711REMSYN09489664 11561 80708 11129 21206 39853 49896 57002 69902 77177 885// 333 56499 86630 90983 93197=
0165896640876012017022620554-77850+166667FM-15+002499999V0200101N004610152419N009999199-01201-02201098901ADDGA1071+015241999GE19MSL   +99999+99999GF199999071999015241999999MA1098851098485MW1711REMMET068METAR NZCM 262055Z 01009KT 9999 -SN BKN050 M12/M22 A2919 RMK SLP890=
0203896640876012017022621004-77850+166667FM-12+002499999V0200801N004610150019N011000199-01191-02211098901ADDAY171021AY271021GA1071+015001061GE19MSL   +99999+99999GF107991071999015001999999MA1098855098471MD1710061+9999MW1711REMSYN07689664 41761 70809 11119 21221 39847 49890 57006 77177 88500 333 56400 87650=
0165896640876012017022623554-77850+166667FM-15+002499999V0201101N004110213419N009999199-01301-02001098871ADDGA1071+021341999GE19MSL   +99999+99999GF199999071999021341999999MA1098811098445MW1711REMMET068METAR NZCM 262355Z 11008KT 9999 -SN BKN070 M13/M20 A2918 RMK SLP887=
0286896640876012017022700004-77850+166667FM-12+002499999V0201101N004110210019N011000199-01291-02001098871ADDAA118000021AL19900031AY171021AY271021GA1071+021001031GE19MSL   +99999+99999GF107991071999021001999999KA1120M-01161KA2120N-01381MA1098815098431MD1710041+9999MW1711REMSYN11289664 11861 71108 11129 21200 39843 49887 57004 69903 77177 87070 333 11116 21138 56040 59008 87357 90983 93197=
0207896640876012017022705554-77850+166667FM-15+002499999V0200501N003610213419N009999199-01101-02101098701ADDGA1041+012191999GA2071+021341999GE19MSL   +99999+99999GF199999041999012191999999MA1098651098285REMMET100METAR NZCM 270555Z 05007KT 9999 SCT040 BKN070 M11/M21 A2913 RMK SNE0300 SLP870 FATA MORGANA S AND W=
0193896640876012017022708554-77850+166667FM-15+002499999V0209999C000010106719N009999199-01001-02101098671ADDGA1071+010671999GE19MSL   +99999+99999GF199999071999010671999999MA1098611098255MW1711REMMET096METAR NZCM 270855Z 00000KT 9999 -SN BKN035 M10/M21 A2912 RMK SNB0750 SLP867 FATA MORGANA S-W-NW=
0227896640876012017022709004-77850+166667FM-12+002499999V0209999C000010105019N011000199-00991-02151098671ADDAY171021AY221021GA1071+010501061GE19MSL   +99999+99999GF107991071999010501999999MA1098615098231MD1710041+9999MW1711REMSYN10089664 41661 70000 11099 21215 39823 49867 57004 77172 87500 333 56400 87635 99114 99115 99116 99117=
0218896640876012017022711554-77850+166667FM-15+002499999V0209999C000010213419N009999199-01201-01701098631ADDGA1041+010671999GA2071+021341999GE19MSL   +99999+99999GF199999041999010671999999MA1098581098215REMMET111METAR NZCM 271155Z 00000KT 9999 SCT035 BKN070 M12/M17 A2911 RMK SNE1045 SLP863 SN DSNT NW FATA MORGANA S AND W=
0320896640876012017022712004-77850+166667FM-12+002499999V0209999C00001021001CN011000199-01181-01681098631ADDAA112000021AL19900031AY171021AY221021GA1031+010501061GA2041+021001031GE19MSL   +99999+99999GF106991031999010501999999KA1240M-00961KA2240N-01271MA1098585098201MD1710031+9999MW1151REMSYN13089664 11661 60000 11118 21168 39820 49863 57003 69902 71572 83570 333 11096 21127 56770 59041 83635 84357 90921 93197 99114 99116=
0178896640876012017022717554-77850+166667FM-15+002499999V0203301N002610213419N009999199-01001-01901098691ADDGA1041+010671999GA2071+021341999GE19MSL   +99999+99999GF199999041999010671999999MA1098651098275REMMET071METAR NZCM 271755Z 33005KT 9999 SCT035 BKN070 M10/M19 A2913 RMK SLP869=
0236896640876012017022718004-77850+166667FM-12+002499999V0203301N00261021001CN011000199-01021-01911098691ADDAA118000021AL19900031GA1031+010501061GA2041+021001031GE19MSL   +99999+99999GF106991031999010501999999MA1098655098271MD1310111+9999REMSYN09489664 12661 63305 11102 21191 39827 49869 53011 69903 83570 333 56440 83635 84357 90971 93197=
0178896640876012017022720554-77850+166667FM-15+002499999V0209999C000010213419N009999199-01101-02001098881ADDGA1021+010671999GA2071+021341999GE19MSL   +99999+99999GF199999021999010671999999MA1098811098465REMMET071METAR NZCM 272055Z 00000KT 9999 FEW035 BKN070 M11/M20 A2918 RMK SLP888=
0197896640876012017022721004-77850+166667FM-12+002499999V0209999C00001021001CN011000199-01121-01961098881ADDGA1011+010501061GA2051+021001031GE19MSL   +99999+99999GF106991011999010501999999MA1098835098451MD1210181+9999REMSYN07689664 42661 60000 11112 21196 39845 49888 52018 81570 333 56440 81635 85357=
0171896640876012017022723554-77850+166667FM-15+002499999V0209999C000019999999N009999199-00801-02001099121ADDGA1021+021341999GE19MSL   +99999+99999GF199999021999021341999999MA1099091098705REMMET080METAR NZCM 272355Z 00000KT 9999 FEW070 M08/M20 A2926 RMK SLP912 FATA MORGANA NW=
0264896640876012017022800004-77850+166667FM-12+002499999V0209999C000019999999N011000199-00771-02021099121ADDAA124000021AL19900031GA1021+021001031GE19MSL   +99999+99999GF102991021999021001999999KA1120M-00771KA2120N-01681MA1099085098701MD1210251+9999REMSYN11289664 12861 20000 11077 21202 39870 49912 52025 69904 82070 333 11077 21168 56040 58027 82357 90981 93197 99117=
0246896640876012017022805554-77850+166667FM-15+002499999V0201501N010810015219N000400199-01701-02001099811ADDGA1071+001521999GA2071+021341999GE19MSL   +99999+99999GF199999071999001521999999MA1099761099375MW1381OC101391OD149901541140REMMET111METAR NZCM 280555Z 15021G27KT 0400 BLSN BKN005 BKN070 M17/M20 A2946 RMK PK WND 14030/0359 VIS 0200V0600 SLP981=
0219896640876012017022806004-77850+166667FM-12+002499999V0201501N010810015019N000400199-01701-01971099811ADDAY131021AY211021GA1051+001501071GA2999+999999031GE19MSL   +99999+99999GF107991051999001501999999MA1099755099371MD1310381+9999MW1381REMSYN07689664 31204 71521 11170 21197 39937 49981 53038 73831 85670 333 56440 85705=
0258896640876012017022808554-77850+166667FM-15+002499999V0201501N012410000019N000400199-01801-02101100121ADDGA1071+000001999GA2071+015241999GE19MSL   +99999+99999GF199999071999000001999999MA1100071099685MW1381OC101751OD149902051140REMMET123METAR NZCM 280855Z 15024G34KT 0400 BLSN BKN000 BKN050 M18/M21 A2955 RMK PK WND 14040/0718 VIS 0200V0600 BLSN BKN000 SLP012=
0203896640876012017022809004-77850+166667FM-12+002499999V0201501N012919999999N000400199-01821-02111100121ADDAY131021AY231021GA1021+015001061GE19MSL   +99999+99999GF102991021999015001999999MA1100065099681MD1210311+9999MW1381REMSYN07689664 41704 21525 11182 21211 39968 40012 52031 73833 82500 333 56400 82650=
0262896640876012017022811554-77850+166667FM-15+002499999V0200601N008810091419N008000199-01701-02101100521ADDGA1021+000001999GA2081+009141999GE19MSL   +99999+99999GF199999021999000001999999MA1100471100085MW1381MW2711OC101131OD149902051150REMMET121METAR NZCM 281155Z 06017G22KT 8000 -SN BLSN FEW000 OVC030 M17/M21 A2967 RMK PK WND 15040/0942 SNB1005 BLSN FEW000 SLP052=
0188896640876012017022817554-77850+166667FM-15+002499999V0200901N003110182919N009999199-01301-02001100761ADDGA1021+012191999GA2071+018291999GE19MSL   +99999+99999GF199999021999012191999999MA1100711100335MW1711REMMET075METAR NZCM 281755Z 09006KT 9999 -SN FEW040 BKN060 M13/M20 A2974 RMK SLP076=
0264896640876012017022818004-77850+166667FM-12+002499999V0200901N003110180019N011000199-01331-01981100761ADDAA112000021AL19900031AY171021AY271021GA1021+012001061GA2071+018001061GE19MSL   +99999+99999GF107991021999012001999999MA1100705100321MD1110191+9999MW1711REMSYN10089664 11661 70906 11133 21198 30032 40076 51019 69902 77177 87500 333 56400 82640 87656 90973 93197=
0209896640876012017022820554-77850+166667FM-15+002499999V0200601N00461018291CN009999199-01301-02001100871ADDGA1021+012191999GA2041+018291999GA3071+045721999GE19MSL   +99999+99999GF199999021999012191999999MA1100811100445REMMET086METAR NZCM 282055Z 06009KT 9999 FEW040 SCT060 BKN150 M13/M20 A2977 RMK SNE1930 SLP087=
0225896640876012017022821004-77850+166667FM-12+002499999V0200601N004619999999N011000199-01271-01971100871ADDAY171021AY221021GA1011+012001061GA2041+018001061GE19MSL   +99999+99999GF106991011999012001999999MA1100805100421MD1210101+9999MW1011REMSYN08289664 41661 60609 11127 21197 30042 40087 52010 70172 84530 333 56440 81640 84656=
0201896640876012017022823554-77850+166667FM-15+002499999V0200801N00511045721CN009999199-01301-01901100971ADDGA1021+021341999GA2041+045721999GA3071+054861999GE19MSL   +99999+99999GF199999021999021341999999MA1100912100545REMMET078METAR NZCM 282355Z 08010KT 9999 FEW070 SCT150 BKN180 M13/M19 A2980 RMK SLP097=
0330896640876012017030100004-77850+166667FM-12+002499999V0200801N005110540019N011000199-01271-01901100971ADDAA118000021AL19900031AY171021AY221021GA1011+021001031GA2031+045001031GA3061+054001001GE19MSL   +99999+99999GF106991011999021001999999KA1120M-01211KA2120N-01731MA1999999100531MD1210111+9999MW1011REMSYN12489664 11861 60810 11127 21190 30053 40097 52011 69903 70172 83072 333 11121 21173 56044 58183 81357 83365 86068 90953 93197=
0201896640876012017030105554-77850+166667FM-15+002499999V0209999C000010365819N009999199-01001-01701101031ADDGA1021+015241999GA2071+036581999GA3071+045721999GE19MSL   +99999+99999GF199999021999015241999999MA1100912100605REMMET078METAR NZCM 010555Z 00000KT 9999 FEW050 BKN120 BKN150 M10/M17 A2980 RMK SLP103=
0213896640876012017030106004-77850+166667FM-12+002499999V0209999C00001036001CN011000199-01051-01741101031ADDGA1011+015001061GA2051+036001031GA3999+999999001GE19MSL   +99999+99999GF106991011999015001999999MA1999999100591MD1310081+9999REMSYN07689664 32761 60000 11105 21174 30059 40103 53008 81572 333 56444 81650 85362=
0220896640876012017030108554-77850+166667FM-15+002499999V0201001N002610365819N009999199-01001-01901101091ADDGA1041+016761999GA2071+036581999GA3071+045721999GE19MSL   +99999+99999GF199999041999016761999999MA1101022100665REMMET097METAR NZCM 010855Z 10005KT 9999 SCT055 BKN120 BKN150 M10/M19 A2983 RMK SLP109 FATA MORGANA SW-NW=
0225896640876012017030109004-77850+166667FM-12+002499999V0201001N002619999999N011000199-01041-01931101091ADDGA1031+015001061GA2999+999999031GA3999+999999001GE19MSL   +99999+99999GF106991031999015001999999MA1999999100651MD1110061+9999REMSYN08889664 42761 61005 11104 21193 30065 40109 51006 83572 333 56344 83650 99115 99116 99117=
0201896640876012017030111554-77850+166667FM-15+002499999V0209999C00001016761CN009999199-01201-01901101101ADDGA1021+010671999GA2041+016761999GA3041+036581999GE19MSL   +99999+99999GF199999021999010671999999MA1101052100675REMMET078METAR NZCM 011155Z 00000KT 9999 FEW035 SCT055 SCT120 M12/M19 A2984 RMK SLP110=
0241896640876012017030112004-77850+166667FM-12+002499999V0209999C000019999999N011000199-01171-01941101101ADDGA1011+010501061GA2031+015001061GE19MSL   +99999+99999GF103991011999010501999999KA1240M-00921KA2240N-01391MA1999999100661MD1110011+9999REMSYN09489664 32661 30000 11117 21194 30066 40110 51001 83570 333 11092 21139 56340 58058 81635 83650=
0155896640876012017030117554-77850+166667FM-15+002499999V0200801N003119999999N009999199-01201-01901101111ADDGA1041+021341999GE19MSL   +99999+99999GF199999041999021341999999MA1101052100685REMMET064METAR NZCM 011755Z 08006KT 9999 SCT070 M12/M19 A2984 RMK SLP111=
0175896640876012017030118004-77850+166667FM-12+002499999V0200801N003119999999N011000199-01231-01931101111ADDGA1031+021001031GE19MSL   +99999+99999GF103991031999021001999999MA1999999100661MD1990001+9999REMSYN07089664 32861 30806 11123 21193 30066 40111 50000 83030 333 56050 83357=
0178896640876012017030120554-77850+166667FM-15+002499999V0200601N005119999999N009999199-01201-02001101051ADDGA1021+021341999GA2021+054861999GE19MSL   +99999+99999GF199999021999021341999999MA1100982100625REMMET071METAR NZCM 012055Z 06010KT 9999 FEW070 FEW180 M12/M20 A2982 RMK SLP105=
0191896640876012017030121004-77850+166667FM-12+002499999V0200601N005119999999N011000199-01161-02041101051ADDGA1021+021001031GA2999+999999001GE19MSL   +99999+99999GF102991021999021001999999MA1999999100611MD1610051+9999REMSYN07089664 42861 20610 11116 21204 30061 40105 56005 82031 333 56055 82357=
0178896640876012017030123554-77850+166667FM-15+002499999V0200501N003619999999N009999199-01001-02101100961ADDGA1021+012191999GA2021+054861999GE19MSL   +99999+99999GF199999021999012191999999MA1100912100535REMMET071METAR NZCM 012355Z 05007KT 9999 FEW040 FEW180 M10/M21 A2980 RMK SLP096=
0235896640876012017030200004-77850+166667FM-12+002499999V0200501N003619999999N011000199-01041-02121100961ADDGA1011+012001061GA2999+999999001GE19MSL   +99999+99999GF102991011999012001999999KA1120M-01011KA2120N-01401MA1999999100521MD1610091+9999REMSYN08889664 32661 20507 11104 21212 30052 40096 56009 81501 333 11101 21140 56505 59001 81640=
0166896640876012017030205554-77850+166667FM-15+002499999V0200701N010310100619N009999199-01501-02401100671ADDGA1071+010061999GE19MSL   +99999+99999GF199999071999010061999999MA1100612100235OC101341REMMET067METAR NZCM 020555Z 07020G26KT 9999 BKN033 M15/M24 A2971 RMK SLP067=
0175896640876012017030206004-77850+166667FM-12+002499999V0200701N010310099019N011000199-01521-02451100671ADDGA1061+009901061GE19MSL   +99999+99999GF106991061999009901999999MA1999999100231MD1710121+9999REMSYN07089664 32661 60720 11152 21245 30023 40067 57012 86500 333 56800 86633=
0189896640876012017030208554-77850+166667FM-15+002499999V0200701N008210091419N009999199-01601-02401100541ADDGA1021+004571999GA2071+009141999GE19MSL   +99999+99999GF199999021999004571999999MA1100512100105OC101131REMMET074METAR NZCM 020855Z 07016G22KT 9999 FEW015 BKN030 M16/M24 A2968 RMK SLP054=
0197896640876012017030209004-77850+166667FM-12+002499999V0200701N00821009001CN011000199-01571-02451100541ADDGA1011+004501061GA2071+009001061GE19MSL   +99999+99999GF107991011999004501999999MA1999999100101MD1710131+9999REMSYN07689664 42461 70716 11157 21245 30010 40054 57013 87500 333 56800 81615 87630=
0228896640876012017030211554-77850+166667FM-15+002499999V0200801N008210091419N009999199-01601-02401100421ADDGA1021+004571999GA2071+009141999GA3071+012191999GE19MSL   +99999+99999GF199999021999004571999999MA1100372099985OC101241REMMET097METAR NZCM 021155Z 08016G24KT 9999 FEW015 BKN030 BKN040 M16/M24 A2964 RMK PK WND 09026/32 SLP042=
0241896640876012017030212004-77850+166667FM-12+002499999V0200801N00821009001CN011000199-01631-02371100421ADDGA1011+004501061GA2061+009001061GE19MSL   +99999+99999GF107991011999004501999999KA1240M-01091KA2240N-01641MA1999999099981MD1710121+9999REMSYN09489664 32461 70816 11163 21237 39998 40042 57012 87500 333 11109 21164 56800 59068 81615 86630=
0189896640876012017030217554-77850+166667FM-15+002499999V0200801N009810100619N009999199-01801-02401100391ADDGA1071+010061999GA2081+013721999GE19MSL   +99999+99999GF199999071999010061999999MA1100342099955OC101391REMMET074METAR NZCM 021755Z 08019G27KT 9999 BKN033 OVC045 M18/M24 A2963 RMK SLP039=
0175896640876012017030218004-77850+166667FM-12+002499999V0200801N009810099019N011000199-01791-02401100391ADDGA1061+009901061GE19MSL   +99999+99999GF108991061999009901999999MA1999999099941MD1310011+9999REMSYN07089664 32661 80819 11179 21240 39994 40039 53001 885// 333 56800 86633=
0207896640876012017030220554-77850+166667FM-15+002499999V0200601N009810100619N009999199-01801-02501100371ADDGA1071+010061999GA2081+013721999GE19MSL   +99999+99999GF199999071999010061999999MA1100302099935MW1711OC101441REMMET086METAR NZCM 022055Z 06019G28KT 9999 -SN BKN033 OVC045 M18/M25 A2962 RMK SNB2030 SLP037=
0203896640876012017030221004-77850+166667FM-12+002499999V0200601N009810099019N011000199-01791-02501100371ADDAY121021AY221021GA1061+009901061GE19MSL   +99999+99999GF108991061999009901999999MA1999999099921MD1610021+9999MW1711REMSYN07689664 41661 80619 11179 21250 39992 40037 56002 77122 885// 333 56899 86633=
0194896640876012017030223554-77850+166667FM-15+002499999V0200701N008810100619N009999199-01801-02501100421ADDGA1081+010061999GE19MSL   +99999+99999GF199999081999010061999999MA1100372099985MW1711OC101341REMMET089METAR NZCM 022355Z 07017G26KT 9999 -SN OVC033 M18/M25 A2964 RMK PK WND 06030/2259 SLP042=
0286896640876012017030300004-77850+166667FM-12+002499999V0200701N008810099019N011000199-01781-02531100421ADDAA106000021AL19900031AY171021AY221021GA1081+009901061GE19MSL   +99999+99999GF108991081999009901999999KA1120M-01631KA2120N-01831MA1999999099971MD1110051+9999MW1711REMSYN11289664 11661 80717 11178 21253 39997 40042 51005 69901 77172 885// 333 11163 21183 56899 59055 88633 90942 93197=
0220896640876012017030305554-77850+166667FM-15+002499999V0200601N006710106719N004800199-01701-02101100361ADDGA1021+003051999GA2081+010671999GE19MSL   +99999+99999GF199999021999003051999999MA1100302099925MW1711OD149901331060REMMET093METAR NZCM 030555Z 06013KT 4800 -SN FEW010 OVC035 M17/M21 A2962 RMK PK WND 06026/0007 SLP036=
0264896640876012017030306004-77850+166667FM-12+002499999V0200601N006710105019N004800199-01701-02071100361ADDAA106000331AL19900131AY171021AY271021GA1011+003001071GA2081+010501061GE19MSL   +99999+99999GF108991011999003001999999MA1999999099911MD1610071+9999MW1711REMSYN10089664 11448 80613 11170 21207 39991 40036 56007 69931 77177 885// 333 56899 81710 88635 90973 93101=
0165896640876012017030308554-77850+166667FM-15+002499999V0209999V002610152419N009000199-01601-02101100341ADDGA1081+015241999GE19MSL   +99999+99999GF199999081999015241999999MA1100272099905MW1711REMMET068METAR NZCM 030855Z VRB05KT 9000 -SN OVC050 M16/M21 A2961 RMK SLP034=
0203896640876012017030309004-77850+166667FM-12+002499999V0209999V002610150019N009000199-01601-02111100341ADDAY171021AY271021GA1081+015001061GE19MSL   +99999+99999GF108991081999015001999999MA1999999099891MD1610021+9999MW1711REMSYN07689664 41759 89905 11160 21211 39989 40034 56002 77177 885// 333 56899 88650=
0185896640876012017030311554-77850+166667FM-15+002499999V0201201N002610137219N008000199-01501-02101100271ADDGA1081+013721999GE19MSL   +99999+99999GF199999081999013721999999MA1100201099835MW1101MW2711REMMET082METAR NZCM 031155Z 12005KT 8000 -SN BR OVC045 M15/M21 A2959 RMK SNE1025B04 SLP027=
0186896640876012017030317554-77850+166667FM-15+002499999V0200901N004610548619N009999199-01501-02101100171ADDGA1021+018291999GA2071+054861999GE19MSL   +99999+99999GF199999021999018291999999MA1100101099745REMMET079METAR NZCM 031755Z 09009KT 9999 FEW060 BKN180 M15/M21 A2956 RMK SNE1600 SLP017=
0264896640876012017030318004-77850+166667FM-12+002499999V0200901N00461054001CN011000199-01461-02061100171ADDAA118000531AL19900131AY171021AY221021GA1011+018001061GA2051+054001001GE19MSL   +99999+99999GF105991011999018001999999MA1100115099731MD1610041+9999MW1021REMSYN10089664 11761 50909 11146 21206 39973 40017 56004 69953 70272 81502 333 56808 81656 85068 90922 93101=
0178896640876012017030320554-77850+166667FM-15+002499999V0209999C00001054861CN009999199-01701-02301100171ADDGA1021+018291999GA2041+054861999GE19MSL   +99999+99999GF199999021999018291999999MA1100101099735REMMET071METAR NZCM 032055Z 00000KT 9999 FEW060 SCT180 M17/M23 A2956 RMK SLP017=
0197896640876012017030321004-77850+166667FM-12+002499999V0209999C000019999999N011000199-01731-02261100171ADDGA1011+018001061GA2031+054001001GE19MSL   +99999+99999GF103991011999018001999999MA1100115099731MD1410001+9999REMSYN07689664 42761 30000 11173 21226 39973 40017 54000 81502 333 56808 81656 83068=
0155896640876012017030323554-77850+166667FM-15+002499999V0200801N003119999999N009999199-01301-02101100141ADDGA1021+021341999GE19MSL   +99999+99999GF199999021999021341999999MA1100101099715REMMET064METAR NZCM 032355Z 08006KT 9999 FEW070 M13/M21 A2956 RMK SLP014=
0258896640876012017030400004-77850+166667FM-12+002499999V0200801N003119999999N011000199-01291-02081100141ADDAA124000531AL19900231GA1011+021001031GE19MSL   +99999+99999GF101991011999021001999999KA1120M-01271KA2120N-01781MA1100085099701MD1610031+9999REMSYN10689664 12861 10806 11129 21208 39970 40014 56003 69954 81070 333 11127 21178 56080 59027 81357 90977 93102=
0155896640876012017030405554-77850+166667FM-15+002499999V0200401N006719999999N009999199-01401-02001099991ADDGA1021+030481999GE19MSL   +99999+99999GF199999021999030481999999MA1099931099565REMMET064METAR NZCM 040555Z 04013KT 9999 FEW100 M14/M20 A2951 RMK SLP999=
0175896640876012017030406004-77850+166667FM-12+002499999V0200401N006719999999N011000199-01421-01991099991ADDGA1011+030001031GE19MSL   +99999+99999GF101991011999030001999999MA1099935099551MD1510061+9999REMSYN07089664 32961 10413 11142 21199 39955 49999 55006 81070 333 56080 81360=
0178896640876012017030408554-77850+166667FM-15+002499999V0200501N00361024381CN009999199-01401-02001099961ADDGA1021+015241999GA2041+024381999GE19MSL   +99999+99999GF199999021999015241999999MA1099901099535REMMET071METAR NZCM 040855Z 05007KT 9999 FEW050 SCT080 M14/M20 A2950 RMK SLP996=
0197896640876012017030409004-77850+166667FM-12+002499999V0200501N003619999999N011000199-01381-02011099961ADDGA1011+015001061GA2031+024001031GE19MSL   +99999+99999GF104991011999015001999999MA1099915099531MD1610021+9999REMSYN07689664 42761 40507 11138 21201 39953 49996 56002 81570 333 56880 81650 83358=
0189896640876012017030411554-77850+166667FM-15+002499999V0200601N005110121919N009999199-01401-02001100001ADDGA1071+012191999GA2071+024381999GE19MSL   +99999+99999GF199999071999012191999999MA1099931099575OC100821REMMET074METAR NZCM 041155Z 06010G16KT 9999 BKN040 BKN080 M14/M20 A2951 RMK SLP000=
0235896640876012017030412004-77850+166667FM-12+002499999V0200601N005110120019N011000199-01451-02031100001ADDGA1051+012001061GA2999+999999031GE19MSL   +99999+99999GF106991051999012001999999KA1240M-01301KA2240N-01521MA1099945099561MD1110031+9999REMSYN08889664 32661 60610 11145 21203 39956 40000 51003 85570 333 11130 21152 56880 59027 85640=
0155896640876012017030417554-77850+166667FM-15+002499999V0200701N007210243819N009999199-01601-02001100421ADDGA1071+024381999GE19MSL   +99999+99999GF199999071999024381999999MA1100371099985REMMET064METAR NZCM 041755Z 07014KT 9999 BKN080 M16/M20 A2964 RMK SLP042=
0175896640876012017030418004-77850+166667FM-12+002499999V0200701N007210240019N011000199-01641-02021100421ADDGA1061+024001031GE19MSL   +99999+99999GF106991061999024001999999MA1100365099981MD1310251+9999REMSYN07089664 32861 60714 11164 21202 39998 40042 53025 86070 333 56080 86358=
0155896640876012017030420554-77850+166667FM-15+002499999V0200901N004610213419N009999199-01701-02101100761ADDGA1071+021341999GE19MSL   +99999+99999GF199999071999021341999999MA1100711100325REMMET064METAR NZCM 042055Z 09009KT 9999 BKN070 M17/M21 A2974 RMK SLP076=
0175896640876012017030421004-77850+166667FM-12+002499999V0200901N004610210019N011000199-01711-02081100761ADDGA1071+021001031GE19MSL   +99999+99999GF107991071999021001999999MA1100705100321MD1210341+9999REMSYN07089664 42861 70909 11171 21208 30032 40076 52034 87070 333 56080 87357=
0189896640876012017030423554-77850+166667FM-15+002499999V0200601N008210274319N009999199-01701-02101100971ADDGA1041+021341999GA2071+027431999GE19MSL   +99999+99999GF199999041999021341999999MA1100911100535OC101131REMMET074METAR NZCM 042355Z 06016G22KT 9999 SCT070 BKN090 M17/M21 A2980 RMK SLP097=
0241896640876012017030500004-77850+166667FM-12+002499999V0200601N008210270019N011000199-01661-02071100971ADDGA1041+021001031GA2071+027001031GE19MSL   +99999+99999GF107991041999021001999999KA1120M-01441KA2120N-01981MA1100915100531MD1210211+9999REMSYN09489664 32861 70616 11166 21207 30053 40097 52021 87070 333 11144 21198 56080 58083 84357 87359=
0178896640876012017030505554-77850+166667FM-15+002499999V0200701N003619999999N009999199-01401-02201101221ADDGA1021+009141999GA2021+027431999GE19MSL   +99999+99999GF199999021999009141999999MA1101152100785REMMET071METAR NZCM 050555Z 07007KT 9999 FEW030 FEW090 M14/M22 A2987 RMK SLP122=
0191896640876012017030506004-77850+166667FM-12+002499999V0200701N003619999999N011000199-01411-02161101221ADDGA1011+009001061GA2999+999999031GE19MSL   +99999+99999GF102991011999009001999999MA1999999100781MD1110091+9999REMSYN07089664 32561 20707 11141 21216 30078 40122 51009 81570 333 56880 81630=
0224896640876012017030508554-77850+166667FM-15+002499999V0200601N00771027431CN009999199-01601-02101101261ADDGA1021+004571999GA2021+009141999GA3021+027431999GE19MSL   +99999+99999GF199999021999004571999999MA1101182100825REMMET101METAR NZCM 050855Z 06015KT 9999 FEW015 FEW030 FEW090 M16/M21 A2988 RMK PK WND 06026/10 CCSL W SLP126=
0201896640876012017030509004-77850+166667FM-12+002499999V0201101N029329999999N011000199+99999-02101101261ADDGA1011+004501061GA2999+999999031GA3999+999999011GE19MSL   +99999+99999GF101991011999004501999999MA1999999100811MD1210031+9999REMSYN06489664 42461 11157 21210 30081 40126 52003 81579 333 56880 81615=
0208896640876012017030511554-77850+166667FM-15+002499999V0200501N00571042671CN009999199-01401-02101101211ADDGA1021+004571999GA2021+027431999GA3021+042671999GE19MSL   +99999+99999GF199999021999004571999999MA1101152100775REMMET085METAR NZCM 051155Z 05011KT 9999 FEW015 FEW090 FEW140 M14/M21 A2987 RMK CCSL W SLP121=
0251896640876012017030512004-77850+166667FM-12+002499999V0200501N005719999999N011000199-01391-02101101211ADDGA1011+004501061GA2999+999999031GA3999+999999011GE19MSL   +99999+99999GF101991011999004501999999KA1240M-01341KA2240N-01631MA1999999100761MD1610051+9999REMSYN08889664 32461 10511 11139 21210 30076 40121 56005 81579 333 11134 21163 56880 58120 81615=
0155896640876012017030517554-77850+166667FM-15+002499999V0209999C000019999999N009999199-01701-02301100111ADDGA1021+021341999GE19MSL   +99999+99999GF199999021999021341999999MA1101051099675REMMET064METAR NZCM 051755Z 00000KT 9999 FEW070 M17/M23 A2984 RMK SLP011=
0175896640876012017030518004-77850+166667FM-12+002499999V0209999C000019999999N011000199-01681-02271101112ADDGA1011+021001031GE19MSL   +99999+99999GF101991011999021001999999MA1101055100672MD1710041+9999REMSYN07089664 32861 10000 11168 21227 30067 40111 57004 81070 333 56080 81357=
0178896640876012017030520554-77850+166667FM-15+002499999V0209999C000019999999N009999199-01401-02201101062ADDGA1021+021341999GA2021+054861999GE19MSL   +99999+99999GF199999021999021341999999MA1101021100626REMMET071METAR NZCM 052055Z 00000KT 9999 FEW070 FEW180 M14/M22 A2983 RMK SLP106=
0191896640876012017030521004-77850+166667FM-12+002499999V0209999C000019999999N011000199-01421-02171101061ADDGA1011+021001031GA2999+999999001GE19MSL   +99999+99999GF102991011999021001999999MA1100995100611MD1710061+9999REMSYN07089664 42861 20000 11142 21217 30061 40106 57006 81032 333 56088 81357=
0155896640876012017030523554-77850+166667FM-15+002499999V0209999C000019999999N009999199-01101-02201100971ADDGA1021+021341999GE19MSL   +99999+99999GF199999021999021341999999MA1100911100545REMMET064METAR NZCM 052355Z 00000KT 9999 FEW070 M11/M22 A2980 RMK SLP097=
0219896640876012017030600004-77850+166667FM-12+002499999V0209999C000019999999N011000199-01071-02241100971ADDGA1011+021001031GE19MSL   +99999+99999GF101991011999021001999999KA1120M-00941KA2120N-02131MA1100915100531MD1710081+9999REMSYN08889664 32861 10000 11107 21224 30053 40097 57008 81030 333 11094 21213 56080 58000 81357=
0198896640876012017030605554-77850+166667FM-15+002499999V0209999V002119999999N009999199-00901-02201100751ADDGA1021+021341999GA2021+045721999GE19MSL   +99999+99999GF199999021999021341999999MA1100681100325REMMET091METAR NZCM 060555Z VRB04KT 9999 FEW070 FEW150 M09/M22 A2973 RMK SLP075 FATA MORGANA SE-S-W=
0215896640876012017030606004-77850+166667FM-12+002499999V0209999V002119999999N011000199-00951-02191100751ADDGA1011+021001031GA2999+999999001GE19MSL   +99999+99999GF101991011999021001999999MA1100685100301MD1610111+9999REMSYN09489664 32861 19904 11095 21219 30030 40075 56011 81032 333 56088 81357 99113 99114 99115 99116=
0178896640876012017030608554-77850+166667FM-15+002499999V0200601N00211045721CN009999199-01101-02001100681ADDGA1021+021341999GA2041+045721999GE19MSL   +99999+99999GF199999021999021341999999MA1100641100255REMMET071METAR NZCM 060855Z 06004KT 9999 FEW070 SCT150 M11/M20 A2972 RMK SLP068=
0197896640876012017030609004-77850+166667FM-12+002499999V0200601N002119999999N011000199-01131-01971100681ADDGA1011+021001031GA2041+045001011GE19MSL   +99999+99999GF104991011999021001999999MA1100625100241MD1710061+9999REMSYN07689664 42861 40604 11113 21197 30024 40068 57006 81079 333 56088 81357 84165=
0155896640876012017030611554-77850+166667FM-15+002499999V0200801N002619999999N009999199-01301-01901100601ADDGA1041+045721999GE19MSL   +99999+99999GF199999041999045721999999MA1100541100175REMMET064METAR NZCM 061155Z 08005KT 9999 SCT150 M13/M19 A2969 RMK SLP060=
0219896640876012017030612004-77850+166667FM-12+002499999V0200801N002619999999N011000199-01281-01951100601ADDGA1041+045001011GE19MSL   +99999+99999GF104991041999045001999999KA1240M-00901KA2240N-01381MA1100545100161MD1710081+9999REMSYN08889664 32961 40805 11128 21195 30016 40060 57008 80009 333 11090 21138 56008 59060 84165=
0155896640876012017030617554-77850+166667FM-15+002499999V0209999C000010335319N009999199-01101-01801100481ADDGA1071+033531999GE19MSL   +99999+99999GF199999071999033531999999MA1100441100055REMMET064METAR NZCM 061755Z 00000KT 9999 BKN110 M11/M18 A2966 RMK SLP048=
0175896640876012017030618004-77850+166667FM-12+002499999V0209999C000010330019N011000199-01111-01821100481ADDGA1061+033001031GE19MSL   +99999+99999GF106991061999033001999999MA1100425100041MD1610071+9999REMSYN07089664 32961 60000 11111 21182 30004 40048 56007 86070 333 56020 86361=
0178896640876012017030620554-77850+166667FM-15+002499999V0209999C000010335319N009999199-01101-01801100431ADDGA1041+027431999GA2071+033531999GE19MSL   +99999+99999GF199999041999027431999999MA1100371100005REMMET071METAR NZCM 062055Z 00000KT 9999 SCT090 BKN110 M11/M18 A2964 RMK SLP043=
0197896640876012017030621004-77850+166667FM-12+002499999V0209999C000010330019N011000199-01081-01811100431ADDGA1041+027001031GA2071+033001031GE19MSL   +99999+99999GF107991041999027001999999MA1100375099991MD1610051+9999REMSYN07689664 42961 70000 11108 21181 39999 40043 56005 87070 333 56020 84359 87361=
0178896640876012017030623554-77850+166667FM-15+002499999V0209999C000010304819N009999199-01101-01701100391ADDGA1041+024381999GA2071+030481999GE19MSL   +99999+99999GF199999041999024381999999MA1100341099965REMMET071METAR NZCM 062355Z 00000KT 9999 SCT080 BKN100 M11/M17 A2963 RMK SLP039=
0241896640876012017030700004-77850+166667FM-12+002499999V0209999C000010300019N011000199-01131-01681100391ADDGA1041+024001031GA2071+030001031GE19MSL   +99999+99999GF107991041999024001999999KA1120M-00981KA2120N-01361MA1100345099961MD1610031+9999REMSYN09489664 32861 70000 11113 21168 39996 40039 56003 87070 333 11098 21136 56020 59057 84358 87360=
0193896640876012017030705554-77850+166667FM-15+002499999V0203101N002610289619N009999199-00901-01601100191ADDGA1041+019811999GA2071+028961999GE19MSL   +99999+99999GF199999041999019811999999MA1100141099775REMMET086METAR NZCM 070555Z 31005KT 9999 SCT065 BKN095 M09/M16 A2957 RMK SLP019 FATA MORGANA W=
0203896640876012017030706004-77850+166667FM-12+002499999V0203101N00261027001CN011000199-00881-01651100191ADDGA1031+018001061GA2041+027001031GE19MSL   +99999+99999GF107991031999018001999999MA1100155099771MD1810111+9999REMSYN08289664 32761 73105 11088 21165 39977 40019 58011 83570 333 56220 83656 84359 99116=
0201896640876012017030708554-77850+166667FM-15+002499999V0203401N00511030481CN009999199-00801-01401100091ADDGA1021+015241999GA2041+030481999GA3071+036581999GE19MSL   +99999+99999GF199999021999015241999999MA1100031099675REMMET078METAR NZCM 070855Z 34010KT 9999 FEW050 SCT100 BKN120 M08/M14 A2954 RMK SLP009=
0213896640876012017030709004-77850+166667FM-12+002499999V0203401N00511030001CN011000199-00811-01371100091ADDGA1021+015001061GA2031+030001031GA3999+999999021GE19MSL   +99999+99999GF105991021999015001999999MA1100045099661MD1710111+9999REMSYN07689664 42761 53410 11081 21137 39966 40009 57011 82578 333 56822 82650 83360=
0201896640876012017030711554-77850+166667FM-15+002499999V0203101N00361036581CN009999199-01101-01401100011ADDGA1021+006101999GA2021+030481999GA3041+036581999GE19MSL   +99999+99999GF199999021999006101999999MA1099971099585REMMET078METAR NZCM 071155Z 31007KT 9999 FEW020 FEW100 SCT120 M11/M14 A2952 RMK SLP001=
0251896640876012017030712004-77850+166667FM-12+002499999V0203101N003619999999N011000199-01091-01431100011ADDGA1011+006001061GA2999+999999031GA3999+999999021GE19MSL   +99999+99999GF103991011999006001999999KA1240M-00781KA2240N-01561MA1099965099581MD1710081+9999REMSYN08889664 32561 33107 11109 21143 39958 40001 57008 81578 333 11078 21156 56822 59058 81620=
0155896640876012017030717554-77850+166667FM-15+002499999V0209999C000010061019N009999199-01101-01501099801ADDGA1071+006101999GE19MSL   +99999+99999GF199999071999006101999999MA1099761099375REMMET064METAR NZCM 071755Z 00000KT 9999 BKN020 M11/M15 A2946 RMK SLP980=
0175896640876012017030718004-77850+166667FM-12+002499999V0209999C000010060019N011000199-01081-01491099801ADDGA1061+006001061GE19MSL   +99999+99999GF106991061999006001999999MA1099755099371MD1610121+9999REMSYN07089664 32561 60000 11108 21149 39937 49980 56012 86500 333 56800 86620=
0155896640876012017030720554-77850+166667FM-15+002499999V0209999C000019999999N009999199-00801-01301099741ADDGA1041+006101999GE19MSL   +99999+99999GF199999041999006101999999MA1099691099325REMMET064METAR NZCM 072055Z 00000KT 9999 SCT020 M08/M13 A2944 RMK SLP974=
0175896640876012017030721004-77850+166667FM-12+002499999V0209999C000019999999N011000199-00831-01281099741ADDGA1041+006001061GE19MSL   +99999+99999GF104991041999006001999999MA1099705099321MD1610051+9999REMSYN07089664 42561 40000 11083 21128 39932 49974 56005 84500 333 56700 84620=
0155896640876012017030723554-77850+166667FM-15+002499999V0209999V002610051819N009999199-00901-01401099741ADDGA1071+005181999GE19MSL   +99999+99999GF199999071999005181999999MA1099691099325REMMET064METAR NZCM 072355Z VRB05KT 9999 BKN017 M09/M14 A2944 RMK SLP974=
0219896640876012017030800004-77850+166667FM-12+002499999V0209999V002610051019N011000199-00881-01371099741ADDGA1051+005101061GE19MSL   +99999+99999GF105991051999005101999999KA1120M-00451KA2120N-01231MA1099705099321MD1410001+9999REMSYN08889664 32461 59905 11088 21137 39932 49974 54000 85500 333 11045 21123 56700 59064 85617=
0216896640876012017030805554-77850+166667FM-15+002499999V0209999C00001024381CN009999199-00701-01101099521ADDGA1021+006101999GA2041+024381999GA3071+045721999GE19MSL   +99999+99999GF199999021999006101999999MA1099491099105REMMET093METAR NZCM 080555Z 00000KT 9999 FEW020 SCT080 BKN150 M07/M11 A2938 RMK SLP952 FATA MORGANA W=
0219896640876012017030806004-77850+166667FM-12+002499999V0209999C000019999999N011000199-00711-01131099521ADDGA1011+006001061GA2041+024001031GA3999+999999001GE19MSL   +99999+99999GF105991011999006001999999MA1099485099101MD1610131+9999REMSYN08289664 32561 50000 11071 21113 39910 49952 56013 81572 333 56777 81620 84358 99116=
0155896640876012017030808554-77850+166667FM-15+002499999V0209999C000019999999N009999199-00901-01301099511ADDGA1021+024381999GE19MSL   +99999+99999GF199999021999024381999999MA1099461099095REMMET064METAR NZCM 080855Z 00000KT 9999 FEW080 M09/M13 A2937 RMK SLP951=
0175896640876012017030809004-77850+166667FM-12+002499999V0209999C000019999999N011000199-00891-01301099511ADDGA1011+024001031GE19MSL   +99999+99999GF101991011999024001999999MA1099465099081MD1610021+9999REMSYN07089664 42861 10000 11089 21130 39908 49951 56002 81070 333 56070 81358=
0155896640876012017030811554-77850+166667FM-15+002499999V0200601N003119999999N009999199-00801-01401099431ADDGA1021+024381999GE19MSL   +99999+99999GF199999021999024381999999MA1099391099015REMMET064METAR NZCM 081155Z 06006KT 9999 FEW080 M08/M14 A2935 RMK SLP943=
0219896640876012017030812004-77850+166667FM-12+002499999V0200601N003119999999N011000199-00851-01441099431ADDGA1011+024001031GE19MSL   +99999+99999GF101991011999024001999999KA1240M-00591KA2240N-00991MA1099395099011MD1610071+9999REMSYN08889664 32861 10606 11085 21144 39901 49943 56007 81070 333 11059 21099 56070 59057 81358=
0170896640876012017030817554-77850+166667FM-15+002499999V0200801N007219999999N009999199-01201-01401099241ADDGA1021+008841999GE19MSL   +99999+99999GF199999021999008841999999MA1099191098815REMMET079METAR NZCM 081755Z 08014KT 9999 FEW029 M12/M14 A2929 RMK SLP924 FG BNK DSNT SE=
0203896640876012017030818004-77850+166667FM-12+002499999V0200801N007219999999N011000199-01181-01441099241ADDAY101021AY201021GA1011+008701061GE19MSL   +99999+99999GF101991011999008701999999MA1099195098811MD1810071+9999MW1401REMSYN07689664 31561 10814 11118 21144 39881 49924 58007 74000 81500 333 56700 81629=
0166896640876012017030820554-77850+166667FM-15+002499999V0200901N010319999999N009999199-01401-01901099201ADDGA1041+008531999GE19MSL   +99999+99999GF199999041999008531999999MA1099151098775OC101341REMMET067METAR NZCM 082055Z 09020G26KT 9999 SCT028 M14/M19 A2928 RMK SLP920=
0175896640876012017030821004-77850+166667FM-12+002499999V0200901N010319999999N011000199-01361-01931099201ADDGA1031+008401061GE19MSL   +99999+99999GF103991031999008401999999MA1099155098771MD1610041+9999REMSYN07089664 42561 30920 11136 21193 39877 49920 56004 83500 333 56700 83628=
0182896640876012017030823554-77850+166667FM-15+002499999V0200601N010319999999N009999199-01301-02201099131ADDGA1041+008231999GE19MSL   +99999+99999GF199999041999008231999999MA1099091098705OC101341REMMET083METAR NZCM 082355Z 06020G26KT 9999 SCT027 M13/M22 A2926 RMK PK WND 06027/39 SLP913=
0219896640876012017030900004-77850+166667FM-12+002499999V0200601N010319999999N011000199-01131-02181099131ADDGA1031+008101061GE19MSL   +99999+99999GF103991031999008101999999KA1120M-00841KA2120N-01391MA1099075098691MD1610081+9999REMSYN08889664 32561 30620 11113 21218 39869 49913 56008 83500 333 11084 21139 56700 59063 83627=
0221896640876012017030905554-77850+166667FM-15+002499999V0200601N009310103619N009999199-01401-02301098931ADDGA1021+007621999GA2081+010361999GE19MSL   +99999+99999GF199999021999007621999999MA1098881098505OC101341OD149901441070REMMET092METAR NZCM 090555Z 06018G26KT 9999 FEW025 OVC034 M14/M23 A2920 RMK PK WND 07028/0155 SLP893=
0197896640876012017030906004-77850+166667FM-12+002499999V0200601N00931010201CN011000199-01451-02331098931ADDGA1021+007501061GA2061+010201061GE19MSL   +99999+99999GF108991021999007501999999MA1098875098491MD1810101+9999REMSYN07689664 32561 80618 11145 21233 39849 49893 58010 885// 333 56799 82625 86634=
0245896640876012017030908554-77850+166667FM-15+002499999V0200701N008810121919N009999199-01501-02401098851ADDGA1021+007621999GA2081+012191999GE19MSL   +99999+99999GF199999021999007621999999MA1098781098425MW1711OC101241OD149901491060REMMET110METAR NZCM 090855Z 07017G24KT 9999 -SN FEW025 OVC040 M15/M24 A2917 RMK PK WND 06029/0725 SNB0645E10B35 SLP885=
0225896640876012017030909004-77850+166667FM-12+002499999V0200701N00881012001CN011000199-01551-02411098851ADDAY171021AY221021GA1021+007501061GA2061+012001061GE19MSL   +99999+99999GF108991021999007501999999MA1098805098421MD1710071+9999MW1711REMSYN08289664 41561 80717 11155 21241 39842 49885 57007 77172 885// 333 56799 82625 86640=
0227896640876012017030911554-77850+166667FM-15+002499999V0200701N010310121919N009999199-01601-02401098801ADDGA1021+007621999GA2081+012191999GE19MSL   +99999+99999GF199999021999007621999999MA1098751098375OC101291OD149901441060REMMET098METAR NZCM 091155Z 07020G25KT 9999 FEW025 OVC040 M16/M24 A2916 RMK PK WND 06028/1059 SNE05 SLP880=
0308896640876012017030912004-77850+166667FM-12+002499999V0200701N010310120019N011000199-01651-02451098801ADDAA106000021AL19900031AY171021AY221021GA1021+007501061GA2071+012001061GE19MSL   +99999+99999GF108991021999007501999999KA1240M-01281KA2240N-01661MA1098755098371MD1710051+9999MW1221REMSYN11889664 11561 80720 11165 21245 39837 49880 57005 69901 72272 885// 333 11128 21166 56799 59064 82625 87640 90945 93197=
0205896640876012017030917554-77850+166667FM-15+002499999V0200701N006210137219N009999199-01901-02501098711ADDGA1021+009141999GA2071+013721999GE19MSL   +99999+99999GF199999021999009141999999MA1098651098275OC101031REMMET090METAR NZCM 091755Z 07012G20KT 9999 FEW030 BKN045 M19/M25 A2913 RMK PK WND 08027/37 SLP871=
0214896640876012017030918004-77850+166667FM-12+002499999V0200701N00621013501CN011000199-01871-02531098711ADDAA112000021GA1011+009001061GA2071+013501061GE19MSL   +99999+99999GF107991011999009001999999MA1098655098271MD1810031+9999REMSYN08289664 12561 70712 11187 21253 39827 49871 58003 69902 87500 333 56700 81630 87645=
0223896640876012017030920554-77850+166667FM-15+002499999V0201001N009810137219N009999199-01901-02501098741ADDGA1021+009141999GA2071+013721999GE19MSL   +99999+99999GF199999021999009141999999MA1098681098305MW1711OC101291REMMET102METAR NZCM 092055Z 10019G25KT 9999 -SN FEW030 BKN045 M19/M25 A2914 RMK PK WND 09028/34 SNB1900 SLP874=
0225896640876012017030921004-77850+166667FM-12+002499999V0201001N00981013501CN011000199-01901-02541098741ADDAY171021AY221021GA1011+009001061GA2071+013501061GE19MSL   +99999+99999GF107991011999009001999999MA1098685098301MD1110031+9999MW1711REMSYN08289664 41561 71019 11190 21254 39830 49874 51003 77172 87500 333 56700 81630 87645=
0204896640876012017030923554-77850+166667FM-15+002499999V0200901N013410137219N009999199-02001-02701098731ADDGA1021+010671999GA2071+013721999GE19MSL   +99999+99999GF199999021999010671999999MA1098681098295MW1711REMMET091METAR NZCM 092355Z 09026KT 9999 -SN FEW035 BKN045 M20/M27 A2914 RMK PK WND 09031/47 SLP873=
0308896640876012017031000004-77850+166667FM-12+002499999V0200901N01341013501CN011000199-01971-02711098731ADDAA118000021AL19900031AY171021AY221021GA1011+010501061GA2071+013501061GE19MSL   +99999+99999GF107991011999010501999999KA1120M-01621KA2120N-01971MA1098675098291MD1610011+9999MW1711REMSYN11889664 11661 70926 11197 21271 39829 49873 56001 69903 77172 87500 333 11162 21197 56700 59040 81635 87645 90952 93197=
0231896640876012017031005554-77850+166667FM-15+002499999V0200901N012910137219N009999199-01901-02601098811ADDGA1021+009141999GA2081+013721999GE19MSL   +99999+99999GF199999021999009141999999MA1098751098375MW1711OC101441OD149901691090REMMET096METAR NZCM 100555Z 09025G28KT 9999 -SN FEW030 OVC045 M19/M26 A2916 RMK PK WND 09033/0121 SLP881=
0270896640876012017031006004-77850+166667FM-12+002499999V0200901N01291013501CN011000199-01941-02641098811ADDAA106000021AL19900031AY171021AY271021GA1021+009001061GA2061+013501061GE19MSL   +99999+99999GF108991021999009001999999MA1098745098361MD1310081+9999MW1711REMSYN10689664 11561 80925 11194 21264 39836 49881 53008 69901 77177 885// 333 00933 56799 82630 86645 90983 93197=
0254896640876012017031008554-77850+166667FM-15+002499999V0200701N009310137219N009999199-02001-02601098941ADDGA1021+004571999GA2071+013721999GA3081+018291999GE19MSL   +99999+99999GF199999021999004571999999MA1098881098505MW1711OC101181OD149901641090REMMET103METAR NZCM 100855Z 07018G23KT 9999 -SN FEW015 BKN045 OVC060 M20/M26 A2920 RMK PK WND 09032/0618 SLP894=
0225896640876012017031009004-77850+166667FM-12+002499999V0200701N00931013501CN011000199-01991-02621098841ADDAY171021AY271021GA1011+004501061GA2051+013501061GE19MSL   +99999+99999GF108991011999004501999999MA1098885098501MD1210141+9999MW1711REMSYN08289664 41461 80718 11199 21262 39850 49884 52014 77177 885// 333 56799 81615 85645=
0238896640876012017031011554-77850+166667FM-15+002499999V0200701N009810182919N009999199-02001-02601099101ADDGA1041+009141999GA2071+018291999GA3081+021341999GE19MSL   +99999+99999GF199999041999009141999999MA1099051098665MW1711OC101341REMMET101METAR NZCM 101155Z 07019G26KT 9999 -SN SCT030 BKN060 OVC070 M20/M26 A2925 RMK PK WND 07027/01 SLP910=
0308896640876012017031012004-77850+166667FM-12+002499999V0200701N00981018001CN011000199-02021-02641099101ADDAA112000021AL19900031AY171021AY271021GA1031+009001061GA2031+018001061GE19MSL   +99999+99999GF108991031999009001999999KA1240M-01901KA2240N-02021MA1099045098661MD1210161+9999MW1711REMSYN11889664 11561 80719 11202 21264 39866 49910 52016 69902 77177 8657/ 333 11190 21202 56779 58029 83630 83656 90983 93197=
0192896640876012017031017554-77850+166667FM-15+002499999V0200601N008210073219N009999199-01901-02601099351ADDGA1081+007321999GE19MSL   +99999+99999GF199999081999007321999999MA1099291098915MW1711OC101241REMMET087METAR NZCM 101755Z 06016G24KT 9999 -SN OVC024 M19/M26 A2932 RMK PK WND 06026/19 SLP935=
0242896640876012017031018004-77850+166667FM-12+002499999V0200601N008210072019N011000199-01911-02561099351ADDAA118000021AL19900031AY171021AY271021GA1081+007201061GE19MSL   +99999+99999GF108991081999007201999999MA1099295098911MD1310141+9999MW1711REMSYN09489664 11561 80616 11191 21256 39891 49935 53014 69903 77177 885// 333 56799 88624 90983 93197=
0165896640876012017031020554-77850+166667FM-15+002499999V0200601N007210085319N009999199-01801-02401099461ADDGA1081+008531999GE19MSL   +99999+99999GF199999081999008531999999MA1099391099025MW1711REMMET068METAR NZCM 102055Z 06014KT 9999 -SN OVC028 M18/M24 A2935 RMK SLP946=
0203896640876012017031021004-77850+166667FM-12+002499999V0200601N007210084019N011000199-01801-02431099461ADDAY171021AY271021GA1081+008401061GE19MSL   +99999+99999GF108991081999008401999999MA1099405099021MD1210111+9999MW1711REMSYN07689664 41561 80614 11180 21243 39902 49946 52011 77177 885// 333 56799 88628=
0165896640876012017031023554-77850+166667FM-15+002499999V0200701N007210076219N009999199-01801-02301099531ADDGA1081+007621999GE19MSL   +99999+99999GF199999081999007621999999MA1099461099095MW1711REMMET068METAR NZCM 102355Z 07014KT 9999 -SN OVC025 M18/M23 A2937 RMK SLP953=
0286896640876012017031100004-77850+166667FM-12+002499999V0200701N007210075019N011000199-01781-02291099531ADDAA124000021AL19900031AY171021AY271021GA1081+007501061GE19MSL   +99999+99999GF108991081999007501999999KA1120M-01751KA2120N-02061MA1099465099081MD1210061+9999MW1711REMSYN11289664 11561 80714 11178 21229 39908 49953 52006 69904 77177 885// 333 11175 21206 56799 58079 88625 90983 93197=
0233896640876012017031105554-77850+166667FM-15+002499999V0200601N010310076219N001600199-01901-02201099641ADDGA1021+002741999GA2071+007621999GA3081+015241999GE19MSL   +99999+99999GF199999021999002741999999MA1099591099205MW1381MW2711OC101491REMMET090METAR NZCM 110555Z 06020G29KT 1600 -SN BLSN FEW009 BKN025 OVC050 M19/M22 A2941 RMK SLP964=
0270896640876012017031106004-77850+166667FM-12+002499999V0200601N01031007501CN001600199-01861-02161099641ADDAA106000021AL19900031AY171021AY231021GA1011+002701071GA2061+007501061GE19MSL   +99999+99999GF108991011999002701999999MA1099585099201MD1210091+9999MW1711REMSYN10689664 11316 80620 11186 21216 39920 49964 52009 69901 77173 885// 333 56799 81709 86625 90983 93197 96038=
0274896640876012017031111554-77850+166667FM-15+002499999V0200601N00881018291CN009999199-02001-02501099671ADDGA1021+007621999GA2041+018291999GA3071+030481999GE19MSL   +99999+99999GF199999021999007621999999MA1099591099235MW1361OC101031OD149901391100REMMET123METAR NZCM 111155Z 06017G20KT 9999 DRSN FEW025 SCT060 BKN100 M20/M25 A2941 RMK PK WND 10027/1048 SNE0915 SLP967 SN DSNT NW=
0314896640876012017031112004-77850+166667FM-12+002499999V0200601N008819999999N011000199-01991-02521099671ADDAA112000021AL19900031AY171021AY211021GA1011+007501061GA2031+018001061GE19MSL   +99999+99999GF105991011999007501999999KA1240M-01771KA2240N-02001MA1099605099221MD1810041+9999MW1361REMSYN12489664 11561 50617 11199 21252 39922 49967 58004 69902 73671 83570 333 11177 21200 56770 58056 81625 83656 90932 93197 96015=
0252896640876012017031117554-77850+166667FM-15+002499999V0200701N009310137219N009999199-02101-02501099561ADDGA1021+007621999GA2071+013721999GA3071+027431999GE19MSL   +99999+99999GF199999021999007621999999MA1099531099125MW1361OC101241REMMET115METAR NZCM 111755Z 07018G24KT 9999 DRSN FEW025 BKN045 BKN090 M21/M25 A2939 RMK PK WND 09027/25 SLP956 SN DSNT W-NW=
0270896640876012017031118004-77850+166667FM-12+002499999V0200701N00931013501CN011000199-02091-02471099581ADDAA118000021AL19900031AY111021AY211021GA1011+007501061GA2051+013501061GE19MSL   +99999+99999GF107991011999007501999999MA1099515099131MD1810051+9999MW1361REMSYN10689664 11561 70718 11209 21247 39913 49958 58005 69903 73611 85570 333 56770 81625 85645 90973 93197 96015=
0237896640876012017031123554-77850+166667FM-15+002499999V0200701N007210152419N009999199-02001-02501099531ADDGA1041+010671999GA2081+015241999GE19MSL   +99999+99999GF199999041999010671999999MA1099461099095MW1711OC100981OD149901541090REMMET102METAR NZCM 112355Z 07014G19KT 9999 -SN SCT035 OVC050 M20/M25 A2937 RMK PK WND 09030/2013 SNB45 SLP953=
0308896640876012017031200004-77850+166667FM-12+002499999V0200701N007210150019N011000199-01961-02511099531ADDAA124000021AL19900031AY121021AY221021GA1041+010501061GA2051+015001061GE19MSL   +99999+99999GF108991041999010501999999KA1120M-01961KA2120N-02211MA1099475099091MD1810021+9999MW1711REMSYN11889664 11661 80714 11196 21251 39909 49953 58002 69904 77122 885// 333 11196 21221 56799 58001 84635 85650 90910 93197=
0219896640876012017031205554-77850+166667FM-15+002499999V0200801N008810106719N001600199-02001-02401099491ADDGA1081+010671999GE19MSL   +99999+99999GF199999081999010671999999MA1099421099055MW1361MW2711OC101291OD149901491080REMMET094METAR NZCM 120555Z 08017G25KT 1600 -SN DRSN OVC035 M20/M24 A2936 RMK PK WND 08029/0300 SLP949=
0242896640876012017031206004-77850+166667FM-12+002499999V0200801N008810105019N001600199-02041-02401099491ADDAA106000021AL19900031AY171021AY271021GA1081+010501061GE19MSL   +99999+99999GF108991081999010501999999MA1099425099041MD1990011+9999MW1711REMSYN09489664 11616 80817 11204 21240 39904 49949 50001 69901 77177 885// 333 56799 88635 90973 93197=
0219896640876012017031208554-77850+166667FM-15+002499999V0200701N007710121919N001600199-02101-02401099451ADDGA1081+012191999GE19MSL   +99999+99999GF199999081999012191999999MA1099391099015MW1361MW2711OC101131OD149901391080REMMET094METAR NZCM 120855Z 07015G22KT 1600 -SN DRSN OVC040 M21/M24 A2935 RMK PK WND 08027/0612 SLP945=
0209896640876012017031209004-77850+166667FM-12+002499999V0200701N007710120019N001600199-02091-02441099451ADDAY171021AY271021GA1081+012001061GE19MSL   +99999+99999GF108991081999012001999999MA1099385099001MD1610041+9999MW1711REMSYN08289664 41616 80715 11209 21244 39900 49945 56004 77177 885// 333 56799 88640 96036=
0235896640876012017031211554-77850+166667FM-15+002499999V0200901N006710121919N002400199-02101-02501099461ADDGA1071+012191999GA2071+021341999GE19MSL   +99999+99999GF199999071999012191999999MA1099391099025MW1711OC101131OD149901541090REMMET100METAR NZCM 121155Z COR 09013G22KT 2400 -SN BKN040 BKN070 M21/M25 A2935 RMK PK WND 09030/0942 SLP946=
0302896640876012017031212004-77850+166667FM-12+002499999V0200901N006710120019N002400199-02071-02461099461ADDAA112000021AL19900031AY171021AY271021GA1061+012001061GA2999+999999031GE19MSL   +99999+99999GF107991061999012001999999KA1240M-01941KA2240N-02101MA1099405099021MD1610021+9999MW1711REMSYN11289664 11624 70913 11207 21246 39902 49946 56002 69902 77177 86570 333 11194 21210 56770 59020 86640 90983 93197=
0265896640876012017031217554-77850+166667FM-15+002499999V0200901N009310121919N009999199-02001-02401099461ADDGA1021+007621999GA2071+012191999GA3081+018291999GE19MSL   +99999+99999GF199999021999007621999999MA1099391099025OC101181OD149901441070REMMET120METAR NZCM 121755Z 09018G23KT 9999 FEW025 BKN040 OVC060 M20/M24 A2935 RMK PK WND 07028/1313 SNE1600 SLP946 SN DSNT W-NW=
0264896640876012017031218004-77850+166667FM-12+002499999V0200901N00931012001CN011000199-02011-02451099461ADDAA118000021AL19900031AY171021AY221021GA1021+007501061GA2041+012001061GE19MSL   +99999+99999GF108991021999007501999999MA1099395099011MD1110041+9999MW1151REMSYN10089664 11561 80918 11201 21245 39901 49946 51004 69903 71572 885// 333 56799 82625 84640 90943 93197=
0271896640876012017031220554-77850+166667FM-15+002499999V0200701N007710121919N008000199-02001-02501099461ADDGA1041+007621999GA2071+012191999GA3081+015241999GE19MSL   +99999+99999GF199999041999007621999999MA1099391099025MW1361MW2711OC101081OD149901331060REMMET114METAR NZCM 122055Z 07015G21KT 8000 -SN DRSN SCT025 BKN040 OVC050 M20/M25 A2935 RMK PK WND 06026/1933 SNB30 SLP946=
0231896640876012017031221004-77850+166667FM-12+002499999V0200701N00771012001CN008000199-02021-02521099461ADDAY121021AY221021GA1031+007501061GA2041+012001061GE19MSL   +99999+99999GF108991031999007501999999MA1099395099011MD1410001+9999MW1711REMSYN08889664 41558 80715 11202 21252 39901 49946 54000 77122 885// 333 56799 83625 84640 96036=
0249896640876012017031223554-77850+166667FM-15+002499999V0200901N01031009141CN004800199-02001-02401099511ADDGA1021+002741999GA2041+009141999GA3081+015241999GE19MSL   +99999+99999GF199999021999002741999999MA1099421099075MW1381MW2711OC101341REMMET106METAR NZCM 122355Z 09020G26KT 4800 -SN BLSN FEW009 SCT030 OVC050 M20/M24 A2936 RMK PK WND 09027/35 SLP951=
0314896640876012017031300004-77850+166667FM-12+002499999V0200901N010319999999N004800199-02021-02361099511ADDAA124000021AL19900131AY171021AY231021GA1011+002701071GA2041+009001061GE19MSL   +99999+99999GF108991011999002701999999KA1120M-01931KA2120N-02091MA1099445099061MD1310051+9999MW1711REMSYN12489664 11348 80920 11202 21236 39906 49951 53005 69904 77173 885// 333 11193 21209 56799 59003 81709 84630 90942 93101 96038=
0220896640876012017031305554-77850+166667FM-15+002499999V0200701N006210091419N004800199-02001-02401099571ADDGA1071+009141999GA2081+015241999GE19MSL   +99999+99999GF199999071999009141999999MA1099491099135MW1711OD149901331070REMMET093METAR NZCM 130555Z 07012KT 4800 -SN BKN030 OVC050 M20/M24 A2938 RMK PK WND 07026/0011 SLP957=
0242896640876012017031306004-77850+166667FM-12+002499999V0200701N006210090019N004800199-02001-02401099571ADDAA106000021AL19900031AY171021AY231021GA1071+009001061GE19MSL   +99999+99999GF108991071999009001999999MA1099515099131MD1210011+9999MW1711REMSYN09489664 11548 80712 11200 21240 39913 49957 52001 69901 77173 885// 333 56799 87630 90973 93197=
0165896640876012017031308554-77850+166667FM-15+002499999V0200601N006710091419N004800199-02001-02401099591ADDGA1081+009141999GE19MSL   +99999+99999GF199999081999009141999999MA1099531099155MW1711REMMET068METAR NZCM 130855Z 06013KT 4800 -SN OVC030 M20/M24 A2939 RMK SLP959=
0203896640876012017031309004-77850+166667FM-12+002499999V0200601N006710090019N011000199-01991-02361099591ADDAY171021AY271021GA1081+009001061GE19MSL   +99999+99999GF108991081999009001999999MA1099525099141MD1110011+9999MW1711REMSYN07689664 41561 80613 11199 21236 39914 49959 51001 77177 885// 333 56799 88630=
0165896640876012017031311554-77850+166667FM-15+002499999V0200801N005110070119N004800199-01901-02201099601ADDGA1081+007011999GE19MSL   +99999+99999GF199999081999007011999999MA1099531099165MW1711REMMET068METAR NZCM 131155Z 08010KT 4800 -SN OVC023 M19/M22 A2939 RMK SLP960=
0286896640876012017031312004-77850+166667FM-12+002499999V0200801N005110069019N004800199-01861-02171099601ADDAA106000331AL19900131AY171021AY271021GA1081+006901061GE19MSL   +99999+99999GF108991081999006901999999KA1240M-01851KA2240N-02051MA1099545099161MD1110021+9999MW1711REMSYN11289664 11548 80810 11186 21217 39916 49960 51002 69931 77177 885// 333 11185 21205 56799 58014 88623 90983 93101=
0210896640876012017031317554-77850+166667FM-15+002499999V0200801N007710024419N001200199-01901-02201099731ADDGA1071+002441999GA2081+012191999GE19MSL   +99999+99999GF199999071999002441999999MA1099661099295MW1361MW2711OC101081REMMET083METAR NZCM 131755Z 08015G21KT 1200 -SN DRSN BKN008 OVC040 M19/M22 A2943 RMK SLP973=
0248896640876012017031318004-77850+166667FM-12+002499999V0200801N007710024019N001200199-01871-02191099731ADDAA118000531AL19900231AY171021AY271021GA1061+002401071GE19MSL   +99999+99999GF108991061999002401999999MA1099665099281MD1110111+9999MW1711REMSYN10089664 11312 80815 11187 21219 39928 49973 51011 69953 77177 885// 333 56799 86708 90983 93102 96036=
0222896640876012017031320554-77850+166667FM-15+002499999V0200601N00881006101CN004800199-01801-02201099751ADDGA1021+002441999GA2041+006101999GA3081+011281999GE19MSL   +99999+99999GF199999021999002441999999MA1099691099315MW1361MW2711REMMET087METAR NZCM 132055Z 06017KT 4800 -SN DRSN FEW008 SCT020 OVC037 M18/M22 A2944 RMK SLP975=
0231896640876012017031321004-77850+166667FM-12+002499999V0200601N00881006001CN004800199-01841-02171099751ADDAY171021AY271021GA1021+002401071GA2031+006001061GE19MSL   +99999+99999GF108991021999002401999999MA1099695099311MD1990031+9999MW1711REMSYN08889664 41348 80617 11184 21217 39931 49975 50003 77177 885// 333 56799 82708 83620 96036=
0265896640876012017031323554-77850+166667FM-15+002499999V0200701N006710076219N001600199-01801-02101099741ADDGA1021+002741999GA2071+007621999GA3081+012191999GE19MSL   +99999+99999GF199999021999002741999999MA1099661099305MW1361MW2711OC101031OD149901331050REMMET108METAR NZCM 132355Z 07013G20KT 1600 -SN DRSN FEW009 BKN025 OVC040 M18/M21 A2943 RMK PK WND 05026/2255 SLP974=
0314896640876012017031400004-77850+166667FM-12+002499999V0200701N00671007501CN001600199-01811-02121099741ADDAA124000531AL19900231AY171021AY271021GA1011+002701071GA2061+007501061GE19MSL   +99999+99999GF108991011999002701999999KA1120M-01601KA2120N-01911MA1099675099291MD1810021+9999MW1711REMSYN12489664 11316 80713 11181 21212 39929 49974 58002 69954 77177 885// 333 11160 21191 56799 58023 81709 86625 90983 93102 96036=
0220896640876012017031405554-77850+166667FM-15+002499999V0200701N007710609619N009999199-01701-02401099601ADDGA1021+002741999GA2021+018291999GA3071+060961999GE19MSL   +99999+99999GF199999021999002741999999MA1099531099165OC101081REMMET089METAR NZCM 140555Z 07015G21KT 9999 FEW009 FEW060 BKN200 M17/M24 A2939 RMK SNE0030 SLP960=
0264896640876012017031406004-77850+166667FM-12+002499999V0200701N00771060001CN011000199-01731-02371099601ADDAA106000021AL19900031AY171021AY221021GA1011+002701061GA2071+060001021GE19MSL   +99999+99999GF107991011999002701999999MA1099545099161MD1810101+9999MW1021REMSYN10089664 11361 70715 11173 21237 39916 49960 58010 69901 70272 82506 333 56707 81609 87270 90963 93197=
0189896640876012017031408554-77850+166667FM-15+002499999V0200601N007210609619N009999199-01901-02601099591ADDGA1021+021341999GA2071+060961999GE19MSL   +99999+99999GF199999021999021341999999MA1099531099155OC101081REMMET074METAR NZCM 140855Z 06014G21KT 9999 FEW070 BKN200 M19/M26 A2939 RMK SLP959=
0197896640876012017031409004-77850+166667FM-12+002499999V0200601N00721060001CN011000199-01871-02561099591ADDGA1011+021001031GA2071+060001021GE19MSL   +99999+99999GF107991011999021001999999MA1099525099141MD1610021+9999REMSYN07689664 42861 70614 11187 21256 39914 49959 56002 81076 333 56077 81357 87270=
0189896640876012017031411554-77850+166667FM-15+002499999V0200801N008210609619N009999199-01901-02601099491ADDGA1021+021341999GA2071+060961999GE19MSL   +99999+99999GF199999021999021341999999MA1099421099055OC101131REMMET074METAR NZCM 141155Z 08016G22KT 9999 FEW070 BKN200 M19/M26 A2936 RMK SLP949=
0280896640876012017031412004-77850+166667FM-12+002499999V0200801N00821060001CN011000199-01911-02641099491ADDAA112000021AL19900031GA1011+021001031GA2071+060001021GE19MSL   +99999+99999GF107991011999021001999999KA1240M-01651KA2240N-01911MA1099425099041MD1810101+9999REMSYN11289664 12861 70816 11191 21264 39904 49949 58010 69902 81076 333 11165 21191 56077 59012 81357 87270 90973 93197=
0240896640876012017031417554-77850+166667FM-15+002499999V0200901N00881024381CN009999199-02101-02801099471ADDGA1021+004571999GA2041+024381999GA3071+030481999GE19MSL   +99999+99999GF199999021999004571999999MA1099421099035OC101341REMMET109METAR NZCM 141755Z 09017G26KT 9999 FEW015 SCT080 BKN100 M21/M28 A2936 RMK PK WND 08027/01 SLP947 BLSN DSNT W=
0258896640876012017031418004-77850+166667FM-12+002499999V0200901N008810300019N011000199-02111-02761099471ADDAA118000021AL19900031GA1011+004501061GA2031+024001031GA3051+030001031GE19MSL   +99999+99999GF107991011999004501999999MA1099415099031MD1810061+9999REMSYN10089664 12461 70917 11211 21276 39903 49947 58006 69903 82570 333 56870 81615 83358 85360 90983 93197=
0223896640876012017031420554-77850+166667FM-15+002499999V0200701N01181015241CN009999199-02101-02701099461ADDGA1021+004571999GA2041+015241999GA3071+033531999GE19MSL   +99999+99999GF199999021999004571999999MA1099391099025MW1361OC101601REMMET086METAR NZCM 142055Z 07023G31KT 9999 DRSN FEW015 SCT050 BKN110 M21/M27 A2935 RMK SLP946=
0225896640876012017031421004-77850+166667FM-12+002499999V0200701N011819999999N011000199-02141-02751099461ADDAY121021AY221021GA1011+004501061GA2031+015001061GE19MSL   +99999+99999GF107991011999004501999999MA1099405099021MD1610011+9999MW1361REMSYN08289664 41461 70723 11214 21275 39902 49946 56001 73622 83570 333 56870 81615 83650=
0239896640876012017031423554-77850+166667FM-15+002499999V0200701N01391033531CN009999199-02401-02901099431ADDGA1021+015241999GA2041+033531999GA3071+039621999GE19MSL   +99999+99999GF199999021999015241999999MA1099361098985MW1361OC101751REMMET102METAR NZCM 142355Z 07027G34KT 9999 DRSN FEW050 SCT110 BKN130 M24/M29 A2934 RMK PK WND 08035/24 SLP943=
0330896640876012017031500004-77850+166667FM-12+002499999V0200701N01391033001CN011000199-02381-02891099431ADDAA124000021AL19900031AY121021AY221021GA1021+015001061GA2031+033001031GA3999+999999021GE19MSL   +99999+99999GF106991021999015001999999KA1120M-01901KA2120N-02391MA1099375098991MD1610031+9999MW1361REMSYN12489664 11761 60727 11238 21289 39899 49943 56003 69904 73622 82578 333 00835 11190 21239 56777 59030 82650 83361 90983 93197=
0196896640876012017031505554-77850+166667FM-15+002499999V0200901N006710152419N009999199-01901-02501099471ADDGA1071+015241999GA2071+030481999GE19MSL   +99999+99999GF199999071999015241999999MA1099391099035REMMET089METAR NZCM 150555Z 09013KT 9999 BKN050 BKN100 M19/M25 A2935 RMK PK WND 07029/0350 SLP947=
0191896640876012017031506004-77850+166667FM-12+002499999V0200901N006710150019N011000199-01921-02471099471ADDGA1051+015001061GA2999+999999031GE19MSL   +99999+99999GF107991051999015001999999MA1099415099031MD1310031+9999REMSYN07089664 32761 70913 11192 21247 39903 49947 53003 85570 333 56770 85650=
0231896640876012017031508554-77850+166667FM-15+002499999V0200501N008210121919N004800199-01801-02201099441ADDGA1081+012191999GE19MSL   +99999+99999GF199999081999012191999999MA1099361099005MW1381MW2711OC101241OD149901441060REMMET106METAR NZCM 150855Z COR 05016G24KT 4800 -SN BLSN OVC040 M18/M22 A2934 RMK PK WND 06028/0718 SNB0730 SLP944=
0209896640876012017031509004-77850+166667FM-12+002499999V0200501N008210120019N004800199-01811-02161099441ADDAY171021AY231021GA1081+012001061GE19MSL   +99999+99999GF108991081999012001999999MA1099375098991MD1610041+9999MW1711REMSYN08289664 41648 80516 11181 21216 39899 49944 56004 77173 885// 333 56799 88640 96038=
0187896640876012017031511554-77850+166667FM-15+002499999V0200601N007210121919N003200199-01801-02201099471ADDGA1081+012191999GE19MSL   +99999+99999GF199999081999012191999999MA1099391099035MW1381MW2711OC101081REMMET076METAR NZCM 151155Z 06014G21KT 3200 -SN BLSN OVC040 M18/M22 A2935 RMK SLP947=
0292896640876012017031512004-77850+166667FM-12+002499999V0200601N007210120019N003200199-01771-02171099471ADDAA106000021AL19900031AY171021AY231021GA1081+012001061GE19MSL   +99999+99999GF108991081999012001999999KA1240M-01761KA2240N-02401MA1099405099021MD1110031+9999MW1711REMSYN11889664 11632 80614 11177 21217 39902 49947 51003 69901 77173 885// 333 11176 21240 56799 59002 88640 90952 93197 96038=
0219896640876012017031517554-77850+166667FM-15+002499999V0200601N008810106719N004800199-02001-02301099451ADDGA1081+010671999GE19MSL   +99999+99999GF199999081999010671999999MA1099391099015MW1381MW2711OC101131OD149901441030REMMET094METAR NZCM 151755Z 06017G22KT 4800 -SN BLSN OVC035 M20/M23 A2935 RMK PK WND 03028/1330 SLP945=
0248896640876012017031518004-77850+166667FM-12+002499999V0200601N008810105019N004800199-02011-02351099451ADDAA118000531AL19900331AY171021AY231021GA1081+010501061GE19MSL   +99999+99999GF108991081999010501999999MA1099385099001MD1810011+9999MW1711REMSYN10089664 11648 80617 11201 21235 39900 49945 58001 69953 77173 885// 333 56799 88635 90973 93103 96038=
0151896640876012017031520554-77850+166667FM-15+002499999V0200601N007719999999N009999199-01905-02605099431ADDMA1099365999999MW1361OC101241REMMET091METAR NZCM 152055Z 06015G24KT 9999 DRSN VCSN SCT035 BKN050 BKN100 M19/M26 A2934 RMK SLP943=EQDD01      0ADE693
0237896640876012017031521004-77850+166667FM-12+002499999V0200601N00771030001CN011000199-01941-02601099431ADDAY171021AY231021GA1031+010501061GA2031+030001031GE19MSL   +99999+99999GF107991031999010501999999MA1099375098991MD1610011+9999MW1361REMSYN09489664 41661 70615 11194 21260 39899 49943 56001 73673 85670 333 56770 83635 83360 96022 96016=
0223896640876012017031523554-77850+166667FM-15+002499999V0201001N009310152419N009999199-02001-02701099381ADDGA1021+010671999GA2071+015241999GA3071+030481999GE19MSL   +99999+99999GF199999021999010671999999MA1099321098945MW1361OC101241REMMET086METAR NZCM 152355Z 10018G24KT 9999 DRSN FEW035 BKN050 BKN100 M20/M27 A2933 RMK SLP938=
0308896640876012017031600004-77850+166667FM-12+002499999V0201001N00931015001CN011000199-02011-02741099381ADDAA124000531AL19900331AY171021AY231021GA1021+010501061GA2051+015001061GE19MSL   +99999+99999GF107991021999010501999999KA1120M-01771KA2120N-02081MA1099325098941MD1710051+9999MW1361REMSYN11889664 11661 71018 11201 21274 39894 49938 57005 69954 73673 86570 333 11177 21208 56779 59005 82635 85650 90943 93103=
0193896640876012017031605554-77850+166667FM-15+002499999V0200701N013410152419N009999199-02201-02801099121ADDGA1071+015241999GE19MSL   +99999+99999GF199999071999015241999999MA1099051098685MW1361OC101651REMMET088METAR NZCM 160555Z 07026G32KT 9999 DRSN BKN050 M22/M28 A2925 RMK PK WND 07034/20 SLP912=
0203896640876012017031606004-77850+166667FM-12+002499999V0200701N013410150019N011000199-02221-02801099121ADDAY121021AY221021GA1071+015001061GE19MSL   +99999+99999GF107991071999015001999999MA1099065098681MD1610091+9999MW1361REMSYN07689664 31761 70726 11222 21280 39868 49912 56009 73622 87500 333 56700 87650=
0234896640876012017031608554-77850+166667FM-15+002499999V0200701N010810152419N009999199-02001-02901099061ADDGA1021+008231999GA2071+015241999GE19MSL   +99999+99999GF199999021999008231999999MA1098981098625MW1361MW2711OC101491REMMET107METAR NZCM 160855Z 07021G29KT 9999 -SN DRSN FEW027 BKN050 M20/M29 A2923 RMK PK WND 06031/17 SNB0800 SLP906=
0231896640876012017031609004-77850+166667FM-12+002499999V0200701N01081015001CN011000199-02041-02881099061ADDAY121021AY221021GA1011+008101061GA2071+015001061GE19MSL   +99999+99999GF107991011999008101999999MA1098995098611MD1610071+9999MW1711REMSYN08889664 41561 70721 11204 21288 39861 49906 56007 77122 87500 333 56700 81627 87650 96036=
0242896640876012017031611554-77850+166667FM-15+002499999V0200701N011810106719N009999199-02201-02801098971ADDGA1041+008231999GA2071+010671999GE19MSL   +99999+99999GF199999041999008231999999MA1098921098535MW1361MW2711OC101491OD149901751060REMMET101METAR NZCM 161155Z 07023G29KT 9999 -SN DRSN SCT027 BKN035 M22/M28 A2921 RMK PK WND 06034/0913 SLP897=
0314896640876012017031612004-77850+166667FM-12+002499999V0200701N011810105019N011000199-02221-02811098971ADDAA106000021AL19900031AY171021AY221021GA1031+008101061GA2071+010501061GE19MSL   +99999+99999GF107991031999008101999999KA1240M-01911KA2240N-02301MA1098905098521MD1710091+9999MW1711REMSYN12489664 11561 70723 11222 21281 39852 49897 57009 69901 77172 87500 333 00634 11191 21230 56700 59050 83627 87635 90942 93197=
0240896640876012017031617554-77850+166667FM-15+002499999V0200601N010810121919N009999199-02301-02901098841ADDGA1041+007621999GA2071+012191999GE19MSL   +99999+99999GF199999041999007621999999MA1098781098405MW1361OC101391OD149901691070REMMET105METAR NZCM 161755Z 06021G27KT 9999 DRSN SCT025 BKN040 M23/M29 A2917 RMK PK WND 07033/1359 SNE1400 SLP884=
0248896640876012017031618004-77850+166667FM-12+002499999V0200601N010819999999N011000199-02311-02911098841ADDAA112000021AL19900031AY171021AY221021GA1041+007501061GE19MSL   +99999+99999GF106991041999007501999999MA1098785098401MD1610091+9999MW1361REMSYN10089664 11561 60621 11231 21291 39840 49884 56009 69902 73672 86500 333 00733 56700 84625 90942 93197=
0232896640876012017031620554-77850+166667FM-15+002499999V0200801N009810137219N009999199-02301-03001098811ADDGA1041+007621999GA2071+013721999GE19MSL   +99999+99999GF199999041999007621999999MA1098751098375MW1361OC101341OD149901541080REMMET097METAR NZCM 162055Z 08019G26KT 9999 DRSN SCT025 BKN045 M23/M30 A2916 RMK PK WND 08030/1831 SLP881=
0225896640876012017031621004-77850+166667FM-12+002499999V0200801N00981013501CN011000199-02271-02961098811ADDAY121021AY221021GA1031+007501061GA2051+013501061GE19MSL   +99999+99999GF107991031999007501999999MA1098755098371MD1610031+9999MW1361REMSYN08289664 41561 70819 11227 21296 39837 49881 56003 73622 87500 333 56700 83625 85645=
0216896640876012017031623554-77850+166667FM-15+002499999V0200701N010810137219N009999199-02201-03001098871ADDGA1021+007621999GA2071+013721999GE19MSL   +99999+99999GF199999021999007621999999MA1098811098435MW1361OC101291REMMET095METAR NZCM 162355Z 07021G25KT 9999 DRSN FEW025 BKN045 M22/M30 A2918 RMK PK WND 09031/04 SLP887=
0308896640876012017031700004-77850+166667FM-12+002499999V0200701N01081013501CN011000199-02241-03001098871ADDAA118000021AL19900031AY121021AY221021GA1021+007501061GA2061+013501061GE19MSL   +99999+99999GF107991021999007501999999KA1120M-02011KA2120N-02321MA1098815098431MD1310061+9999MW1361REMSYN11889664 11561 70721 11224 21300 39843 49887 53006 69903 73622 87500 333 11201 21232 56700 59051 82625 86645 90972 93197=
0196896640876012017031705554-77850+166667FM-15+002499999V0200501N012410121919N009999199-02301-02901098981ADDGA1021+007621999GA2071+012191999GE19MSL   +99999+99999GF199999021999007621999999MA1098921098545REMMET089METAR NZCM 170555Z 05024KT 9999 FEW025 BKN040 M23/M29 A2921 RMK PK WND 07030/0130 SLP898=
0197896640876012017031706004-77850+166667FM-12+002499999V0200501N01241012001CN011000199-02331-02931098981ADDGA1011+007501061GA2071+012001061GE19MSL   +99999+99999GF107991011999007501999999MA1098915098531MD1110111+9999REMSYN07689664 32561 70524 11233 21293 39853 49898 51011 87500 333 56700 81625 87640=
0173896640876012017031708554-77850+166667FM-15+002499999V0200501N005710091419N001600199-02201-02701099101ADDGA1081+009141999GE19MSL   +99999+99999GF199999081999009141999999MA1099021098665MW1711REMMET076METAR NZCM 170855Z 05011KT 1600 -SN OVC030 M22/M27 A2924 RMK SNB0745 SLP910=
0203896640876012017031709004-77850+166667FM-12+002499999V0200501N005710090019N001600199-02231-02661099101ADDAY171021AY221021GA1081+009001061GE19MSL   +99999+99999GF108991081999009001999999MA1099035098651MD1210121+9999MW1711REMSYN07689664 41516 80511 11223 21266 39865 49910 52012 77172 885// 333 56799 88630=
0176896640876012017031711554-77850+166667FM-15+002499999V0200801N004110121919N008000199-02101-02501099071ADDGA1081+012191999GE19MSL   +99999+99999GF199999081999012191999999MA1099021098635MW1711OC100771REMMET071METAR NZCM 171155Z 08008G15KT 8000 -SN OVC040 M21/M25 A2924 RMK SLP907=
0286896640876012017031712004-77850+166667FM-12+002499999V0200801N004110120019N008000199-02131-02531099071ADDAA106000021AL19900031AY171021AY221021GA1081+012001061GE19MSL   +99999+99999GF108991081999012001999999KA1240M-02061KA2240N-02341MA1099015098631MD1510021+9999MW1711REMSYN11289664 11658 80808 11213 21253 39863 49907 55002 69901 77172 885// 333 11206 21234 56799 58011 88640 90952 93197=
0187896640876012017031717554-77850+166667FM-15+002499999V0201201N006210091419N002400199-01901-02301098941ADDGA1081+009141999GE19MSL   +99999+99999GF199999081999009141999999MA1098881098505MW1381MW2711OC101031REMMET076METAR NZCM 171755Z 12012G20KT 2400 -SN BLSN OVC030 M19/M23 A2920 RMK SLP894=
0248896640876012017031718004-77850+166667FM-12+002499999V0201201N006210090019N002400199-01921-02301098941ADDAA112000331AL19900131AY171021AY271021GA1081+009001061GE19MSL   +99999+99999GF108991081999009001999999MA1098875098491MD1510071+9999MW1711REMSYN10089664 11524 81212 11192 21230 39849 49894 55007 69932 77177 885// 333 56799 88630 90973 93101 96038=
0186896640876012017031723554-77850+166667FM-15+002499999V0200901N004110106719N009999199-01801-02201098771ADDGA1071+010671999GA2081+015241999GE19MSL   +99999+99999GF199999071999010671999999MA1098711098345REMMET079METAR NZCM 172355Z 09008KT 9999 BKN035 OVC050 M18/M22 A2915 RMK SNE1000 SLP877=
0218896640876012017031817554-77850+166667FM-15+002499999V0200601N006710243819N009999199-01301-02501098571ADDGA1071+024381999GA2081+033531999GE19MSL   +99999+99999GF199999071999024381999999MA1098511098155REMMET111METAR NZCM 181755Z 06013KT 9999 BKN080 OVC110 M13/M25 A2909 RMK SLP857 SN DSNT W-NW FATA MORGANA SE-S AND W-NW=
0285896640876012017031818004-77850+166667FM-12+002499999V0200601N006710240019N011000199-01311-02471098571ADDAA118000091AL19900031AY121021AY221021GA1051+024001031GE19MSL   +99999+99999GF108991051999024001999999MA1098525098141MD1110041+9999MW1151REMSYN11889664 11861 80613 11131 21247 39814 49857 51004 69903 71522 8807/ 333 56079 85358 90972 93197 99113 99114 99146 99117=EQDQ01  00002PRCP18
0178896640876012017031823554-77850+166667FM-15+002499999V0200501N009319999999N009999199-01905-02705098531ADDMA1098485999999MW1361OC101181REMMET118METAR NZCM 182355Z 05018G23KT 9999 DRSN VCBLSN BKN050 BKN080 BKN150 M19/M27 A2908 RMK SLP853 VCBLSN W FATA MORGANA NW=EQDD01      0ADE693
0343896640876012017031900004-77850+166667FM-12+002499999V0200501N009310150019N011000199-01881-02671098531ADDAA124000091AL19900031AY121021AY221021GA1051+015001061GA2999+999999031GA3999+999999011GE19MSL   +99999+99999GF107991051999015001999999KA1120M-01251KA2120N-01931MA1098475098091MD1810091+9999MW1361REMSYN11889664 11761 70518 11188 21267 39809 49853 58009 69904 73622 85579 333 11125 21193 56877 59024 85650 90982 93197 99117=EQDQ01  00002PRCP24
0225896640876012017031906004-77850+166667FM-12+002499999V0200701N012910600019N011000199-02171-02621098691ADDAY121021AY221021GA1031+024001031GA2071+060001021GE19MSL   +99999+99999GF107991031999024001999999MA1098635098251MD1310071+9999MW1361REMSYN08289664 31861 70725 11217 21262 39825 49869 53007 73622 83078 333 56077 83358 87270=
0275896640876012017031912004-77850+166667FM-12+002499999V0200801N00881060001CN011000199-02121-02741098871ADDAY121021AY221021GA1011+024001031GA2051+060001021GE19MSL   +99999+99999GF105991011999024001999999KA1240M-01841KA2240N-02201MA1098805098421MD1210171+9999MW1361REMSYN10689664 31861 50817 11212 21274 39842 49887 52017 73622 81078 333 05037 11184 21220 56077 58032 81358 85270=
0219896640876012017031917554-77850+166667FM-15+002499999V0200601N006210396219N009999199-01501-02901098921ADDGA1021+024381999GA2071+039621999GA3071+045721999GE19MSL   +99999+99999GF199999021999024381999999MA1098851098495REMMET096METAR NZCM 191755Z 06012KT 9999 FEW080 BKN130 BKN150 M15/M29 A2919 RMK SLP892 FATA MORGANA SE-S=
0209896640876012017031918004-77850+166667FM-12+002499999V0200601N00621039001CN011000199-01491-02901098921ADDGA1011+024001031GA2051+039001021GE19MSL   +99999+99999GF107991011999024001999999MA1098865098481MD1810011+9999REMSYN08889664 32861 70612 11149 21290 39848 49892 58001 81078 333 56077 81358 85263 99113 99114=
0208896640876012017031920554-77850+166667FM-15+002499999V0200501N007210457219N009999199-01501-02801098961ADDGA1041+030481999GA2071+045721999GE19MSL   +99999+99999GF199999041999030481999999MA1098881098535OC100931REMMET093METAR NZCM 192055Z 05014G18KT 9999 SCT100 BKN150 M15/M28 A2920 RMK SLP896 FATA MORGANA SE-SW=
0215896640876012017031921004-77850+166667FM-12+002499999V0200501N007210450019N011000199-01481-02841098961ADDGA1031+030001041GA2071+045001021GE19MSL   +99999+99999GF107991031999030001999999MA1098905098521MD1990041+9999REMSYN09489664 42961 70514 11148 21284 39852 49896 50004 83078 333 56022 83460 87265 99113 99114 99115=
0219896640876012017031923554-77850+166667FM-15+002499999V0201101N006710304819N009999199-01401-02801098921ADDGA1041+019811999GA2071+030481999GA3071+045721999GE19MSL   +99999+99999GF199999041999019811999999MA1098851098495OC101081REMMET088METAR NZCM 192355Z 11013G21KT 9999 SCT065 BKN100 BKN150 M14/M28 A2919 RMK SCSL S SLP892=
0178896640876012017032005554-77850+166667FM-15+002499999V0200701N006710182919N009999199-01201-02201098801ADDGA1071+018291999GA2081+030481999GE19MSL   +99999+99999GF199999071999018291999999MA1098751098385REMMET071METAR NZCM 200555Z 07013KT 9999 BKN060 OVC100 M12/M22 A2916 RMK SLP880=
0191896640876012017032006004-77850+166667FM-12+002499999V0200701N006710180019N011000199-01161-02241098801ADDGA1061+018001061GA2999+999999031GE19MSL   +99999+99999GF108991061999018001999999MA1098755098371MD1610081+9999REMSYN07089664 32761 80713 11116 21224 39837 49880 56008 8657/ 333 56229 86656=
0239896640876012017032008554-77850+166667FM-15+002499999V0201101N008810182919N009999199-01101-01601098791ADDGA1041+013721999GA2081+018291999GE19MSL   +99999+99999GF199999041999013721999999MA1098711098375MW1711OC101341OD149901641150REMMET104METAR NZCM 200855Z 11017G26KT 9999 -SN SCT045 OVC060 M11/M16 A2915 RMK PK WND 15032/0753 SNB0745 SLP879=
0225896640876012017032009004-77850+166667FM-12+002499999V0201101N008810180019N011000199-01111-01591098791ADDAY121021AY221021GA1031+013501061GA2081+018001061GE19MSL   +99999+99999GF108991031999013501999999MA1098735098351MD1610021+9999MW1711REMSYN08289664 41661 81117 11111 21159 39835 49879 56002 77122 885// 333 56299 83645 88656=
0220896640876012017032011554-77850+166667FM-15+002499999V0201201N008210100619N009999199-01201-01701098821ADDGA1021+007011999GA2081+010061999GE19MSL   +99999+99999GF199999021999007011999999MA1098781098405MW1711OD149901641110REMMET093METAR NZCM 201155Z 12016KT 9999 -SN FEW023 OVC033 M12/M17 A2917 RMK PK WND 11032/1012 SLP882=
0211896640876012017032017554-77850+166667FM-15+002499999V0201101N007719999999N009999199-01005-01505098691ADDMA1098655999999MW1165OC101181OD149901541120REMMET137METAR NZCM 201755Z 11015G23KT 9999 VCBLSN FEW030 BKN045 OVC060 M10/M15 A2913 RMK PK WND 12030/1555 SNE1600 VIRGA W-NW SLP869 VCBLSN SW-W=EQDD01      0ADE735
0264896640876012017032018004-77850+166667FM-12+002499999V0201101N00771013501CN011000199-00961-01501098691ADDAA112000831AL19900231AY171021AY221021GA1021+009001061GA2051+013501061GE19MSL   +99999+99999GF108991021999009001999999MA1098645098261MD1710101+9999MW1141REMSYN10089664 11561 81115 11096 21150 39826 49869 57010 69982 71472 885// 333 56399 82630 85645 90923 93102=
0219896640876012017032020554-77850+166667FM-15+002499999V0201401N007219999999N009999199-01005-01405098881ADDMA1098855999999MW1165OC101241OD149901751170REMMET145METAR NZCM 202055Z 14014G24KT 9999 VCBLSN FEW020 BKN045 OVC060 M10/M14 A2919 RMK PK WND 17034/1903 VIS SE-SW 8000 VIRGA W-NW SLP888 VCBLSN SE-SW=EQDD01      0ADE735
0225896640876012017032021004-77850+166667FM-12+002499999V0201401N00721013501CN011000199-00981-01431098881ADDAY121021AY221021GA1011+006001061GA2051+013501061GE19MSL   +99999+99999GF108991011999006001999999MA1098845098461MD1210201+9999MW1141REMSYN08289664 41561 81414 11098 21143 39846 49888 52020 71422 885// 333 56499 81620 85645=
0187896640876012017032023554-77850+166667FM-15+002499999V0200601N004110182919N009999199-00901-01901098681ADDGA1071+018291999GA2071+030481999GE19MSL   +99999+99999GF199999071999018291999999MA1098651098265REMMET080METAR NZCM 202355Z 06008KT 9999 BKN060 BKN100 M09/M19 A2913 RMK VIRGA NW SLP868=
0232896640876012017032105554-77850+166667FM-15+002499999V0201101N006210243819N009999199-01301-02001098681ADDGA1071+024381999GA2071+030481999GE19MSL   +99999+99999GF199999071999024381999999MA1098611098265OC101081OD149901441140REMMET103METAR NZCM 210555Z 11012G21KT 9999 BKN080 BKN100 M13/M20 A2912 RMK PK WND 14028/0433 WSHFT 0429 SLP868=
0182896640876012017032108554-77850+166667FM-15+002499999V0200901N006710088419N008000199-01301-01701098691ADDGA1081+008841999GE19MSL   +99999+99999GF199999081999008841999999MA1098651098275MW1711OC101031REMMET077METAR NZCM 210855Z 09013G20KT 8000 -SN OVC029 M13/M17 A2913 RMK SNB30 SLP869=
0203896640876012017032109004-77850+166667FM-12+002499999V0200901N006710087019N008000199-01331-01741098691ADDAY121021AY221021GA1081+008701061GE19MSL   +99999+99999GF108991081999008701999999MA1098645098261MD1110011+9999MW1711REMSYN07689664 41558 80913 11133 21174 39826 49869 51001 77122 885// 333 56399 88629=
0204896640876012017032111554-77850+166667FM-15+002499999V0200701N006210182919N009999199-01501-02001098761ADDGA1021+009141999GA2071+018291999GE19MSL   +99999+99999GF199999021999009141999999MA1098711098335REMMET097METAR NZCM 211155Z 07012KT 9999 FEW030 BKN060 M15/M20 A2915 RMK PK WND 07028/1000 SNE1030 SLP876=
0308896640876012017032112004-77850+166667FM-12+002499999V0200701N00621018001CN011000199-01531-01961098761ADDAA106000021AL19900031AY171021AY221021GA1011+009001061GA2071+018001061GE19MSL   +99999+99999GF107991011999009001999999KA1240M-00721KA2240N-01621MA1098705098321MD1110061+9999MW1011REMSYN11889664 11561 70712 11153 21196 39832 49876 51006 69901 70172 87500 333 11072 21162 56300 59007 81630 87656 90921 93197=
0236896640876012017032117554-77850+166667FM-15+002499999V0200601N00881027431CN009999199-01601-02701098821ADDGA1021+009141999GA2041+027431999GE19MSL   +99999+99999GF199999021999009141999999MA1098781098395OC101291OD149901391060REMMET107METAR NZCM 211755Z 06017G25KT 9999 FEW030 SCT090 M16/M27 A2917 RMK PK WND 06027/1200 SLP882 FATA MORGANA W=
0242896640876012017032118004-77850+166667FM-12+002499999V0200601N008819999999N011000199-01621-02701098821ADDAA112000021AL19900031GA1011+009001061GA2041+027001031GE19MSL   +99999+99999GF104991011999009001999999MA1098775098391MD1610031+9999REMSYN10089664 12561 40617 11162 21270 39839 49882 56003 69902 81570 333 56330 81630 84359 90971 93197 99116=
0234896640876012017032120554-77850+166667FM-15+002499999V0200501N007210274319N009999199-01601-02701098781ADDGA1041+019811999GA2071+027431999GA3071+045721999GE19MSL   +99999+99999GF199999041999019811999999MA1098711098355REMMET111METAR NZCM 212055Z 05014KT 9999 SCT065 BKN090 BKN150 M16/M27 A2915 RMK PK WND 05026/28 SLP878 FATA MORGANA S-W=
0225896640876012017032121004-77850+166667FM-12+002499999V0200501N007219999999N011000199-01651-02701098781ADDGA1041+018001061GA2999+999999031GA3999+999999001GE19MSL   +99999+99999GF105991041999018001999999MA1098725098341MD1810051+9999REMSYN08889664 42761 50514 11165 21270 39834 49878 58005 84571 333 56333 84656 99114 99115 99116=
0223896640876012017032123554-77850+166667FM-15+002499999V0202101N002110121919N009999199-01101-02101098821ADDGA1071+012191999GA2071+030481999GA3071+045721999GE19MSL   +99999+99999GF199999071999012191999999MA1098751098405REMMET100METAR NZCM 212355Z 21004KT 9999 BKN040 BKN100 BKN150 M11/M21 A2916 RMK SLP882 FATA MORGANA SE-SW-NW=
0201896640876012017032205554-77850+166667FM-15+002499999V0209999C00001030481CN009999199-01101-01501098751ADDGA1021+012191999GA2041+030481999GA3071+054861999GE19MSL   +99999+99999GF199999021999012191999999MA1098681098335REMMET078METAR NZCM 220555Z 00000KT 9999 FEW040 SCT100 BKN180 M11/M15 A2914 RMK SLP875=
0213896640876012017032206004-77850+166667FM-12+002499999V0209999C000019999999N011000199-01141-01511098751ADDGA1011+012001061GA2041+030001031GA3999+999999001GE19MSL   +99999+99999GF106991011999012001999999MA1098705098321MD1610071+9999REMSYN07689664 32661 60000 11114 21151 39832 49875 56007 81531 333 56733 81640 84360=
0178896640876012017032208554-77850+166667FM-15+002499999V0209999C000019999999N009999199-01401-01701098731ADDGA1021+030481999GA2021+054861999GE19MSL   +99999+99999GF199999021999030481999999MA1098681098305REMMET071METAR NZCM 220855Z 00000KT 9999 FEW100 FEW180 M14/M17 A2914 RMK SLP873=
0191896640876012017032209004-77850+166667FM-12+002499999V0209999C000019999999N011000199-01441-01741098731ADDGA1011+030001031GA2999+999999001GE19MSL   +99999+99999GF102991011999030001999999MA1098675098291MD1610031+9999REMSYN07089664 42961 20000 11144 21174 39829 49873 56003 81031 333 56033 81360=
0178896640876012017032211554-77850+166667FM-15+002499999V0203401N005719999999N009999199-00801-01401098601ADDGA1021+030481999GA2021+054861999GE19MSL   +99999+99999GF199999021999030481999999MA1098541098185REMMET071METAR NZCM 221155Z 34011KT 9999 FEW100 FEW180 M08/M14 A2910 RMK SLP860=
0191896640876012017032212004-77850+166667FM-12+002499999V0203401N005719999999N011000199-00841-01361098601ADDGA1011+030001031GA2999+999999001GE19MSL   +99999+99999GF102991011999030001999999MA1098565098181MD1610111+9999REMSYN07089664 32961 23411 11084 21136 39818 49860 56011 81031 333 56033 81360=
0193896640876012017032217554-77850+166667FM-15+002499999V0209999C000019999999N009999199-01001-01401098541ADDGA1021+012191999GA2021+045721999GE19MSL   +99999+99999GF199999021999012191999999MA1098481098125REMMET086METAR NZCM 221755Z 00000KT 9999 FEW040 FEW150 M10/M14 A2908 RMK SLP854 FATA MORGANA W=
0197896640876012017032218004-77850+166667FM-12+002499999V0209999C000019999999N011000199-01051-01431098541ADDGA1011+012001061GA2999+999999001GE19MSL   +99999+99999GF102991011999012001999999MA1098485098101MD1310011+9999REMSYN07689664 42661 20000 11105 21143 39810 49854 53001 81501 333 56101 81640 99116=
0211896640876012017032220554-77850+166667FM-15+002499999V0200301N00311045721CN009999199-00901-01701098511ADDGA1021+006101999GA2021+018291999GA3041+045721999GE19MSL   +99999+99999GF199999021999006101999999MA1098441098095REMMET088METAR NZCM 222055Z 03006KT 9999 FEW020 FEW060 SCT150 M09/M17 A2907 RMK SLP851 SN DSNT S=
0219896640876012017032221004-77850+166667FM-12+002499999V0200301N003119999999N011000199-00911-01741098511ADDAY101021AY201021GA1011+006001061GA2999+999999001GE19MSL   +99999+99999GF103991011999006001999999MA1098465098081MD1610021+9999MW1151REMSYN07689664 41561 30306 11091 21174 39808 49851 56002 71500 82501 333 56303 81620=
0146896640876012017032223554-77850+166667FM-15+002499999V0209999V003119999999N009999199+99999+99999098561ADDMW1165REMMET109METAR NZCM 222355Z VRB06KT 9999 VCBLSN FEW010 SCT075 BKN150 M08/M14 A2909 RMK SLP856 VCBLSN SE SN DSNT SE-SW=EQDD01      0ADE735
0242896640876012017032300004-77850+166667FM-12+002499999V0201801N006710105019N006000199-00761-01061098641ADDAA106000021AL19900031AY171021AY221021GA1061+010501061GE19MSL   +99999+99999GF108991061999010501999999MA1098595098211MD1310081+9999MW1711REMSYN09489664 11656 81813 11076 21106 39821 49864 53008 69901 77172 885// 333 56399 86635 90921 93197=
0228896640876012017032305554-77850+166667FM-15+002499999V0201801N006710106719N006000199-00801-01101098641ADDGA1071+010671999GA2081+015241999GE19MSL   +99999+99999GF199999071999010671999999MA1098581098225MW1711OD149901541110REMMET101METAR NZCM 230555Z 18013KT 6000 -SN BKN035 OVC050 M08/M11 A2911 RMK PK WND 11030/0355 SNB0400 SLP864=
0242896640876012017032306004-77850+166667FM-12+002499999V0201801N006710105019N006000199-00761-01061098641ADDAA106000021AL19900031AY171021AY221021GA1061+010501061GE19MSL   +99999+99999GF108991061999010501999999MA1098595098211MD1310081+9999MW1711REMSYN09489664 11656 81813 11076 21106 39821 49864 53008 69901 77172 885// 333 56399 86635 90921 93197=
0215896640876012017032308554-77850+166667FM-15+002499999V0201401N008810243819N009999199-01001-01501098721ADDGA1041+010671999GA2071+024381999GE19MSL   +99999+99999GF199999041999010671999999MA1098681098305MW1711REMMET102METAR NZCM 230855Z 14017KT 9999 -SN SCT035 BKN080 M10/M15 A2914 RMK PK WND 14032/39 WSHFT 0840 SLP872=
0225896640876012017032309004-77850+166667FM-12+002499999V0201401N008810240019N011000199-01011-01501098721ADDAY171021AY271021GA1031+010501061GA2071+024001031GE19MSL   +99999+99999GF107991031999010501999999MA1098675098291MD1210081+9999MW1711REMSYN08289664 41661 71417 11101 21150 39829 49872 52008 77177 83570 333 56330 83635 87358=
0217896640876012017032311554-77850+166667FM-15+002499999V0201101N009310243819N009999199-00901-01601098581ADDGA1071+024381999GE19MSL   +99999+99999GF199999071999024381999999MA1098541098165OC101341OD149901901160REMMET104METAR NZCM 231155Z 11018G26KT 9999 BKN080 M09/M16 A2910 RMK PK WND 16037/0919 WSHFT 1126 SNE1030 SLP858=
0228896640876012017032317554-77850+166667FM-15+002499999V0200801N006710182919N009000199-01301-01801098711ADDGA1041+015241999GA2081+018291999GE19MSL   +99999+99999GF199999041999015241999999MA1098681098285MW1711OD149902161170REMMET101METAR NZCM 231755Z 08013KT 9000 -SN SCT050 OVC060 M13/M18 A2914 RMK PK WND 17042/1257 SNB1630 SLP871=
0270896640876012017032318004-77850+166667FM-12+002499999V0200801N00671018001CN009000199-01261-01791098711ADDAA112000021AL19900031AY171021AY221021GA1031+015001061GA2051+018001061GE19MSL   +99999+99999GF108991031999015001999999MA1098665098281MD1310061+9999MW1711REMSYN10689664 11759 80813 11126 21179 39828 49871 53006 69902 77172 885// 333 01742 56399 83650 85656 90921 93197=
0233896640876012017032320554-77850+166667FM-15+002499999V0200701N00881004881CN000800199-01401-01601098851ADDGA1021+002441999GA2041+004881999GA3081+010671999GE19MSL   +99999+99999GF199999021999002441999999MA1098781098425MW1381MW2711OC101131REMMET090METAR NZCM 232055Z 07017G22KT 0800 -SN BLSN FEW008 SCT016 OVC035 M14/M16 A2917 RMK SLP885=
0231896640876012017032321004-77850+166667FM-12+002499999V0200701N008819999999N000800199-01401-01641098851ADDAY171021AY231021GA1011+002401071GA2041+004801061GE19MSL   +99999+99999GF108991011999002401999999MA1098795098411MD1310131+9999MW1711REMSYN08889664 41308 80717 11140 21164 39841 49885 53013 77173 885// 333 56399 81708 84616 96038=
0214896640876012017032323554-77850+166667FM-15+002499999V0201201N006719999999N009999199-01205-01505098911ADDMA1098855999999MW1361OC101131OD149901751160REMMET140METAR NZCM 232355Z 12013G22KT 9999 DRSN VCBLSN SCT016 BKN045 OVC100 M12/M15 A2919 RMK PK WND 16034/2148 GSB2205E20SNE20 SLP891 VCBLSN SE-SW=EQDD01      0ADE693
0205896640876012017032405554-77850+166667FM-15+002499999V0201001N006210106719N009999199-01001-01401098941ADDGA1081+010671999GE19MSL   +99999+99999GF199999081999010671999999MA1098881098525MW1711OD149901491100REMMET094METAR NZCM 240555Z 10012KT 9999 -SN OVC035 M10/M14 A2920 RMK PK WND 10029/0034 SNB0015 SLP894=
0242896640876012017032406004-77850+166667FM-12+002499999V0201001N006210105019N011000199-01031-01411098941ADDAA106000021AL19900131AY171021AY221021GA1081+010501061GE19MSL   +99999+99999GF108991081999010501999999MA1098885098501MD1990031+9999MW1711REMSYN09489664 11661 81012 11103 21141 39850 49894 50003 69901 77172 885// 333 56399 88635 90962 93101=
0186896640876012017032408554-77850+166667FM-15+002499999V0200801N005110121919N009999199-01101-01601098961ADDGA1071+012191999GA2071+018291999GE19MSL   +99999+99999GF199999071999012191999999MA1098921098545REMMET079METAR NZCM 240855Z 08010KT 9999 BKN040 BKN060 M11/M16 A2921 RMK SNE0700 SLP896=
0203896640876012017032409004-77850+166667FM-12+002499999V0200801N005110120019N011000199-01131-01631098961ADDAY171021AY221021GA1061+012001061GE19MSL   +99999+99999GF107991061999012001999999MA1098915098531MD1110031+9999MW1021REMSYN07689664 41661 70810 11113 21163 39853 49896 51003 70272 87500 333 56300 86640=
0178896640876012017032411554-77850+166667FM-15+002499999V0200801N005710121919N009999199-01201-01601098971ADDGA1071+012191999GA2071+018291999GE19MSL   +99999+99999GF199999071999012191999999MA1098921098555REMMET071METAR NZCM 241155Z 08011KT 9999 BKN040 BKN060 M12/M16 A2921 RMK SLP897=
0286896640876012017032412004-77850+166667FM-12+002499999V0200801N005710120019N011000199-01161-01641098971ADDAA112000021AL19900031AY171021AY221021GA1061+012001061GE19MSL   +99999+99999GF107991061999012001999999KA1240M-00991KA2240N-01211MA1098925098541MD1110011+9999MW1021REMSYN11289664 11661 70811 11116 21164 39854 49897 51001 69902 70272 87500 333 11099 21121 56300 58038 86640 90953 93197=
0200896640876012017032417554-77850+166667FM-15+002499999V0200401N009310304819N009999199-01301-01801098971ADDGA1041+021341999GA2071+030481999GE19MSL   +99999+99999GF199999041999021341999999MA1098921098545MW1361OC101181REMMET079METAR NZCM 241755Z 04018G23KT 9999 DRSN SCT070 BKN100 M13/M18 A2921 RMK SLP897=
0264896640876012017032418004-77850+166667FM-12+002499999V0200401N00931030001CN011000199-01331-01761098971ADDAA118000021AL19900031AY121021AY221021GA1031+021001031GA2041+030001031GE19MSL   +99999+99999GF106991031999021001999999MA1098925098541MD1110011+9999MW1361REMSYN10089664 11861 60418 11133 21176 39854 49897 51001 69903 73622 86070 333 56030 83357 84360 90973 93197=
0237896640876012017032420554-77850+166667FM-15+002499999V0200601N00881015241CN009999199-01401-02101099091ADDGA1021+009141999GA2041+015241999GA3071+024381999GE19MSL   +99999+99999GF199999021999009141999999MA1099021098665MW1361REMMET108METAR NZCM 242055Z COR 06017KT 9999 DRSN FEW030 SCT050 BKN080 M14/M21 A2924 RMK SLP909 FATA MORGANA S AND W=
0237896640876012017032421004-77850+166667FM-12+002499999V0200601N008819999999N011000199-01411-02081099091ADDAY121021AY221021GA1011+009001061GA2031+015001061GE19MSL   +99999+99999GF107991011999009001999999MA1099045098661MD1210121+9999MW1361REMSYN09489664 41561 70617 11141 21208 39866 49909 52012 73622 83570 333 56330 81630 83650 99114 99116=
0238896640876012017032423554-77850+166667FM-15+002499999V0200601N008810213419N009999199-01501-02101099101ADDGA1041+015241999GA2071+021341999GA3071+027431999GE19MSL   +99999+99999GF199999041999015241999999MA1099051098675MW1361OC101081REMMET101METAR NZCM 242355Z 06017G21KT 9999 DRSN SCT050 BKN070 BKN090 M15/M21 A2925 RMK SLP910 FATA MORGANA W=
0314896640876012017032500004-77850+166667FM-12+002499999V0200601N00881021001CN011000199-01511-02061099101ADDAA124000021AL19900031AY121021AY221021GA1041+015001061GA2031+021001031GE19MSL   +99999+99999GF107991041999015001999999KA1120M-01151KA2120N-01521MA1099055098671MD1110011+9999MW1361REMSYN12489664 11761 70617 11151 21206 39867 49910 51001 69904 73622 84570 333 11115 21152 56330 58018 84650 83357 90983 93197 99116=
0201896640876012017032505554-77850+166667FM-15+002499999V0200601N008210213419N009999199-01601-02301099121ADDGA1041+015241999GA2071+021341999GA3071+027431999GE19MSL   +99999+99999GF199999041999015241999999MA1099051098695REMMET078METAR NZCM 250555Z 06016KT 9999 SCT050 BKN070 BKN090 M16/M23 A2925 RMK SLP912=
0197896640876012017032506004-77850+166667FM-12+002499999V0200601N008210270019N011000199-01631-02281099121ADDGA1031+015001061GA2061+027001031GE19MSL   +99999+99999GF107991031999015001999999MA1099075098691MD1990001+9999REMSYN07689664 32761 70616 11163 21228 39869 49912 50000 83570 333 56330 83650 86359=
0189896640876012017032508554-77850+166667FM-15+002499999V0200601N008810152419N009999199-01701-02401099151ADDGA1071+015241999GA2071+021341999GE19MSL   +99999+99999GF199999071999015241999999MA1099091098725OC101181REMMET074METAR NZCM 250855Z 06017G23KT 9999 BKN050 BKN070 M17/M24 A2926 RMK SLP915=
0191896640876012017032509004-77850+166667FM-12+002499999V0200601N008810150019N011000199-01661-02381099151ADDGA1051+015001061GA2999+999999031GE19MSL   +99999+99999GF107991051999015001999999MA1099095098711MD1110021+9999REMSYN07089664 42761 70617 11166 21238 39871 49915 51002 85570 333 56330 85650=
0189896640876012017032511554-77850+166667FM-15+002499999V0200701N008810152419N009999199-01701-02501099211ADDGA1071+015241999GA2071+024381999GE19MSL   +99999+99999GF199999071999015241999999MA1099151098785OC101241REMMET074METAR NZCM 251155Z 07017G24KT 9999 BKN050 BKN080 M17/M25 A2928 RMK SLP921=
0235896640876012017032512004-77850+166667FM-12+002499999V0200701N008810150019N011000199-01681-02461099211ADDGA1061+015001061GA2999+999999031GE19MSL   +99999+99999GF107991061999015001999999KA1240M-01491KA2240N-01751MA1099165098781MD1210071+9999REMSYN08889664 32761 70717 11168 21246 39878 49921 52007 86570 333 11149 21175 56330 58024 86650=
0232896640876012017032517554-77850+166667FM-15+002499999V0200701N010810198119N009999199-01801-02501099191ADDGA1071+019811999GA2071+027431999GE19MSL   +99999+99999GF199999071999019811999999MA1099121098755MW1361OC101441OD149901541060REMMET097METAR NZCM 251755Z 07021G28KT 9999 DRSN BKN065 BKN090 M18/M25 A2927 RMK PK WND 06030/1655 SLP919=
0219896640876012017032518004-77850+166667FM-12+002499999V0200701N010810180019N011000199-01771-02521099191ADDAY121021AY221021GA1051+018001061GA2999+999999031GE19MSL   +99999+99999GF107991051999018001999999MA1099135098751MD1610021+9999MW1361REMSYN07689664 31761 70721 11177 21252 39875 49919 56002 73622 85570 333 56330 85656=
0283896640876012017032523554-77850+166667FM-15+002499999V0200601N006710152419N009999199-01801-02601099351ADDGA1021+009141999GA2071+015241999GA3081+018291999GE19MSL   +99999+99999GF199999021999009141999999MA1099291098915MW1361OC101081OD149901641060REMMET132METAR NZCM 252355Z 06013G21KT 9999 DRSN FEW030 BKN050 OVC060 M18/M26 A2932 RMK PK WND 06032/1848 SLP935 SN DSNT W-NW FATA MORGANA W=
0281896640876012017032600004-77850+166667FM-12+002499999V0200601N00671018001CN011000199-01821-02581099351ADDAY121021AY221021GA1021+009001061GA2051+018001061GE19MSL   +99999+99999GF108991021999009001999999KA1120M-01631KA2120N-01861MA1099295098911MD1310121+9999MW1361REMSYN11289664 31561 80613 11182 21258 39891 49935 53012 73622 885// 333 11163 21186 56399 58024 82630 85656 96015 99116=
0189896640876012017032605554-77850+166667FM-15+002499999V0200701N008210182919N009999199-02001-02601099301ADDGA1021+010671999GA2081+018291999GE19MSL   +99999+99999GF199999021999010671999999MA1099251098865OC101341REMMET074METAR NZCM 260555Z 07016G26KT 9999 FEW035 OVC060 M20/M26 A2931 RMK SLP930=
0197896640876012017032606004-77850+166667FM-12+002499999V0200701N008210180019N011000199-02001-02631099301ADDGA1011+010501061GA2081+018001061GE19MSL   +99999+99999GF108991011999010501999999MA1099245098861MD1610021+9999REMSYN07689664 32661 80716 11200 21263 39886 49930 56002 885// 333 56399 81635 88656=
0189896640876012017032611554-77850+166667FM-15+002499999V0200801N008810106719N009999199-01901-02701099381ADDGA1021+007621999GA2071+010671999GE19MSL   +99999+99999GF199999021999007621999999MA1099321098945OC101181REMMET074METAR NZCM 261155Z 08017G23KT 9999 FEW025 BKN035 M19/M27 A2933 RMK SLP938=
0241896640876012017032612004-77850+166667FM-12+002499999V0200801N00881010501CN011000199-01911-02671099381ADDGA1011+007501061GA2071+010501061GE19MSL   +99999+99999GF107991011999007501999999KA1240M-01831KA2240N-02081MA1099315098931MD1810011+9999REMSYN09489664 32561 70817 11191 21267 39893 49938 58001 87500 333 11183 21208 56300 58015 81625 87635=
0259896640876012017032617554-77850+166667FM-15+002499999V0200701N009310274319N009999199-02101-02901099291ADDGA1041+010671999GA2071+027431999GA3071+045721999GE19MSL   +99999+99999GF199999041999010671999999MA1099221098855OC101291OD149901391080REMMET114METAR NZCM 261755Z 07018G25KT 9999 SCT035 BKN090 BKN150 M21/M29 A2930 RMK PK WND 08027/1632 SLP929 FATA MORGANA W=
0219896640876012017032618004-77850+166667FM-12+002499999V0200701N00931027001CN011000199-02121-02881099291ADDGA1031+010501061GA2031+027001031GA3999+999999001GE19MSL   +99999+99999GF106991031999010501999999MA1099225098841MD1610061+9999REMSYN08289664 32661 60718 11212 21288 39884 49929 56006 83572 333 56333 83635 83359 99116=
0236896640876012017032620554-77850+166667FM-15+002499999V0200701N009310061019N009999199-02001-02901099271ADDGA1071+006101999GA2071+010671999GE19MSL   +99999+99999GF199999071999006101999999MA1099191098835OC101181OD149901391080REMMET107METAR NZCM 262055Z 07018G23KT 9999 BKN020 BKN035 M20/M29 A2929 RMK PK WND 08027/1808 SLP927 FATA MORGANA W=
0184896640876012017032623554-77850+166667FM-15+002499999V0200701N008210061019N009999199-02001-03001099211ADDGA1071+006101999GE19MSL   +99999+99999GF199999071999006101999999MA1099151098775OC101181REMMET085METAR NZCM 262355Z 07016G23KT 9999 BKN020 M20/M30 A2928 RMK SLP921 FATA MORGANA W-NW=
0225896640876012017032700004-77850+166667FM-12+002499999V0200701N008210060019N011000199-02041-02971099211ADDGA1071+006001061GE19MSL   +99999+99999GF107991071999006001999999KA1120M-01911KA2120N-02141MA1099155098771MD1710061+9999REMSYN09489664 32561 70716 11204 21297 39877 49921 57006 87500 333 11191 21214 56700 87620 99116 99117=
0189896640876012017032705554-77850+166667FM-15+002499999V0200601N006210091419N009999199-02201-03001099041ADDGA1021+004271999GA2071+009141999GE19MSL   +99999+99999GF199999021999004271999999MA1098981098605OC100931REMMET074METAR NZCM 270555Z 06012G18KT 9999 FEW014 BKN030 M22/M30 A2923 RMK SLP904=
0197896640876012017032706004-77850+166667FM-12+002499999V0200601N006210090019N011000199-02181-03011099041ADDGA1021+004201061GA2071+009001061GE19MSL   +99999+99999GF107991021999004201999999MA1098985098601MD1610101+9999REMSYN07689664 32461 70612 11218 21301 39860 49904 56010 87500 333 56700 82614 87630=
0189896640876012017032708554-77850+166667FM-15+002499999V0200901N004610091419N009999199-02201-02901098971ADDGA1041+005181999GA2071+009141999GE19MSL   +99999+99999GF199999041999005181999999MA1098921098535OC100771REMMET074METAR NZCM 270855Z 09009G15KT 9999 SCT017 BKN030 M22/M29 A2921 RMK SLP897=
0197896640876012017032709004-77850+166667FM-12+002499999V0200901N004610090019N011000199-02171-02921098971ADDGA1031+005101061GA2071+009001061GE19MSL   +99999+99999GF107991031999005101999999MA1098905098521MD1610081+9999REMSYN07689664 42461 70909 11217 21292 39852 49897 56008 87500 333 56700 83617 87630=
0182896640876012017032711554-77850+166667FM-15+002499999V0200901N005710082319N009999199-02201-02701098921ADDGA1081+008231999GE19MSL   +99999+99999GF199999081999008231999999MA1098851098485MW1711OC101081REMMET077METAR NZCM 271155Z 09011G21KT 9999 -SN OVC027 M22/M27 A2919 RMK SNB15 SLP892=
0286896640876012017032712004-77850+166667FM-12+002499999V0200901N005710081019N011000199-02161-02721098921ADDAA106000021AL19900031AY121021AY221021GA1081+008101061GE19MSL   +99999+99999GF108991081999008101999999KA1240M-01871KA2240N-02351MA1098865098481MD1610041+9999MW1711REMSYN11289664 11561 80911 11216 21272 39848 49892 56004 69901 77122 885// 333 11187 21235 56799 59045 88627 90910 93197=
0193896640876012017032717554-77850+166667FM-15+002499999V0200901N01081006101WN001600199-02401-02901098821ADDGA1091+006101999GE19MSL   +99999+99999GF109991091999006101999999MA1098751098385MW1381MW2711REMMET090METAR NZCM 271755Z 09021KT 1600 -SN BLSN VV020 M24/M29 A2916 RMK PK WND 10028/1538 SLP882=
0236896640876012017032718004-77850+166667FM-12+002499999V0200901N010810060019N001600199-02421-02911098821ADDAA112000021AL19900031AY171021AY231021GA1091+006001999GE19MSL   +99999+99999GF109991091999006001999999MA1098755098371MD1610021+9999MW1711REMSYN08889664 11/16 90921 11242 21291 39837 49882 56002 69902 77173 333 89/20 90973 93197 96038=
0219896640876012017032720554-77850+166667FM-15+002499999V0200901N010310121919N003200199-02401-02901098781ADDGA1071+012191999GE19MSL   +99999+99999GF199999071999012191999999MA1098711098345MW1381MW2711OC101291OD149901331100REMMET094METAR NZCM 272055Z 09020G25KT 3200 -SN BLSN BKN040 M24/M29 A2915 RMK PK WND 10026/1825 SLP878=
0209896640876012017032721004-77850+166667FM-12+002499999V0200901N010310120019N003200199-02451-02891098781ADDAY171021AY231021GA1071+012001061GE19MSL   +99999+99999GF107991071999012001999999MA1098725098341MD1710031+9999MW1711REMSYN08289664 41632 70920 11245 21289 39834 49878 57003 77173 87500 333 56700 87640 96038=
0282896640876012017032723554-77850+166667FM-15+002499999V0200901N011310106719N009000199-02401-02901098771ADDGA1021+003051999GA2071+010671999GA3071+013721999GE19MSL   +99999+99999GF199999021999003051999999MA1098711098335MW1111MW2381OC101391REMMET139METAR NZCM 272355Z 09022G27KT 9000 BLSN PRFG FEW010 BKN035 BKN045 M24/M29 A2915 RMK PK WND 09028/39 VIS W-NW 4000 SNE2200 SLP877 PRFG W-NW=
0314896640876012017032800004-77850+166667FM-12+002499999V0200901N01131010501CN009000199-02411-02861098771ADDAA118000021AL19900031AY171021AY231021GA1021+003001071GA2051+010501061GE19MSL   +99999+99999GF107991021999003001999999KA1120M-02101KA2120N-02541MA1098705098321MD1610021+9999MW1411REMSYN12489664 11459 70922 11241 21286 39832 49877 56002 69903 74173 87500 333 11210 21254 56700 59045 82710 85635 90923 93197 96038=
0273896640876012017032805554-77850+166667FM-15+002499999V0201401N00621010671CN003200199-02501-02901098761ADDGA1021+003961999GA2041+010671999GA3071+018291999GE19MSL   +99999+99999GF199999021999003961999999MA1098711098315MW1111MW2711OC101081OD149901491090REMMET116METAR NZCM 280555Z 14012G21KT 3200 -SN PRFG FEW013 SCT035 BKN060 M25/M29 A2915 RMK PK WND 09029/0050 SNB0300 SLP876=
0186896640876012017032808554-77850+166667FM-15+002499999V0200801N00361018291CN009999199-02501-03001098831ADDGA1021+010671999GA2041+018291999GE19MSL   +99999+99999GF199999021999010671999999MA1098751098385REMMET079METAR NZCM 280855Z 08007KT 9999 FEW035 SCT060 M25/M30 A2916 RMK SNE0745 SLP883=
0225896640876012017032809004-77850+166667FM-12+002499999V0200801N003619999999N011000199-02531-02961098831ADDAY171021AY211021GA1011+010501061GA2031+018001061GE19MSL   +99999+99999GF103991011999010501999999MA1098765098381MD1110061+9999MW1011REMSYN08289664 41661 30807 11253 21296 39838 49883 51006 70171 83500 333 56700 81635 83656=
0155896640876012017032811554-77850+166667FM-15+002499999V0200701N006219999999N009999199-02601-03001098821ADDGA1021+018291999GE19MSL   +99999+99999GF199999021999018291999999MA1098751098375REMMET064METAR NZCM 281155Z 07012KT 9999 FEW060 M26/M30 A2916 RMK SLP882=
0155896640876012017032817554-77850+166667FM-15+002499999V0209999V002610036619N009999199-02401-02701098811ADDGA1071+003661999GE19MSL   +99999+99999GF199999071999003661999999MA1098751098375REMMET064METAR NZCM 281755Z VRB05KT 9999 BKN012 M24/M27 A2916 RMK SLP881=
0214896640876012017032818004-77850+166667FM-12+002499999V0209999V002610036019N011000199-02381-02751098811ADDAA118000331AL19900131GA1071+003601071GE19MSL   +99999+99999GF107991071999003601999999MA1098755098371MD1610021+9999REMSYN08889664 12461 79905 11238 21275 39837 49881 56002 69933 87600 333 56200 87712 90972 93101=
0178896640876012017032820554-77850+166667FM-15+002499999V0209999V002110670619N009999199-02301-02701098881ADDGA1041+003661999GA2071+067061999GE19MSL   +99999+99999GF199999041999003661999999MA1098811098445REMMET071METAR NZCM 282055Z VRB04KT 9999 SCT012 BKN220 M23/M27 A2918 RMK SLP888=
0197896640876012017032821004-77850+166667FM-12+002499999V0209999V00211066001CN011000199-02311-02671098881ADDGA1031+003601071GA2041+066001021GE19MSL   +99999+99999GF106991031999003601999999MA1098805098421MD1210051+9999REMSYN07689664 42461 69904 11231 21267 39842 49888 52005 83608 333 56202 83712 84272=
0222896640876012017032823554-77850+166667FM-15+002499999V0200801N007710182919N009999199-02401-02801098851ADDGA1021+003661999GA2071+018291999GA3071+067061999GE19MSL   +99999+99999GF199999021999003661999999MA1098781098415MW1111REMMET093METAR NZCM 282355Z 08015KT 9999 PRFG FEW012 BKN060 BKN220 M24/M28 A2917 RMK SLP885 PRFG SW-W=
0308896640876012017032900004-77850+166667FM-12+002499999V0200801N00771018001CN011000199-02371-02801098851ADDAA124000331AL19900131AY121021AY221021GA1021+003601071GA2041+018001061GE19MSL   +99999+99999GF106991021999003601999999KA1120M-02271KA2120N-02581MA1098785098401MD1610021+9999MW1411REMSYN11889664 11461 60815 11237 21280 39840 49885 56002 69934 74122 85508 333 11227 21258 56202 58008 82712 84656 90982 93101=
0189896640876012017032905554-77850+166667FM-15+002499999V0200901N007710609619N009999199-02301-02701098851ADDGA1041+024381999GA2071+060961999GE19MSL   +99999+99999GF199999041999024381999999MA1098781098415MW1111REMMET076METAR NZCM 290555Z 09015KT 9999 PRFG SCT080 BKN200 M23/M27 A2917 RMK SLP885=
0225896640876012017032906004-77850+166667FM-12+002499999V0200901N007710600019N011000199-02341-02741098851ADDAY121021AY221021GA1031+024001031GA2061+060001021GE19MSL   +99999+99999GF106991031999024001999999MA1098785098401MD1310031+9999MW1411REMSYN08289664 32861 60915 11234 21274 39840 49885 53003 74122 83038 333 56022 83358 86270=
0189896640876012017032908554-77850+166667FM-15+002499999V0200901N008810243819N009999199-02301-02701098781ADDGA1021+015241999GA2071+024381999GE19MSL   +99999+99999GF199999021999015241999999MA1098711098345OC101181REMMET074METAR NZCM 290855Z 09017G23KT 9999 FEW050 BKN080 M23/M27 A2915 RMK SLP878=
0197896640876012017032909004-77850+166667FM-12+002499999V0200901N00881024001CN011000199-02331-02741098781ADDGA1021+015001061GA2061+024001031GE19MSL   +99999+99999GF106991021999015001999999MA1098715098331MD1610071+9999REMSYN07689664 42761 60917 11233 21274 39833 49878 56007 82570 333 56220 82650 86358=
0178896640876012017032911554-77850+166667FM-15+002499999V0200701N006710243819N009999199-02201-02701098761ADDGA1041+015241999GA2071+024381999GE19MSL   +99999+99999GF199999041999015241999999MA1098681098325REMMET071METAR NZCM 291155Z 07013KT 9999 SCT050 BKN080 M22/M27 A2914 RMK SLP876=
0241896640876012017032912004-77850+166667FM-12+002499999V0200701N006710240019N011000199-02221-02691098761ADDGA1031+015001061GA2061+024001031GE19MSL   +99999+99999GF106991031999015001999999KA1240M-02201KA2240N-02401MA1098705098321MD1610011+9999REMSYN09489664 32761 60713 11222 21269 39832 49876 56001 83570 333 11220 21240 56220 59004 83650 86358=
0175896640876012017032917554-77850+166667FM-15+002499999V0201001N002619999999N009999199-02201-02601098741ADDGA1041+015241999GE19MSL   +99999+99999GF199999041999015241999999MA1098681098305MW1401REMMET078METAR NZCM 291755Z 10005KT 9999 VCFG SCT050 M22/M26 A2914 RMK SLP874 VCFG S-W=
0203896640876012017032918004-77850+166667FM-12+002499999V0201001N002619999999N011000199-02161-02591098741ADDAY101021AY201021GA1041+015001061GE19MSL   +99999+99999GF104991041999015001999999MA1098675098291MD1810021+9999MW1401REMSYN07689664 31761 41005 11216 21259 39829 49874 58002 74000 84500 333 56700 84650=
0226896640876012017032920554-77850+166667FM-15+002499999V0200901N00361015241CN009999199-02301-02701098721ADDGA1021+002441999GA2041+015241999GA3071+027431999GE19MSL   +99999+99999GF199999021999002441999999MA1098651098285MW1401REMMET097METAR NZCM 292055Z 09007KT 9999 VCFG FEW008 SCT050 BKN090 M23/M27 A2913 RMK SLP872 VCFG SE-SW-NW=
0225896640876012017032921004-77850+166667FM-12+002499999V0200901N003619999999N011000199-02351-02751098721ADDAY111021AY211021GA1011+002401071GA2041+015001061GE19MSL   +99999+99999GF105991011999002401999999MA1098665098281MD1610011+9999MW1401REMSYN08289664 41361 50907 11235 21275 39828 49872 56001 74011 84570 333 56770 81708 84650=
0175896640876012017032923554-77850+166667FM-15+002499999V0209999V002619999999N009999199-01901-02401098721ADDGA1021+003051999GE19MSL   +99999+99999GF199999021999003051999999MA1098651098285MW1401REMMET078METAR NZCM 292355Z VRB05KT 9999 VCFG FEW010 M19/M24 A2913 RMK SLP872 VCFG S-W=
0241896640876012017033000004-77850+166667FM-12+002499999V0209999V002619999999N011000199-01881-02381098721ADDAY111021AY211021GA1011+003001071GE19MSL   +99999+99999GF101991011999003001999999KA1120M-01851KA2120N-02401MA1098665098281MD1410001+9999MW1401REMSYN08889664 31461 19905 11188 21238 39828 49872 54000 74011 81600 333 11185 21240 56700 81710=
0198896640876012017033005554-77850+166667FM-15+002499999V0200601N006710061019N004800199-02101-02501098751ADDGA1021+003051999GA2071+006101999GE19MSL   +99999+99999GF199999021999003051999999MA1098681098315MW1101OC101031REMMET077METAR NZCM 300555Z 06013G20KT 4800 BR FEW010 BKN020 M21/M25 A2914 RMK SLP875=
0225896640876012017033006004-77850+166667FM-12+002499999V0200601N00671006001CN004800199-02111-02461098751ADDAY121021AY211021GA1021+003001061GA2051+006001061GE19MSL   +99999+99999GF105991021999003001999999MA1098695098311MD1310041+9999MW1101REMSYN08289664 31448 50613 11211 21246 39831 49875 53004 71021 85500 333 56700 82610 85620=
0205896640876012017033008554-77850+166667FM-15+002499999V0200701N007210061019N004800199-02101-02501098841ADDGA1021+003051999GA2071+006101999GE19MSL   +99999+99999GF199999021999003051999999MA1098781098405MW1101MW2711REMMET086METAR NZCM 300855Z 07014KT 4800 -SN BR FEW010 BKN020 M21/M25 A2917 RMK SNB0745 SLP884=
0231896640876012017033009004-77850+166667FM-12+002499999V0200701N00721006001CN004800199-02141-02481098841ADDAY171021AY221021GA1011+003001061GA2071+006001061GE19MSL   +99999+99999GF107991011999003001999999MA1098775098391MD1210081+9999MW1711REMSYN08889664 41448 70714 11214 21248 39839 49884 52008 77172 87500 333 56700 81610 87620 96010=
0174896640876012017033011554-77850+166667FM-15+002499999V0200801N006210076219N004800199-02001-02301098861ADDGA1081+007621999GE19MSL   +99999+99999GF199999081999007621999999MA1098781098425MW1101MW2711REMMET071METAR NZCM 301155Z 08012KT 4800 -SN BR OVC025 M20/M23 A2917 RMK SLP886=
0286896640876012017033012004-77850+166667FM-12+002499999V0200801N006210075019N004800199-01981-02281098861ADDAA106000021AL19900031AY171021AY221021GA1081+007501061GE19MSL   +99999+99999GF108991081999007501999999KA1240M-01841KA2240N-02491MA1098805098421MD1210031+9999MW1711REMSYN11289664 11548 80812 11198 21228 39842 49886 52003 69901 77172 885// 333 11184 21249 56799 58010 88625 90952 93197=
0223896640876012017033017554-77850+166667FM-15+002499999V0200901N008210076219N009999199-02301-02601098771ADDGA1021+002441999GA2081+007621999GE19MSL   +99999+99999GF199999021999002441999999MA1098711098335MW1111REMMET110METAR NZCM 301755Z COR 09016KT 9999 PRFG FEW008 OVC025 M23/M26 A2915 RMK VIS 4000 S-W SNE1600 SLP877 PRFG S-W=
0264896640876012017033018004-77850+166667FM-12+002499999V0200901N008210075019N011000199-02271-02591098771ADDAA112000021AL19900031AY171021AY221021GA1011+002401071GA2081+007501061GE19MSL   +99999+99999GF108991011999002401999999MA1098715098331MD1510041+9999MW1411REMSYN10089664 11361 80916 11227 21259 39833 49877 55004 69902 74172 885// 333 56799 81708 88625 90923 93197=
0239896640876012017033020554-77850+166667FM-15+002499999V0200801N009810076219N008000199-02401-02801098741ADDGA1021+002441999GA2071+007621999GE19MSL   +99999+99999GF199999021999002441999999MA1098681098305MW1101MW2361OC101241REMMET112METAR NZCM 302055Z 08019G24KT 8000 BR DRSN FEW008 BKN025 M24/M28 A2914 RMK VIS SE-S-W 4000 VIS W-NW 1600 SLP874=
0231896640876012017033021004-77850+166667FM-12+002499999V0200801N00981007501CN008000199-02431-02801098741ADDAY121021AY221021GA1011+002401071GA2071+007501061GE19MSL   +99999+99999GF107991011999002401999999MA1098685098301MD1610031+9999MW1361REMSYN08889664 41358 70819 11243 21280 39830 49874 56003 73622 87500 333 56700 81708 87625 96010=
0229896640876012017033023554-77850+166667FM-15+002499999V0200801N010810076219N004800199-02701-03101098771ADDGA1081+007621999GE19MSL   +99999+99999GF199999081999007621999999MA1098711098325MW1101MW2361OC101391OD149901441090REMMET104METAR NZCM 302355Z 08021G27KT 4800 BR DRSN OVC025 M27/M31 A2915 RMK PK WND 09028/2238 SNB2115E00 SLP877=
0298896640876012017033100004-77850+166667FM-12+002499999V0200801N010810075019N004800199-02701-03111098771ADDAA118000021AL19900031AY171021AY221021GA1081+007501061GE19MSL   +99999+99999GF108991081999007501999999KA1120M-01981KA2120N-02731MA1098715098331MD1210031+9999MW1361REMSYN12489664 11548 80821 11270 21311 39833 49877 52003 69903 73672 885// 333 11198 21273 56799 58005 88625 90931 93197 96022 96010=
0202896640876012017033105554-77850+166667FM-15+002499999V0200701N010310051819N004800199-02901-03301098981ADDGA1081+005181999GE19MSL   +99999+99999GF199999081999005181999999MA1098921098535MW1101MW2361OC101391REMMET091METAR NZCM 310555Z 07020G27KT 4800 BR DRSN OVC017 M29/M33 A2921 RMK PK WND 07028/51 SLP898=
0209896640876012017033106004-77850+166667FM-12+002499999V0200701N010310051019N004800199-02901-03341098981ADDAY121021AY221021GA1081+005101061GE19MSL   +99999+99999GF108991081999005101999999MA1098915098531MD1110131+9999MW1361REMSYN08289664 31448 80720 11290 21334 39853 49898 51013 73622 885// 333 56799 88617 96010=
0202896640876012017033108554-77850+166667FM-15+002499999V0200601N008210076219N003200199-02701-03201099071ADDGA1081+007621999GE19MSL   +99999+99999GF199999081999007621999999MA1098981098625MW1101MW2361OC101241REMMET091METAR NZCM 310855Z 06016G24KT 3200 BR DRSN OVC025 M27/M32 A2923 RMK PK WND 06027/07 SLP907=
0209896640876012017033109004-77850+166667FM-12+002499999V0200601N008210075019N003200199-02711-03191099071ADDAY121021AY221021GA1081+007501061GE19MSL   +99999+99999GF108991081999007501999999MA1099005098621MD1210091+9999MW1361REMSYN08289664 41532 80616 11271 21319 39862 49907 52009 73622 885// 333 56799 88625 96010=
0198896640876012017033111554-77850+166667FM-15+002499999V0200601N008210076219N004800199-02601-03201099051ADDGA1071+007621999GA2081+015241999GE19MSL   +99999+99999GF199999071999007621999999MA1098981098605MW1101MW2361REMMET079METAR NZCM 311155Z 06016KT 4800 BR DRSN BKN025 OVC050 M26/M32 A2923 RMK SLP905=
0275896640876012017033112004-77850+166667FM-12+002499999V0200601N008210075019N004800199-02641-03211099051ADDAY121021AY221021GA1051+007501061GA2081+015001061GE19MSL   +99999+99999GF108991051999007501999999KA1240M-02621KA2240N-02911MA1098985098601MD1610021+9999MW1361REMSYN10689664 31548 80616 11264 21321 39860 49905 56002 73622 885// 333 11262 21291 56799 58018 85625 88650 96010=
0155896640876012017033117554-77850+166667FM-15+002499999V0201101N002619999999N009999199-02701-03401099141ADDGA1021+015241999GE19MSL   +99999+99999GF199999021999015241999999MA1098681098695REMMET064METAR NZCM 311755Z 11005KT 9999 FEW050 M27/M34 A2914 RMK SLP914=
0178896640876012017033123554-77850+166667FM-15+002499999V0201001N003619999999N009999199-02401-03401099261ADDGA1021+015241999GE19MSL   +99999+99999GF199999021999015241999999MA1099191098815MW1401REMMET081METAR NZCM 312355Z 10007KT 9999 VCFG FEW050 M24/M34 A2929 RMK SLP926 VCFG SE-S-W=
0247896640876012017040100004-77850+166667FM-12+002499999V0201001N003619999999N011000199-02481-03451099261ADDAY101021AY201021GA1011+015001061GE19MSL   +99999+99999GF101991011999015001999999KA1120M-02461KA2120N-02701MA1099185098801MD1110051+9999MW1401REMSYN09489664 31761 11007 11248 21345 39880 49926 51005 74000 81500 333 11246 21270 56700 58047 81650=
0178896640876012017040105554-77850+166667FM-15+002499999V0200901N002119999999N009999199-02501-03501099251ADDGA1021+015241999GA2021+045721999GE19MSL   +99999+99999GF199999021999015241999999MA1099191098805REMMET071METAR NZCM 010555Z 09004KT 9999 FEW050 FEW150 M25/M35 A2929 RMK SLP925=
0191896640876012017040106004-77850+166667FM-12+002499999V0200901N002119999999N011000199-02471-03491099251ADDGA1011+015001061GA2999+999999001GE19MSL   +99999+99999GF102991011999015001999999MA1099175098791MD1510021+9999REMSYN07089664 32761 20904 11247 21349 39879 49925 55002 81502 333 56707 81650=
0155896640876012017040111554-77850+166667FM-15+002499999V0209999V001519999999N009999199-02601-03401099261ADDGA1021+015241999GE19MSL   +99999+99999GF199999021999015241999999MA1099191098815REMMET064METAR NZCM 011155Z VRB03KT 9999 FEW050 M26/M34 A2929 RMK SLP926=
0219896640876012017040112004-77850+166667FM-12+002499999V0209999V001519999999N011000199-02581-03361099261ADDGA1011+015001061GE19MSL   +99999+99999GF101991011999015001999999KA1240M-02331KA2240N-02691MA1099195098811MD1310021+9999REMSYN08889664 32761 19903 11258 21336 39881 49926 53002 81500 333 11233 21269 56700 58021 81650=
0155896640876012017040117554-77850+166667FM-15+002499999V0209999C000010137219N009999199-02501-03201099281ADDGA1071+013721999GE19MSL   +99999+99999GF199999071999013721999999MA1099221098835REMMET064METAR NZCM 011755Z 00000KT 9999 BKN045 M25/M32 A2930 RMK SLP928=
0175896640876012017040118004-77850+166667FM-12+002499999V0209999C000010135019N011000199-02511-03201099281ADDGA1061+013501061GE19MSL   +99999+99999GF106991061999013501999999MA1099215098831MD1310021+9999REMSYN07089664 32661 60000 11251 21320 39883 49928 53002 86500 333 56700 86645=
0155896640876012017040123554-77850+166667FM-15+002499999V0203301N004119999999N009999199-02101-02801099181ADDGA1021+004571999GE19MSL   +99999+99999GF199999021999004571999999MA1099121098745REMMET064METAR NZCM 012355Z 33008KT 9999 FEW015 M21/M28 A2927 RMK SLP918=
0219896640876012017040200004-77850+166667FM-12+002499999V0203301N004119999999N011000199-02081-02501099181ADDGA1011+004501061GE19MSL   +99999+99999GF101991011999004501999999KA1120M-02081KA2120N-02651MA1099115098731MD1810061+9999REMSYN08889664 32461 13308 11208 21250 39873 49918 58006 81500 333 11208 21265 56700 59007 81615=
0155896640876012017040205554-77850+166667FM-15+002499999V0203201N004119999999N009999199-02001-02801099021ADDGA1021+004571999GE19MSL   +99999+99999GF199999021999004571999999MA1098951098585REMMET064METAR NZCM 020555Z 32008KT 9999 FEW015 M20/M28 A2922 RMK SLP902=
0175896640876012017040206004-77850+166667FM-12+002499999V0203201N004119999999N011000199-02031-02771099021ADDGA1011+004501061GE19MSL   +99999+99999GF101991011999004501999999MA1098965098581MD1610091+9999REMSYN07089664 32461 13208 11203 21277 39858 49902 56009 81500 333 56700 81615=
0155896640876012017040211554-77850+166667FM-15+002499999V0203001N006219999999N009999199-02101-02901098861ADDGA1021+004571999GE19MSL   +99999+99999GF199999021999004571999999MA1098781098425REMMET064METAR NZCM 021155Z 30012KT 9999 FEW015 M21/M29 A2917 RMK SLP886=
0219896640876012017040212004-77850+166667FM-12+002499999V0203001N006219999999N011000199-02061-02871098861ADDGA1011+004501061GE19MSL   +99999+99999GF101991011999004501999999KA1240M-02011KA2240N-02391MA1098795098411MD1810091+9999REMSYN08889664 32461 13012 11206 21287 39841 49886 58009 81500 333 11201 21239 56700 59040 81615=
0166896640876012017040217554-77850+166667FM-15+002499999V0203401N003119999999N009999199-02001-02701098851ADDGA1021+010671999GE19MSL   +99999+99999GF199999021999010671999999MA1098781098415OC100721REMMET067METAR NZCM 021755Z 34006G14KT 9999 FEW035 M20/M27 A2917 RMK SLP885=
0169896640876012017040218004-77850+166667FM-12+002499999V0201201N001519999999N011000199+99999-02721098851ADDGA1011+010501061GE19MSL   +99999+99999GF101991011999010501999999MA1098795098411MD1310061+9999REMSYN06489664 32661 11203 21272 39841 49885 53006 81500 333 56700 81635=
0173896640876012017040220554-77850+166667FM-15+002499999V0200301N004119999999N009999199-02201-03101098951ADDGA1021+015241999GE19MSL   +99999+99999GF199999021999015241999999MA1098881098515REMMET082METAR NZCM 022055Z 03008KT 9999 FEW050 M22/M31 A2920 RMK SLP895 FATA MORGANA W-NW=
0187896640876012017040221004-77850+166667FM-12+002499999V0200301N004119999999N011000199-02221-03121098951ADDGA1011+015001061GE19MSL   +99999+99999GF101991011999015001999999MA1098895098511MD1210101+9999REMSYN08289664 42761 10308 11222 21312 39851 49895 52010 81500 333 56700 81650 99116 99117=
0198896640876012017040223554-77850+166667FM-15+002499999V0209999C00001054861CN009999199-02201-03001099001ADDGA1021+010671999GA2041+054861999GE19MSL   +99999+99999GF199999021999010671999999MA1098951098565REMMET091METAR NZCM 022355Z 00000KT 9999 FEW035 SCT180 M22/M30 A2922 RMK SLP900 FATA MORGANA S-W-NW=
0265896640876012017040300004-77850+166667FM-12+002499999V0209999C000019999999N011000199-02211-03011099001ADDGA1011+010501061GA2031+054001001GE19MSL   +99999+99999GF103991011999010501999999KA1120M-02011KA2120N-02641MA1098945098561MD1210051+9999REMSYN11889664 32661 30000 11221 21301 39856 49900 52005 81501 333 11201 21264 56303 59017 81635 83068 99114 99115 99116 99117=
0155896640876012017040305554-77850+166667FM-15+002499999V0203201N004119999999N009999199-02001-02701098761ADDGA1021+010671999GE19MSL   +99999+99999GF199999021999010671999999MA1098681098325REMMET064METAR NZCM 030555Z 32008KT 9999 FEW035 M20/M27 A2914 RMK SLP876=
0175896640876012017040306004-77850+166667FM-12+002499999V0203201N004119999999N011000199-01961-02741098761ADDGA1011+010501061GE19MSL   +99999+99999GF101991011999010501999999MA1098705098321MD1710161+9999REMSYN07089664 32661 13208 11196 21274 39832 49876 57016 81500 333 56300 81635=
0155896640876012017040308554-77850+166667FM-15+002499999V0203201N008219999999N009999199-02001-02801098471ADDGA1021+030481999GE19MSL   +99999+99999GF199999021999030481999999MA1098411098035REMMET064METAR NZCM 030855Z 32016KT 9999 FEW100 M20/M28 A2906 RMK SLP847=
0175896640876012017040309004-77850+166667FM-12+002499999V0203201N008219999999N011000199-01961-02771098471ADDGA1011+030001031GE19MSL   +99999+99999GF101991011999030001999999MA1098405098031MD1710291+9999REMSYN07089664 42961 13216 11196 21277 39803 49847 57029 81030 333 56030 81360=
0187896640876012017040311554-77850+166667FM-15+002499999V0209999V002619999999N009999199-02101-03301098331ADDGA1021+030481999GE19MSL   +99999+99999GF199999021999030481999999MA1098271097895OD149901391340REMMET082METAR NZCM 031155Z VRB05KT 9999 FEW100 M21/M33 A2902 RMK PK WND 34027/1046 SLP833=
0219896640876012017040312004-77850+166667FM-12+002499999V0209999V002619999999N011000199-02101-03281098331ADDGA1011+030001031GE19MSL   +99999+99999GF101991011999030001999999KA1240M-01841KA2240N-02151MA1098265097891MD1610141+9999REMSYN08889664 32961 19905 11210 21328 39789 49833 56014 81030 333 11184 21215 56030 59052 81360=
0136896640876012017040317554-77850+166667FM-15+002499999V0200901N006712200019N009999199-03201-03701098211ADDGF100991999999999999999999MA1098141097755MW1401REMMET077METAR NZCM 031755Z 09013KT 9999 VCFG SKC M32/M37 A2898 RMK SLP821 VCFG SW-NW=
0178896640876012017040320554-77850+166667FM-15+002499999V0200901N005119999999N009999199-02601-03101098231ADDGA1021+015241999GE19MSL   +99999+99999GF199999021999015241999999MA1098171097785MW1401REMMET081METAR NZCM 032055Z 09010KT 9999 VCFG FEW050 M26/M31 A2899 RMK SLP823 VCFG S-W-NW=
0203896640876012017040321004-77850+166667FM-12+002499999V0200901N005119999999N011000199-02571-03131098231ADDAY101021AY201021GA1011+015001061GE19MSL   +99999+99999GF101991011999015001999999MA1098165097791MD1310031+9999MW1401REMSYN07689664 41761 10910 11257 21313 39779 49823 53003 74000 81500 333 56700 81650=
0204896640876012017040323554-77850+166667FM-15+002499999V0200601N003119999999N009999199-02401-03001098201ADDGA1021+004571999GE19MSL   +99999+99999GF199999021999004571999999MA1999995097765REMMET094METAR NZCM 032355Z 06006KT 9999 FEW015 M24/M30 A2998 RMK SLP820 VCFG S-W-NW FATA MORGANA SE-S=EQDQ011015.23APOA  
0259896640876012017040400004-77850+166667FM-12+002499999V0200601N003119999999N011000199-02421-03001098201ADDAY101021AY201021GA1011+004501061GE19MSL   +99999+99999GF101991011999004501999999KA1120M-02101KA2120N-03401MA1098145097771MD1810031+9999MW1401REMSYN10689664 31461 10606 11242 21300 39777 49820 58003 74000 81500 333 11210 21340 56700 59079 81615 99113 99114=
0164896640876012017040405554-77850+166667FM-15+002499999V0209999C000019999999N001600199-02501-02901097991ADDGA1041+004571999GE19MSL   +99999+99999GF199999041999004571999999MA1097931097555MW1101REMMET067METAR NZCM 040555Z 00000KT 1600 BR SCT015 M25/M29 A2892 RMK SLP799=
0203896640876012017040406004-77850+166667FM-12+002499999V0209999C000019999999N001600199-02551-02941097991ADDAY101021AY201021GA1031+004501061GE19MSL   +99999+99999GF103991031999004501999999MA1097915097541MD1610141+9999MW1101REMSYN07689664 31416 30000 11255 21294 39754 49799 56014 71000 83500 333 56700 83615=
0166896640876012017040408554-77850+166667FM-15+002499999V0203201N007219999999N009999199-02101-02501097821ADDGA1021+004571999GE19MSL   +99999+99999GF199999021999004571999999MA1097761097395OC101131REMMET067METAR NZCM 040855Z 32014G22KT 9999 FEW015 M21/M25 A2887 RMK SLP782=
0175896640876012017040409004-77850+166667FM-12+002499999V0203201N007219999999N011000199-02061-02491097821ADDGA1011+004501061GE19MSL   +99999+99999GF101991011999004501999999MA1097755097381MD1610161+9999REMSYN07089664 42461 13214 11206 21249 39738 49782 56016 81500 333 56700 81615=
0166896640876012017040411554-77850+166667FM-15+002499999V0203501N005119999999N009999199-01901-02901097871ADDGA1021+004571999GE19MSL   +99999+99999GF199999021999004571999999MA1097801097445OC100981REMMET067METAR NZCM 041155Z 35010G19KT 9999 FEW015 M19/M29 A2888 RMK SLP787=
0219896640876012017040412004-77850+166667FM-12+002499999V0203501N005119999999N011000199-01911-02871097871ADDGA1011+004501061GE19MSL   +99999+99999GF101991011999004501999999KA1240M-01901KA2240N-02621MA1097805097431MD1110051+9999REMSYN08889664 32461 13510 11191 21287 39743 49787 51005 81500 333 11190 21262 56700 59046 81615=
0154896640876012017040417554-77850+166667FM-15+002499999V0209999V003119999999N008000199-02505-03005098791ADDMA1098715999999MW1101REMMET102METAR NZCM 041755Z VRB06KT 8000 BR VCBLSN OVC080 M25/M30 A2915 RMK PK WND 08026/06 SLP879 VCBLSN SE-S=EQDD01      0ADE693
0203896640876012017040418004-77850+166667FM-12+002499999V0209999V003110240019N008000199-02541-02991098791ADDAY111021AY211021GA1081+024001031GE19MSL   +99999+99999GF108991081999024001999999MA1098711098331MD1310671+9999MW1101REMSYN07689664 31858 89906 11254 21299 39833 49879 53067 71011 88070 333 56020 88358=
0213896640876012017040420554-77850+166667FM-15+002499999V0201401N00411003051WN001000199-02501-02801099231ADDGA1091+003051999GE19MSL   +99999+99999GF109991091999003051999999MA1099151098785MW1101MW2711OD149901541050REMMET096METAR NZCM 042055Z 14008KT 1000 -SN BR VV010 M25/M28 A2928 RMK PK WND 05030/1848 SNB1830 SLP923=
0197896640876012017040421004-77850+166667FM-12+002499999V0201401N004110030019N001000199-02461-02851099231ADDAY171021AY231021GA1091+003001999GE19MSL   +99999+99999GF109991091999003001999999MA1099175098791MD1210461+9999MW1711REMSYN07089664 41/10 91408 11246 21285 39879 49923 52046 77173 333 89/10 96010=
0218896640876012017040423554-77850+166667FM-15+002499999V0201501N01241000911WN000200199-02301-02601099391ADDGA1091+000911999GE19MSL   +99999+99999GF109991091999000911999999MA1099361098945MW1381MW2711OC101751OD149902411180REMMET093METAR NZCM 042355Z 15024G34KT 0200 -SN BLSN VV003 M23/M26 A2934 RMK PK WND 18047/2226 SLP939=
0286896640876012017040500004-77850+166667FM-12+002499999V0201501N012410009019N000200199-02271-02621099391ADDAA106000531AL19900331AY171021AY231021GA1091+000901999GE19MSL   +99999+99999GF109991091999000901999999KA1120M-01911KA2120N-03071MA1099335098951MD1210161+9999MW1711REMSYN11289664 11/02 91524 11227 21262 39895 49939 52016 69951 77173 333 01847 11191 21307 58118 89/03 90962 93103 96038=
0218896640876012017040505554-77850+166667FM-15+002499999V0201601N02161001221WN000200199-02101-02401099431ADDGA1091+001221999GE19MSL   +99999+99999GF109991091999001221999999MA1099421098995MW1381MW2711OC102681OD149903391200REMMET093METAR NZCM 050555Z 16042G52KT 0200 -SN BLSN VV004 M21/M24 A2936 RMK PK WND 20066/0306 SLP943=
0198896640876012017040506004-77850+166667FM-12+002499999V0201601N021619999999N000200199-02071-02371099431ADDAA106000531AL19900331AY171021AY231021GF108991999999999999999999MA1099375098991MD1110381+9999MW1711REMSYN08889664 11/02 81642 11207 21237 39899 49943 51038 69951 77173 333 02066 90973 93103 96038=
0218896640876012017040508554-77850+166667FM-15+002499999V0201801N02321001221WN000200199-01901-02201099561ADDGA1091+001221999GE19MSL   +99999+99999GF109991091999001221999999MA1099491099125MW1381MW2711OC102831OD149903081180REMMET093METAR NZCM 050855Z 18045G55KT 0200 -SN BLSN VV004 M19/M22 A2938 RMK PK WND 18060/0734 SLP956=
0197896640876012017040509004-77850+166667FM-12+002499999V0201801N023210012019N000200199-01891-02171099561ADDAY171021AY231021GA1091+001201999GE19MSL   +99999+99999GF109991091999001201999999MA1099495099111MD1110121+9999MW1711REMSYN07089664 41/02 91845 11189 21217 39911 49956 51012 77173 333 89/04 96038=
0230896640876012017040511554-77850+166667FM-15+002499999V0201401N008210048819N003200199-02201-02601100141ADDGA1081+004881999GE19MSL   +99999+99999GF199999081999004881999999MA1100071099695MW1381MW2711OC101341OD149903081180REMMET105METAR NZCM 051155Z 14016G26KT 3200 -SN BLSN OVC016 M22/M26 A2955 RMK PK WND 18060/0908 WSHFT 1121 SLP014=
0298896640876012017040512004-77850+166667FM-12+002499999V0201401N008210048019N001600199-02241-02561100141ADDAA112000831AL19900531AY171021AY231021GA1081+004801061GE19MSL   +99999+99999GF108991081999004801999999KA1240M-01861KA2240N-02301MA1100075099691MD1210581+9999MW1711REMSYN12489664 11416 81416 11224 21256 39969 40014 52058 69982 77173 885// 333 01860 11186 21230 56499 58226 88616 90983 93105 96038=
0203896640876012017040517554-77850+166667FM-15+002499999V0200901N005110121919N009999199-02001-02201099851ADDGA1071+012191999GE19MSL   +99999+99999GF199999071999012191999999MA1099801099415MW1361OC101031REMMET098METAR NZCM 051755Z 09010G20KT 9999 DRSN BKN040 M20/M22 A2947 RMK PK WND 15034/1420 SNE1600 SLP985=
0233896640876012017040523554-77850+166667FM-15+002499999V0201101N00511045721CN009999199-01701-02001099451ADDGA1021+004571999GA2021+015241999GA3021+045721999GE19MSL   +99999+99999GF199999021999004571999999MA1099391099025OD149901541150REMMET096METAR NZCM 052355Z 11010KT 9999 FEW015 FEW050 FEW150 M17/M20 A2935 RMK PK WND 15030/2026 SLP945=
0274896640876012017040600004-77850+166667FM-12+002499999V0201101N005119999999N011000199-01751-02001099451ADDAA124000831AL19900431GA1011+004501061GA2999+999999001GE19MSL   +99999+99999GF101991011999004501999999KA1120M-01601KA2120N-02201MA1099395099011MD1610131+9999REMSYN10689664 12461 11110 11175 21200 39901 49945 56013 69984 81501 333 11160 21220 56404 58006 81615 90973 93104=
0155896640876012017040605554-77850+166667FM-15+002499999V0200401N002119999999N009999199-01701-02101099041ADDGA1021+015241999GE19MSL   +99999+99999GF199999021999015241999999MA1098981098615REMMET064METAR NZCM 060555Z 04004KT 9999 FEW050 M17/M21 A2923 RMK SLP904=
0155896640876012017040611554-77850+166667FM-15+002499999V0200601N001519999999N009999199-01701-02001098761ADDGA1021+015241999GE19MSL   +99999+99999GF199999021999015241999999MA1098711098335REMMET064METAR NZCM 061155Z 06003KT 9999 FEW050 M17/M20 A2915 RMK SLP876=
0219896640876012017040612004-77850+166667FM-12+002499999V0200601N001519999999N011000199-01741-01991098761ADDGA1011+015001061GE19MSL   +99999+99999GF101991011999015001999999KA1240M-01491KA2240N-01821MA1098705098321MD1610281+9999REMSYN08889664 32761 10603 11174 21199 39832 49876 56028 81500 333 11149 21182 56400 59137 81650=
0178896640876012017040617554-77850+166667FM-15+002499999V0200401N00411015241CN009999199-01501-02101098521ADDGA1021+001221999GA2041+015241999GE19MSL   +99999+99999GF199999021999001221999999MA1098481098095REMMET071METAR NZCM 061755Z 04008KT 9999 FEW004 SCT050 M15/M21 A2908 RMK SLP852=
0197896640876012017040618004-77850+166667FM-12+002499999V0200401N004119999999N011000199-01511-02121098521ADDGA1011+001201071GA2031+015001061GE19MSL   +99999+99999GF103991011999001201999999MA1098475098091MD1610111+9999REMSYN07689664 32261 30408 11151 21212 39809 49852 56011 83500 333 56400 81704 83650=
0175896640876012017040623554-77850+166667FM-15+002499999V0200201N005719999999N009999199-01701-02401098391ADDGA1021+007321999GE19MSL   +99999+99999GF199999021999007321999999MA1098341097965REMMET084METAR NZCM 062355Z 02011KT 9999 FEW024 M17/M24 A2904 RMK SLP839 FATA MORGANA SE-S-W=
0219896640876012017040700004-77850+166667FM-12+002499999V0200201N005719999999N011000199-01721-02381098391ADDGA1011+007201061GE19MSL   +99999+99999GF101991011999007201999999KA1120M-01281KA2120N-02171MA1098325097951MD1610071+9999REMSYN08889664 42561 10211 11172 21238 39795 49839 56007 81500 333 11128 21217 56800 59106 81624=
0175896640876012017040705554-77850+166667FM-15+002499999V0200901N006719999999N009999199-02001-02601098391ADDGA1021+009141999GE19MSL   +99999+99999GF199999021999009141999999MA1098311097955MW1401REMMET078METAR NZCM 070555Z 09013KT 9999 VCFG FEW030 M20/M26 A2903 RMK SLP839 VCFG S-W=
0166896640876012017040711554-77850+166667FM-15+002499999V0200801N009319999999N009999199-02301-02801098521ADDGA1021+009141999GE19MSL   +99999+99999GF199999021999009141999999MA1098481098085OC101291REMMET067METAR NZCM 071155Z 08018G25KT 9999 FEW030 M23/M28 A2908 RMK SLP852=
0219896640876012017040712004-77850+166667FM-12+002499999V0200801N009319999999N011000199-02331-02821098521ADDGA1011+009001061GE19MSL   +99999+99999GF102991011999009001999999KA1240M-01361KA2240N-02371MA1098465098081MD1210061+9999REMSYN08889664 32561 20818 11233 21282 39808 49852 52006 81500 333 11136 21237 56800 59024 81630=
0155896640876012017040717554-77850+166667FM-15+002499999V0200801N003110048819N009999199-02101-02601098661ADDGA1071+004881999GE19MSL   +99999+99999GF199999071999004881999999MA1098581098225REMMET064METAR NZCM 071755Z 08006KT 9999 BKN016 M21/M26 A2911 RMK SLP866=
0175896640876012017040718004-77850+166667FM-12+002499999V0200801N003110048019N011000199-02131-02631098661ADDGA1071+004801061GE19MSL   +99999+99999GF107991071999004801999999MA1098605098221MD1310071+9999REMSYN07089664 32461 70806 11213 21263 39822 49866 53007 87500 333 56400 87616=
0223896640876012017040723554-77850+166667FM-15+002499999V0209999C000010152419N009000199-01701-02001098651ADDGA1021+004881999GA2071+015241999GA3071+022861999GE19MSL   +99999+99999GF199999021999004881999999MA1098581098225MW1711REMMET094METAR NZCM 072355Z COR 00000KT 9000 -SN FEW016 BKN050 BKN075 M17/M20 A2911 RMK SNB2200 SLP865=
0302896640876012017040800004-77850+166667FM-12+002499999V0209999C00001015001CN009000199-01731-02051098651ADDAA106000021AL19900031AY171021AY221021GA1011+004801061GA2051+015001061GE19MSL   +99999+99999GF107991011999004801999999KA1120M-01731KA2120N-02521MA1098595098211MD1810011+9999MW1711REMSYN11289664 11459 70000 11173 21205 39821 49865 58001 69901 77172 85570 333 11173 21252 56440 81616 85650 90921 93197=
0211896640876012017040805554-77850+166667FM-15+002499999V0203201N002610152419N009999199-01501-01801098511ADDGA1041+004571999GA2071+015241999GA3081+022861999GE19MSL   +99999+99999GF199999041999004571999999MA1098441098085MW1711REMMET082METAR NZCM 080555Z 32005KT 9999 -SN SCT015 BKN050 OVC075 M15/M18 A2907 RMK SLP851=
0264896640876012017040806004-77850+166667FM-12+002499999V0203201N002610150019N011000199-01461-01811098511ADDAA106000531AL19900231AY171021AY271021GA1031+004501061GA2061+015001061GE19MSL   +99999+99999GF108991031999004501999999MA1098445098071MD1610081+9999MW1711REMSYN10089664 11461 83205 11146 21181 39807 49851 56008 69951 77177 8757/ 333 56449 83615 86650 90973 93102=
0165896640876012017040811554-77850+166667FM-15+002499999V0203401N002610045719N009999199-01501-01801098351ADDGA1071+004571999GE19MSL   +99999+99999GF199999071999004571999999MA1098311097925MW1711REMMET068METAR NZCM 081155Z 34005KT 9999 -SN BKN015 M15/M18 A2903 RMK SLP835=
0286896640876012017040812004-77850+166667FM-12+002499999V0203401N002610045019N011000199-01461-01841098351ADDAA112000531AL19900231AY171021AY271021GA1071+004501061GE19MSL   +99999+99999GF107991071999004501999999KA1240M-01451KA2240N-02521MA1098295097921MD1610121+9999MW1711REMSYN11289664 11461 73405 11146 21184 39792 49835 56012 69952 77177 87500 333 11145 21252 56400 59016 87615 90983 93102=
0211896640876012017040817554-77850+166667FM-15+002499999V0203301N003610106719N009999199-01401-01701098171ADDGA1021+004571999GA2071+010671999GA3071+022861999GE19MSL   +99999+99999GF199999021999004571999999MA1098101097755MW1711REMMET082METAR NZCM 081755Z 33007KT 9999 -SN FEW015 BKN035 BKN075 M14/M17 A2897 RMK SLP817=
0264896640876012017040818004-77850+166667FM-12+002499999V0203301N00361010501CN011000199-01431-01751098171ADDAA118000831AL19900331AY171021AY271021GA1011+004501061GA2051+010501061GE19MSL   +99999+99999GF106991011999004501999999MA1098115097741MD1710081+9999MW1711REMSYN10089664 11461 63307 11143 21175 39774 49817 57008 69983 77177 85570 333 56440 81615 85635 90983 93103=
0233896640876012017040823554-77850+166667FM-15+002499999V0203301N003110106719N008000199-01401-01801098131ADDGA1021+004571999GA2071+010671999GA3071+021341999GE19MSL   +99999+99999GF199999021999004571999999MA1098071097715MW1101MW2711REMMET098METAR NZCM 082355Z 33006KT 8000 -SN BR FEW015 BKN035 BKN070 M14/M18 A2896 RMK SNE1920B2035 SLP813=
0308896640876012017040900004-77850+166667FM-12+002499999V0203301N00311010501CN008000199-01451-01781098131ADDAA124000831AL19900331AY171021AY221021GA1021+004501061GA2051+010501061GE19MSL   +99999+99999GF106991021999004501999999KA1120M-01401KA2120N-01481MA1098085097711MD1610011+9999MW1711REMSYN11889664 11458 63306 11145 21178 39771 49813 56001 69984 77172 85570 333 11140 21148 56840 59050 82615 85635 90946 93103=
0211896640876012017040905554-77850+166667FM-15+002499999V0200201N002110213419N009000199-01701-01901098091ADDGA1041+004571999GA2071+021341999GA3071+060961999GE19MSL   +99999+99999GF199999041999004571999999MA1098041097665MW1711REMMET082METAR NZCM 090555Z 02004KT 9000 -SN SCT015 BKN070 BKN200 M17/M19 A2895 RMK SLP809=
0280896640876012017040906004-77850+166667FM-12+002499999V0200201N002110210019N009000199-01661-01951098091ADDAA106000021AL19900031AY171021AY271021GA1031+004501061GA2061+021001031GA3999+999999001GE19MSL   +99999+99999GF107991031999004501999999MA1098035097661MD1610041+9999MW1711REMSYN10089664 11459 70204 11166 21195 39766 49809 56004 69901 77177 83532 333 56844 83615 86357 90973 93197=
0165896640876012017040911554-77850+166667FM-15+002499999V0209999V001010045719N008000199-01501-01801098011ADDGA1071+004571999GE19MSL   +99999+99999GF199999071999004571999999MA1097971097585MW1711REMMET068METAR NZCM 091155Z VRB02KT 8000 -SN BKN015 M15/M18 A2893 RMK SLP801=
0286896640876012017040912004-77850+166667FM-12+002499999V0209999V001010045019N008000199-01521-01791098011ADDAA112000021AL19900031AY171021AY271021GA1071+004501061GE19MSL   +99999+99999GF107991071999004501999999KA1240M-01461KA2240N-01701MA1097965097591MD1810061+9999MW1711REMSYN11289664 11458 79902 11152 21179 39759 49801 58006 69902 77177 87500 333 11146 21170 56800 59033 87615 90983 93197=
0188896640876012017040917554-77850+166667FM-15+002499999V0200901N001510061019N008000199-01501-01901097971ADDGA1071+006101999GA2081+012191999GE19MSL   +99999+99999GF199999071999006101999999MA1097931097545MW1711REMMET075METAR NZCM 091755Z 09003KT 8000 -SN BKN020 OVC040 M15/M19 A2892 RMK SLP797=
0242896640876012017040918004-77850+166667FM-12+002499999V0200901N001510060019N008000199-01551-01891097971ADDAA118000531AL19900231AY171021AY271021GA1051+006001061GE19MSL   +99999+99999GF108991051999006001999999MA1097915097541MD1610021+9999MW1711REMSYN09489664 11558 80903 11155 21189 39754 49797 56002 69953 77177 885// 333 56899 85620 90983 93102=
0174896640876012017040923554-77850+166667FM-15+002499999V0201001N003110045719N003200199-01601-01901097891ADDGA1081+004571999GE19MSL   +99999+99999GF199999081999004571999999MA1097831097465MW1101MW2711REMMET071METAR NZCM 092355Z 10006KT 3200 -SN BR OVC015 M16/M19 A2889 RMK SLP789=
0292896640876012017041000004-77850+166667FM-12+002499999V0201001N003110045019N003200199-01651-01951097891ADDAA124002031AL19900831AY171021AY271021GA1081+004501061GE19MSL   +99999+99999GF108991081999004501999999KA1120M-01431KA2120N-01701MA1097845097471MD1810011+9999MW1711REMSYN11889664 11432 81006 11165 21195 39747 49789 58001 60024 77177 885// 333 11143 21170 56899 59024 88615 90983 93108 96010=
0165896640876012017041005554-77850+166667FM-15+002499999V0209999C000010106719N008000199-01601-02001097681ADDGA1081+010671999GE19MSL   +99999+99999GF199999081999010671999999MA1097631097255MW1711REMMET068METAR NZCM 100555Z 00000KT 8000 -SN OVC035 M16/M20 A2883 RMK SLP768=
0242896640876012017041006004-77850+166667FM-12+002499999V0209999C000010105019N003500199-01581-01961097681ADDAA106000331AL19900131AY171021AY271021GA1081+010501061GE19MSL   +99999+99999GF108991081999010501999999MA1097635097261MD1610081+9999MW1711REMSYN09489664 11635 80000 11158 21196 39726 49768 56008 69931 77177 885// 333 56899 88635 90983 93101=
0163896640876012017041011554-77850+166667FM-15+002499999V0203201N006219999999N009999199-01401-01701097461ADDGA1021+010671999GE19MSL   +99999+99999GF199999021999010671999999MA1097391097045REMMET072METAR NZCM 101155Z 32012KT 9999 FEW035 M14/M17 A2876 RMK SNE1000 SLP746=
0286896640876012017041012004-77850+166667FM-12+002499999V0203201N006219999999N011000199-01441-01741097461ADDAA112000331AL19900131AY171021AY211021GA1021+010501061GE19MSL   +99999+99999GF102991021999010501999999KA1240M-01441KA2240N-01811MA1097405097031MD1810151+9999MW1011REMSYN11289664 11661 23212 11144 21174 39703 49746 58015 69932 70171 82500 333 11144 21181 56800 59056 82635 90923 93101=
0189896640876012017041017554-77850+166667FM-15+002499999V0203401N007210213419N009999199-01401-02101097181ADDGA1021+010671999GA2071+021341999GE19MSL   +99999+99999GF199999021999010671999999MA1097121096765OC101081REMMET074METAR NZCM 101755Z 34014G21KT 9999 FEW035 BKN070 M14/M21 A2868 RMK SLP718=
0214896640876012017041023554-77850+166667FM-15+002499999V0203101N003610213419N009999199-01501-02101097221ADDGA1021+009141999GA2071+021341999GA3071+025911999GE19MSL   +99999+99999GF199999021999009141999999MA1097161096805REMMET091METAR NZCM 102355Z 31007KT 9999 FEW030 BKN070 BKN085 M15/M21 A2869 RMK SLP722 SN DSNT S-SW=
0327896640876012017041100004-77850+166667FM-12+002499999V0203101N00361999999CN011000199-01501-02051097221ADDAA124000331AL19900131AY121021AY221021GA1011+009001061GA2062+021001041GE19MSL   +99999+99999GF101992011999009001999999KA1120M-01331KA2120N-01781MA1097175096801MD1110041+9999MW1151REMSYN11889664 11561 13107 11150 21205 39680 49722 51004 69934 71522 81520 333 11133 21178 56730 59067 81630 86457 90983 93101=EQDQ01 021003SCOCIG
0211896640876012017041105554-77850+166667FM-15+002499999V0201101N003610213419N009000199-01401-01901097351ADDGA1041+009141999GA2071+021341999GA3071+060961999GE19MSL   +99999+99999GF199999041999009141999999MA1097291096935MW1711REMMET082METAR NZCM 110555Z 11007KT 9000 -SN SCT030 BKN070 BKN200 M14/M19 A2873 RMK SLP735=
0129896640876012017041111554-77850+166667FM-15+002499999V0200701N006719999999N009999199+99999+99999097391ADDMW1165REMMET092METAR NZCM 111155Z 07013KT 9999 VCBLSN FEW025 M17/M21 A2874 RMK SNE1000 SLP739 VCBLSN SE-SW=EQDD01      0ADE735
0286896640876012017041112004-77850+166667FM-12+002499999V0200701N006719999999N011000199-01721-02111097391ADDAA112000331AL19900131AY171021AY211021GA1021+007501061GE19MSL   +99999+99999GF102991021999007501999999KA1240M-01401KA2240N-01811MA1097335096961MD1810031+9999MW1011REMSYN11289664 11561 20713 11172 21211 39696 49739 58003 69932 70171 82500 333 11140 21181 56700 59007 82625 90923 93101=
0212896640876012017041117554-77850+166667FM-15+002499999V0203301N00361019811CN009999199-01601-01901097371ADDGA1021+009141999GA2041+019811999GA3071+025911999GE19MSL   +99999+99999GF199999021999009141999999MA1097321096955OC100721REMMET081METAR NZCM 111755Z 33007G14KT 9999 FEW030 SCT065 BKN085 M16/M19 A2874 RMK SLP737=
0236896640876012017041118004-77850+166667FM-12+002499999V0203301N003619999999N011000199-01601-01921097371ADDAA118000331AL19900131GA1011+009001061GA2041+004501061GE19MSL   +99999+99999GF105991011999009001999999MA1097325096951MD1810031+9999REMSYN09489664 12561 53307 11160 21192 39695 49737 58003 69933 84520 333 56730 81630 84615 90973 93101=
0201896640876012017041123554-77850+166667FM-15+002499999V0203301N00721025911CN009999199-01601-01901097361ADDGA1021+003051999GA2021+015241999GA3041+025911999GE19MSL   +99999+99999GF199999021999003051999999MA1097291096945REMMET078METAR NZCM 112355Z 33014KT 9999 FEW010 FEW050 SCT085 M16/M19 A2873 RMK SLP736=
0280896640876012017041200004-77850+166667FM-12+002499999V0203301N007212200019N011000199-01611-01921097361ADDAA124000331AL19900131GA1011+003001061GA2031+024001031GE19MSL   +99999+99999GF103991011999003001999999KA1120M-01541KA2120N-01941MA1097305096931MD1110011+9999REMSYN11289664 12461 33314 11161 21192 39693 49736 51001 69934 82530 333 11154 21194 56730 58013 81610 83358 90983 93101=
0201896640876012017041205554-77850+166667FM-15+002499999V0203101N004110198119N009999199-01401-02101097541ADDGA1021+003051999GA2071+019811999GA3071+024381999GE19MSL   +99999+99999GF199999021999003051999999MA1097491097125REMMET078METAR NZCM 120555Z 31008KT 9999 FEW010 BKN065 BKN080 M14/M21 A2879 RMK SLP754=
0197896640876012017041206004-77850+166667FM-12+002499999V0203101N00411018001CN011000199-01441-02081097541ADDGA1011+003001061GA2051+018001061GE19MSL   +99999+99999GF106991011999003001999999MA1097495097121MD1310181+9999REMSYN07689664 32461 63108 11144 21208 39712 49754 53018 85570 333 56770 81610 85656=
0155896640876012017041211554-77850+166667FM-15+002499999V0203301N00511015241CN009999199-01301-01901097831ADDGA1081+015241999GE19MSL   +99999+99999GF199999081999015241999999MA1097761097415REMMET064METAR NZCM 121155Z 33010KT 9999 OVC050 M13/M19 A2887 RMK SLP783=
0219896640876012017041212004-77850+166667FM-12+002499999V0203301N00511015001CN011000199-01321-01871097831ADDGA1081+015001061GE19MSL   +99999+99999GF108991081999015001999999KA1240M-01321KA2240N-01631MA1097785097411MD1110171+9999REMSYN08889664 32761 83310 11132 21187 39741 49783 51017 885// 333 11132 21163 56799 58045 88650=
0155896640876012017041217554-77850+166667FM-15+002499999V0203301N00211021341CN009999199-01301-01901098251ADDGA1071+021341999GE19MSL   +99999+99999GF199999071999021341999999MA1098201097835REMMET064METAR NZCM 121755Z 33004KT 9999 BKN070 M13/M19 A2900 RMK SLP825=
0175896640876012017041218004-77850+166667FM-12+002499999V0203301N00211021001CN011000199-01331-01891098251ADDGA1051+021001041GE19MSL   +99999+99999GF105991051999021001999999MA1098195097821MD1310221+9999REMSYN07089664 32861 53304 11133 21189 39782 49825 53022 85100 333 56300 85457=
0155896640876012017041223554-77850+166667FM-15+002499999V0200401N001519999999N009999199-01401-02201098391ADDGA1021+027431999GE19MSL   +99999+99999GF199999021999027431999999MA1098341097965REMMET064METAR NZCM 122355Z 04003KT 9999 FEW090 M14/M22 A2904 RMK SLP839=
0155896640876012017041305554-77850+166667FM-15+002499999V0209999V001519999999N009999199-01501-02001098421ADDGA1021+027431999GE19MSL   +99999+99999GF199999021999027431999999MA1098371097995REMMET064METAR NZCM 130555Z VRB03KT 9999 FEW090 M15/M20 A2905 RMK SLP842=
0175896640876012017041306004-77850+166667FM-12+002499999V0209999V001512200019N011000199-01501-02001098421ADDGA1011+027001031GE19MSL   +99999+99999GF101991011999027001999999MA1098355097981MD1510001+9999REMSYN07089664 32961 19903 11150 21200 39798 49842 55000 81070 333 56030 81359=
0155896640876012017041311554-77850+166667FM-15+002499999V0203401N002619999999N009999199-01601-02001098491ADDGA1021+027431999GE19MSL   +99999+99999GF199999021999027431999999MA1098441098065REMMET064METAR NZCM 131155Z 34005KT 9999 FEW090 M16/M20 A2907 RMK SLP849=
0219896640876012017041312004-77850+166667FM-12+002499999V0203401N002612200019N011000199-01611-01991098491ADDGA1021+027001031GE19MSL   +99999+99999GF102991021999027001999999KA1240M+01091KA2240N-01921MA1098435098061MD1310081+9999REMSYN08889664 32961 23405 11161 21199 39806 49849 53008 82070 333 10109 21192 56030 58065 82359=
0159896640876012017041317554-77850+166667FM-15+002499999V0209999V003119999999N009999199-01701-02101098481ADDGA1021+006101999GE19MSL   +99999+99999GF199999021999006101999999MA1098411098055REMMET068METAR NZCM 131755Z COR VRB06KT 9999 FEW020 M17/M21 A2906 RMK SLP848=
0175896640876012017041318004-77850+166667FM-12+002499999V0209999V003112200019N011000199-01731-02141098481ADDGA1011+006001061GE19MSL   +99999+99999GF101991011999006001999999MA1098415098041MD1990031+9999REMSYN07089664 32561 19906 11173 21214 39804 49848 50003 81500 333 56700 81620=
0166896640876012017041323554-77850+166667FM-15+002499999V0209999C00001001221CN000600199-01701-02101098561ADDGA1081+001221999GE19MSL   +99999+99999GF199999081999001221999999MA1098481098135MW1481REMMET069METAR NZCM 132355Z 00000KT 0600 FZFG OVC004 M17/M21 A2908 RMK SLP856=
0203896640876012017041406004-77850+166667FM-12+002499999V0209999C00001001201CN001600199-01891-02181098521ADDAY141021AY221021GA1081+001201061GE19MSL   +99999+99999GF108991081999001201999999MA1098465098081MD1610051+9999MW1101REMSYN07689664 31216 80000 11189 21218 39808 49852 56005 71042 885// 333 56799 88604=
0164896640876012017041411554-77850+166667FM-15+002499999V0203101N00311001831CN002400199-01701-01901098561ADDGA1081+001831999GE19MSL   +99999+99999GF199999081999001831999999MA1098481098135MW1101REMMET067METAR NZCM 141155Z 31006KT 2400 BR OVC006 M17/M19 A2908 RMK SLP856=
0247896640876012017041412004-77850+166667FM-12+002499999V0203101N00311001801CN002400199-01701-01951098561ADDAY121021AY221021GA1081+001801061GE19MSL   +99999+99999GF108991081999001801999999KA1240M-01641KA2240N-01941MA1098505098121MD1110041+9999MW1101REMSYN09489664 31224 83106 11170 21195 39812 49856 51004 71022 885// 333 11164 21194 56799 58006 88606=
0187896640876012017041423554-77850+166667FM-15+002499999V0201001N004110213419N006000199-02001-02301098701ADDGA1041+002441999GA2071+021341999GE19MSL   +99999+99999GF199999041999002441999999MA1098651098265MW1101REMMET074METAR NZCM 142355Z 10008KT 6000 BR SCT008 BKN070 M20/M23 A2913 RMK SLP870=
0225896640876012017041500004-77850+166667FM-12+002499999V0201001N004110210019N006000199-02001-02301098701ADDAY121021AY221021GA1031+002401061GA2071+021001031GE19MSL   +99999+99999GF107991031999002401999999MA1098645098261MD1310021+9999MW1101REMSYN08289664 31356 71008 11200 21230 39826 49870 53002 71022 87530 333 56730 83608 87357=
0201896640876012017041505554-77850+166667FM-15+002499999V0209999C000010243819N009999199-02101-02401098841ADDGA1021+002131999GA2071+024381999GA3071+030481999GE19MSL   +99999+99999GF199999021999002131999999MA1098781098405REMMET078METAR NZCM 150555Z 00000KT 9999 FEW007 BKN080 BKN100 M21/M24 A2917 RMK SLP884=
0197896640876012017041506004-77850+166667FM-12+002499999V0209999C00001024001CN011000199-02061-02371098841ADDGA1011+002101061GA2051+024001031GE19MSL   +99999+99999GF106991011999002101999999MA1098785098401MD1310071+9999REMSYN07689664 32361 60000 11206 21237 39840 49884 53007 82570 333 56730 81607 85358=
0196896640876012017041511554-77850+166667FM-15+002499999V0200901N002610061019N009999199-02001-02301098951ADDGA1041+003351999GA2071+006101999GE19MSL   +99999+99999GF199999041999003351999999MA1098881098515MW1711REMMET083METAR NZCM 151155Z 09005KT 9999 -SN SCT011 BKN020 M20/M23 A2920 RMK SNB0900 SLP895=
0188896640876012017041517554-77850+166667FM-15+002499999V0200801N003610152419N009000199-02301-02601099091ADDGA1021+003961999GA2071+015241999GE19MSL   +99999+99999GF199999021999003961999999MA1099021098655MW1711REMMET075METAR NZCM 151755Z 08007KT 9000 -SN FEW013 BKN050 M23/M26 A2924 RMK SLP909=
0264896640876012017041518004-77850+166667FM-12+002499999V0200801N00361015001CN009000199-02301-02631099091ADDAA112000021AL19900031AY171021AY221021GA1011+003901071GA2051+015001061GE19MSL   +99999+99999GF105991011999003901999999MA1099035098651MD1310081+9999MW1711REMSYN10089664 11459 50807 11230 21263 39865 49909 53008 69902 77172 85500 333 56100 81713 85650 90973 93197=
0211896640876012017041523554-77850+166667FM-15+002499999V0209999V003110213419N009999199-02201-02601099381ADDGA1021+009141999GA2071+021341999GA3071+060961999GE19MSL   +99999+99999GF199999021999009141999999MA1099321098945MW1711REMMET082METAR NZCM 152355Z VRB06KT 9999 -SN FEW030 BKN070 BKN200 M22/M26 A2933 RMK SLP938=
0324896640876012017041600004-77850+166667FM-12+002499999V0209999V00311021001CN011000199-02251-02591099381ADDAA118000021AL19900031AY171021AY271021GA1021+009001061GA2061+021001031GA3999+999999001GE19MSL   +99999+99999GF107991021999009001999999KA1120M-01841KA2120N-02431MA1099315098931MD1310141+9999MW1711REMSYN11889664 11561 79906 11225 21259 39893 49938 53014 69903 77177 82571 333 11184 21243 56111 58067 82630 86357 90983 93197=
0186896640876012017041605554-77850+166667FM-15+002499999V0201201N00671060961CN009999199-02201-02501099561ADDGA1021+021341999GA2021+060961999GE19MSL   +99999+99999GF199999021999021341999999MA1099491099125REMMET079METAR NZCM 160555Z 12013KT 9999 FEW070 FEW200 M22/M25 A2938 RMK SNE0200 SLP956=
0258896640876012017041606004-77850+166667FM-12+002499999V0201201N006712200019N011000199-02171-02491099561ADDAA106000021AL19900031AY171021AY211021GA1011+021001031GA2999+999999001GE19MSL   +99999+99999GF102991011999021001999999MA1099495099111MD1310091+9999MW1011REMSYN09489664 11861 21213 11217 21249 39911 49956 53009 69901 70171 81071 333 56011 81357 90943 93197=
0228896640876012017041611554-77850+166667FM-15+002499999V0201101N00461021341CN009999199-02101-02501099761ADDGA1021+009141999GA2041+021341999GE19MSL   +99999+99999GF199999021999009141999999MA1099691099325MW1711OD149901391160REMMET101METAR NZCM 161155Z 11009KT 9999 -SN FEW030 SCT070 M21/M25 A2944 RMK PK WND 16027/1024 SNB0830 SLP976=
0308896640876012017041612004-77850+166667FM-12+002499999V0201101N004612200019N011000199-02141-02501099761ADDAA112000021AL19900031AY171021AY221021GA1011+009001061GA2041+021001031GE19MSL   +99999+99999GF104991011999009001999999KA1240M-01931KA2240N-02521MA1099705099321MD1990081+9999MW1711REMSYN11889664 11561 41109 11214 21250 39932 49976 50008 69902 77172 81570 333 11193 21252 56110 58081 81630 84357 90942 93197=
0203896640876012017041617554-77850+166667FM-15+002499999V0200401N008819999999N009999199-02401-03101099861ADDGA1021+021341999GE19MSL   +99999+99999GF199999021999021341999999MA1099801099415MW1361OC101391REMMET098METAR NZCM 161755Z 04017G27KT 9999 DRSN FEW070 M24/M31 A2947 RMK PK WND 03027/1708 SNE1430 SLP986=
0216896640876012017041623554-77850+166667FM-15+002499999V0200401N00931054861CN009999199-02601-03201099961ADDGA1021+021341999GA2021+054861999GE19MSL   +99999+99999GF199999021999021341999999MA1099901099515MW1361OC101291REMMET095METAR NZCM 162355Z 04018G25KT 9999 DRSN FEW070 FEW180 M26/M32 A2950 RMK PK WND 04027/39 SLP996=
0302896640876012017041700004-77850+166667FM-12+002499999V0200401N009312200019N011000199-02581-03251099961ADDAA124000021AL19900031AY101021AY201021GA1011+021001031GA2999+999999001GE19MSL   +99999+99999GF102991011999021001999999KA1120M-01981KA2120N-02591MA1099895099511MD1110041+9999MW1361REMSYN11289664 11861 20418 11258 21325 39951 49996 51004 69904 73600 81071 333 11198 21259 56033 58058 81357 90972 93197=
0187896640876012017041705554-77850+166667FM-15+002499999V0200601N006219999999N009999199-02501-03301100061ADDGA1021+021341999GE19MSL   +99999+99999GF199999021999021341999999MA1100001099615OD149901391050REMMET082METAR NZCM 170555Z 06012KT 9999 FEW070 M25/M33 A2953 RMK PK WND 05027/0046 SLP006=
0175896640876012017041706004-77850+166667FM-12+002499999V0200601N006212200019N011000199-02501-03321100061ADDGA1011+021001031GE19MSL   +99999+99999GF101991011999021001999999MA1099985099601MD1310041+9999REMSYN07089664 32861 10612 11250 21332 39960 40006 53004 81070 333 56030 81357=
0198896640876012017041711554-77850+166667FM-15+002499999V0200601N006719999999N009999199-02401-03301099961ADDGA1021+021341999GE19MSL   +99999+99999GF199999021999021341999999MA1099901099515OC101241OD149901281050REMMET085METAR NZCM 171155Z 06013G24KT 9999 FEW070 M24/M33 A2950 RMK PK WND 05025/0722 SLP996=
0219896640876012017041712004-77850+166667FM-12+002499999V0200601N006712200019N011000199-02331-03341099961ADDGA1021+021001031GE19MSL   +99999+99999GF102991021999021001999999KA1240M-02341KA2240N-02611MA1099885099501MD1810081+9999REMSYN08889664 32861 20613 11233 21334 39950 49996 58008 81070 333 11234 21261 56030 58018 82357=
0155896640876012017041717554-77850+166667FM-15+002499999V0200901N005119999999N009999199-02501-03401099871ADDGA1041+024381999GE19MSL   +99999+99999GF199999041999024381999999MA1099801099425REMMET064METAR NZCM 171755Z 09010KT 9999 SCT080 M25/M34 A2947 RMK SLP987=
0175896640876012017041718004-77850+166667FM-12+002499999V0200901N005112200019N011000199-02511-03361099871ADDGA1041+024001041GE19MSL   +99999+99999GF104991041999024001999999MA1099795099411MD1810101+9999REMSYN07089664 32861 40910 11251 21336 39941 49987 58010 84010 333 56020 84458=
0221896640876012017041723554-77850+166667FM-15+002499999V0201201N005710304819N009999199-02401-03501099681ADDGA1041+024381999GA2071+030481999GE19MSL   +99999+99999GF199999041999024381999999MA1099631099235OC100981OD149901441140REMMET092METAR NZCM 172355Z 12011G19KT 9999 SCT080 BKN100 M24/M35 A2942 RMK PK WND 14028/2024 SLP968=
0219896640876012017041800004-77850+166667FM-12+002499999V0201201N005719999999N011000199-02441-03471099681ADDGA1041+024001031GE19MSL   +99999+99999GF105991041999024001999999KA1120M-02321KA2120N-02861MA1099625099241MD1510081+9999REMSYN08889664 32861 51211 11244 21347 39924 49968 55008 85070 333 11232 21286 56020 59027 84358=
0178896640876012017041805554-77850+166667FM-15+002499999V0201601N001510335319N009999199-02301-03201099321ADDGA1041+024381999GA2071+033531999GE19MSL   +99999+99999GF199999041999024381999999MA1099251098885REMMET071METAR NZCM 180555Z 16003KT 9999 SCT080 BKN110 M23/M32 A2931 RMK SLP932=
0175896640876012017041806004-77850+166667FM-12+002499999V0201601N001519999999N011000199-02321-03161099321ADDGA1031+024001031GE19MSL   +99999+99999GF105991031999024001999999MA1099255098871MD1610231+9999REMSYN07089664 32861 51603 11232 21316 39887 49932 56023 85070 333 56020 83358=
0155896640876012017041811554-77850+166667FM-15+002499999V0209999C000019999999N009999199-02301-03001098961ADDGA1041+036581999GE19MSL   +99999+99999GF199999041999036581999999MA1098881098525REMMET064METAR NZCM 181155Z 00000KT 9999 SCT120 M23/M30 A2920 RMK SLP896=
0219896640876012017041812004-77850+166667FM-12+002499999V0209999C000012200019N011000199-02271-03011098961ADDGA1031+036001031GE19MSL   +99999+99999GF103991031999036001999999KA1240M-02191KA2240N-02551MA1098905098521MD1810131+9999REMSYN08889664 32961 30000 11227 21301 39852 49896 58013 83070 333 11219 21255 56020 59098 83362=
0155896640876012017041817554-77850+166667FM-15+002499999V0209999V00211030481CN009999199-02001-02701098801ADDGA1071+030481999GE19MSL   +99999+99999GF199999071999030481999999MA1098751098365REMMET064METAR NZCM 181755Z VRB04KT 9999 BKN100 M20/M27 A2916 RMK SLP880=
0175896640876012017041818004-77850+166667FM-12+002499999V0209999V00211090001CN011000199-02011-02731098801ADDGA1071+090001041GE19MSL   +99999+99999GF107991071999090001999999MA1099035098651MD1610061+9999REMSYN07089664 32961 79904 11201 21273 39865 49880 56006 87010 333 56030 87480=
0201896640876012017041823554-77850+166667FM-15+002499999V0201501N003110243819N009999199-01801-02901098751ADDGA1021+001831999GA2071+024381999GA3071+030481999GE19MSL   +99999+99999GF199999021999001831999999MA1098681098325REMMET078METAR NZCM 182355Z 15006KT 9999 FEW006 BKN080 BKN100 M18/M29 A2914 RMK SLP875=
0241896640876012017041900004-77850+166667FM-12+002499999V0201501N00311024001CN011000199-01781-02841098751ADDGA1011+018001061GA2051+024001031GE19MSL   +99999+99999GF106991011999018001999999KA1120M-01771KA2120N-02301MA1098685098301MD1710031+9999REMSYN09489664 32761 61506 11178 21284 39830 49875 57003 81570 333 11177 21230 56330 59094 81656 85358=
0155896640876012017041905554-77850+166667FM-15+002499999V0209999C000019999999N009999199-01901-03101098591ADDGA1021+018291999GE19MSL   +99999+99999GF199999021999018291999999MA1098511098165REMMET064METAR NZCM 190555Z 00000KT 9999 FEW060 M19/M31 A2909 RMK SLP859=
0175896640876012017041906004-77850+166667FM-12+002499999V0209999C000012200019N011000199-01921-03151098591ADDGA1011+018001061GE19MSL   +99999+99999GF102991011999018001999999MA1098535098151MD1610051+9999REMSYN07089664 32761 20000 11192 21315 39815 49859 56005 81500 333 56300 81656=
0155896640876012017041911554-77850+166667FM-15+002499999V0209999C00001018291CN009999199-01701-02501098531ADDGA1071+018291999GE19MSL   +99999+99999GF199999071999018291999999MA1098481098105REMMET064METAR NZCM 191155Z 00000KT 9999 BKN060 M17/M25 A2908 RMK SLP853=
0219896640876012017041912004-77850+166667FM-12+002499999V0209999C00001018001CN011000199-01741-02461098531ADDGA1071+018001061GE19MSL   +99999+99999GF107991071999018001999999KA1240M-01721KA2240N-02201MA1098475098091MD1810021+9999REMSYN08889664 32761 70000 11174 21246 39809 49853 58002 87500 333 11172 21220 56300 59043 87656=
0155896640876012017041917554-77850+166667FM-15+002499999V0209999C00001021341CN009999199-01901-02401098351ADDGA1071+021341999GE19MSL   +99999+99999GF199999071999021341999999MA1098271097925REMMET064METAR NZCM 191755Z 00000KT 9999 BKN070 M19/M24 A2902 RMK SLP835=
0175896640876012017041918004-77850+166667FM-12+002499999V0209999C00001021001CN011000199-01871-02411098351ADDGA1051+021001041GE19MSL   +99999+99999GF105991051999021001999999MA1098285097911MD1810131+9999REMSYN07089664 32861 50000 11187 21241 39791 49835 58013 85010 333 56030 85457=
0166896640876012017041923554-77850+166667FM-15+002499999V0203401N007219999999N009999199-01601-02301098121ADDGA1021+021341999GE19MSL   +99999+99999GF199999021999021341999999MA1098071097695OC101131REMMET067METAR NZCM 192355Z 34014G22KT 9999 FEW070 M16/M23 A2896 RMK SLP812=
0219896640876012017042000004-77850+166667FM-12+002499999V0203401N007212200019N011000199-01621-02291098121ADDGA1021+021001031GE19MSL   +99999+99999GF102991021999021001999999KA1120M-01541KA2120N-02061MA1098055097681MD1810081+9999REMSYN08889664 32861 23414 11162 21229 39768 49812 58008 82070 333 11154 21206 56030 59062 82357=
0166896640876012017042005554-77850+166667FM-15+002499999V0203401N007719999999N009999199-01601-02501098071ADDGA1021+021341999GE19MSL   +99999+99999GF199999021999021341999999MA1098001097645OC101241REMMET067METAR NZCM 200555Z 34015G24KT 9999 FEW070 M16/M25 A2894 RMK SLP807=
0175896640876012017042006004-77850+166667FM-12+002499999V0203401N007712200019N011000199-01611-02501098071ADDGA1021+021001031GE19MSL   +99999+99999GF102991021999021001999999MA1098005097631MD1510001+9999REMSYN07089664 32861 23415 11161 21250 39763 49807 55000 82070 333 56030 82357=
0155896640876012017042011554-77850+166667FM-15+002499999V0203301N005719999999N009999199-02001-02301098331ADDGA1021+021341999GE19MSL   +99999+99999GF199999021999021341999999MA1098271097895REMMET064METAR NZCM 201155Z 33011KT 9999 FEW070 M20/M23 A2902 RMK SLP833=
0219896640876012017042012004-77850+166667FM-12+002499999V0203301N005712200019N011000199-01961-02341098331ADDGA1021+021001031GE19MSL   +99999+99999GF102991021999021001999999KA1240M-01551KA2240N-01971MA1098265097891MD1110121+9999REMSYN08889664 32861 23311 11196 21234 39789 49833 51012 82070 333 11155 21197 56030 59020 82357=
0114896640876012017042017554-77850+166667FM-15+002499999V0203401N003612200019N009999199-02001-02401098511ADDGF100991999999999999999999MA1098441098075REMMET061METAR NZCM 201755Z 34007KT 9999 SKC M20/M24 A2907 RMK SLP851=
0089896640876012017042018004-77850+166667FM-12+002499999V0203401N003619999999N011000199-01961-02371098511ADDMA1098445098071MD1310141+9999REMSYN04889664 32961 03407 11196 21237 39807 49851 53014=
0196896640876012017042023554-77850+166667FM-15+002499999V0200901N006210213419N004800199-01901-02301098841ADDGA1041+006101999GA2071+021341999GE19MSL   +99999+99999GF199999041999006101999999MA1098781098405MW1711REMMET083METAR NZCM 202355Z 09012KT 4800 -SN SCT020 BKN070 M19/M23 A2917 RMK SNB2130 SLP884=
0186896640876012017042105554-77850+166667FM-15+002499999V0200601N00511060961CN009999199-01801-02501098851ADDGA1021+021341999GA2041+060961999GE19MSL   +99999+99999GF199999021999021341999999MA1098781098425REMMET079METAR NZCM 210555Z 06010KT 9999 FEW070 SCT200 M18/M25 A2917 RMK SNE0045 SLP885=
0283896640876012017042106004-77850+166667FM-12+002499999V0200601N005112200019N011000199-01851-02471098851ADDAA106000091AL19900031AY171021AY211021GA1011+021001031GA2031+060001001GE19MSL   +99999+99999GF103991011999021001999999MA1098795098411MD1110071+9999MW1011REMSYN10089664 11861 30610 11185 21247 39841 49885 51007 69901 70171 81071 333 56033 81357 83070 90962 93197=EQDQ01  00002PRCP06
0155896640876012017042111554-77850+166667FM-15+002499999V0201001N001519999999N009999199-01801-02601098861ADDGA1021+060961999GE19MSL   +99999+99999GF199999021999060961999999MA1098781098435REMMET064METAR NZCM 211155Z 10003KT 9999 FEW200 M18/M26 A2917 RMK SLP886=
0277896640876012017042112004-77850+166667FM-12+002499999V0201001N001512200019N011000199-01771-02571098861ADDAA112000091AL19900031GA1011+060001001GE19MSL   +99999+99999GF102991011999060001999999KA1240M-01671KA2240N-01921MA1098805098421MD1810041+9999REMSYN10689664 12961 21003 11177 21257 39842 49886 58004 69902 80001 333 11167 21192 56003 58053 81070 90974 93197=EQDQ01  00002PRCP12
0114896640876012017042117554-77850+166667FM-15+002499999V0200401N001512200019N009999199-01901-02601098671ADDGF100991999999999999999999MA1098611098245REMMET061METAR NZCM 211755Z 04003KT 9999 SKC M19/M26 A2912 RMK SLP867=
0155896640876012017042123554-77850+166667FM-15+002499999V0209999C000019999999N009999199-02101-02401098461ADDGA1021+012191999GE19MSL   +99999+99999GF199999021999012191999999MA1098411098025REMMET064METAR NZCM 212355Z 00000KT 9999 FEW040 M21/M24 A2906 RMK SLP846=
0277896640876012017042200004-77850+166667FM-12+002499999V0209999C000012200019N011000199-02121-02431098461ADDAA124000091AL19900031GA1011+012001061GE19MSL   +99999+99999GF101991011999012001999999KA1120M-01791KA2120N-02421MA1098395098021MD1610141+9999REMSYN10689664 12661 10000 11212 21243 39802 49846 56014 69904 81500 333 11179 21242 56300 59037 81640 90982 93197=EQDQ01  00002PRCP24
0155896640876012017042205554-77850+166667FM-15+002499999V0209999C000019999999N009999199-02401-02701098111ADDGA1021+012191999GE19MSL   +99999+99999GF199999021999012191999999MA1098041097675REMMET064METAR NZCM 220555Z 00000KT 9999 FEW040 M24/M27 A2895 RMK SLP811=
0175896640876012017042206004-77850+166667FM-12+002499999V0209999C000012200019N011000199-02361-02681098111ADDGA1011+012001061GE19MSL   +99999+99999GF101991011999012001999999MA1098045097671MD1710151+9999REMSYN07089664 32661 10000 11236 21268 39767 49811 57015 81500 333 56300 81640=
0120896640876012017042211554-77850+166667FM-15+002499999V0209999C000012200019N009999199-01901-02401097951ADDGF100991999999999999999999MA1097901097525REMMET067METAR NZCM 221155Z 00000KT 9999 SKC M19/M24 A2891 RMK SLP795 AURBO=
0114896640876012017042217554-77850+166667FM-15+002499999V0209999C000012200019N009999199-02201-02601097921ADDGF100991999999999999999999MA1097871097485REMMET061METAR NZCM 221755Z 00000KT 9999 SKC M22/M26 A2890 RMK SLP792=
0089896640876012017042218004-77850+166667FM-12+002499999V0209999C000019999999N011000199-02151-02641097921ADDMA1097855097481MD1610031+9999REMSYN04889664 32961 00000 11215 21264 39748 49792 56003=
0155896640876012017042223554-77850+166667FM-15+002499999V0200401N002119999999N009999199-02001-02601097971ADDGA1021+027431999GE19MSL   +99999+99999GF199999021999027431999999MA1097901097545REMMET064METAR NZCM 222355Z 04004KT 9999 FEW090 M20/M26 A2891 RMK SLP797=
0219896640876012017042300004-77850+166667FM-12+002499999V0200401N002112200019N011000199-01791-02151097971ADDGA1011+027001031GE19MSL   +99999+99999GF101991011999027001999999KA1120M-01681KA2120N-02171MA1097915097541MD1310021+9999REMSYN08889664 32961 10404 11179 21215 39754 49797 53002 81070 333 11168 21217 56030 59048 81359=
0155896640876012017042305554-77850+166667FM-15+002499999V0209999V001519999999N009999199-01801-02701098051ADDGA1021+027431999GE19MSL   +99999+99999GF199999021999027431999999MA1098001097625REMMET064METAR NZCM 230555Z VRB03KT 9999 FEW090 M18/M27 A2894 RMK SLP805=
0175896640876012017042306004-77850+166667FM-12+002499999V0209999V001512200019N011000199-01831-02751098051ADDGA1011+027001031GE19MSL   +99999+99999GF101991011999027001999999MA1097995097621MD1310061+9999REMSYN07089664 32961 19903 11183 21275 39762 49805 53006 81070 333 56030 81359=
0114896640876012017042311554-77850+166667FM-15+002499999V0209999C000012200019N009999199-01701-02301098141ADDGF100991999999999999999999MA1098071097715REMMET061METAR NZCM 231155Z 00000KT 9999 SKC M17/M23 A2896 RMK SLP814=
0137896640876012017042312004-77850+166667FM-12+002499999V0209999C000019999999N011000199-01691-02301098141ADDKA1240M-01591KA2240N-02361MA1098085097711MD1110041+0201REMSYN07089664 32961 00000 11169 21230 39771 49814 51004 333 11159 21236 58020=
0178896640876012017042317554-77850+166667FM-15+002499999V0209999C000010609619N009999199-01601-02101098231ADDGA1021+030481999GA2071+060961999GE19MSL   +99999+99999GF199999021999030481999999MA1098171097805REMMET071METAR NZCM 231755Z 00000KT 9999 FEW100 BKN200 M16/M21 A2899 RMK SLP823=
0197896640876012017042318004-77850+166667FM-12+002499999V0209999C00001060001CN011000199-01591-02051098231ADDGA1021+030001041GA2051+060001001GE19MSL   +99999+99999GF105991021999030001999999MA1098165097791MD1110071+9999REMSYN07689664 32961 50000 11159 21205 39779 49823 51007 82014 333 56022 82460 85070=
0173896640876012017042323554-77850+166667FM-15+002499999V0201301N00361012191CN009999199-01601-02001098331ADDGA1081+012191999GE19MSL   +99999+99999GF199999081999012191999999MA1098271097905MW1711REMMET076METAR NZCM 232355Z 13007KT 9999 -SN OVC040 M16/M20 A2902 RMK SNB1115 SLP833=
0286896640876012017042400004-77850+166667FM-12+002499999V0201301N00361012001CN011000199-01561-01961098331ADDAA106000021AL19900031AY121021AY221021GA1081+012001061GE19MSL   +99999+99999GF108991081999012001999999KA1120M-01411KA2120N-01841MA1098275097901MD1210061+9999MW1711REMSYN11289664 11661 81307 11156 21196 39790 49833 52006 69901 77122 885// 333 11141 21184 56299 58036 88640 90910 93197=
0165896640876012017042405554-77850+166667FM-15+002499999V0201401N00511015241CN008000199-01601-01901098491ADDGA1081+015241999GE19MSL   +99999+99999GF199999081999015241999999MA1098441098065MW1711REMMET068METAR NZCM 240555Z 14010KT 8000 -SN OVC050 M16/M19 A2907 RMK SLP849=
0242896640876012017042406004-77850+166667FM-12+002499999V0201401N00511015001CN008000199-01561-01871098491ADDAA106000021AL19900031AY171021AY271021GA1081+015001061GE19MSL   +99999+99999GF108991081999015001999999MA1098435098061MD1110111+9999MW1711REMSYN09489664 11758 81410 11156 21187 39806 49849 51011 69901 77177 885// 333 56299 88650 90973 93197=
0220896640876012017042411554-77850+166667FM-15+002499999V0200901N00461009141CN006000199-01501-01901098701ADDGA1071+009141999GA2081+013721999GE19MSL   +99999+99999GF199999071999009141999999MA1098651098275MW1711OD149901641160REMMET093METAR NZCM 241155Z 09009KT 6000 -SN BKN030 OVC045 M15/M19 A2913 RMK PK WND 16032/0903 SLP870=
0186896640876012017042417554-77850+166667FM-15+002499999V0201201N00361060961CN009999199-01401-01901098801ADDGA1021+012191999GA2041+060961999GE19MSL   +99999+99999GF199999021999012191999999MA1098751098375REMMET079METAR NZCM 241755Z 12007KT 9999 FEW040 SCT200 M14/M19 A2916 RMK SNE1420 SLP880=
0264896640876012017042418004-77850+166667FM-12+002499999V0201201N003612200019N011000199-01391-01861098801ADDAA118000331AL19900131AY171021AY211021GA1011+012001061GA2041+060001001GE19MSL   +99999+99999GF104991011999012001999999MA1098755098371MD1110071+9999MW1021REMSYN10089664 11661 41207 11139 21186 39837 49880 51007 69933 70271 81504 333 56202 81640 84070 90941 93101=
0221896640876012017042423554-77850+166667FM-15+002499999V0201401N00931060961CN009999199-01401-01901098741ADDGA1021+018291999GA2021+060961999GE19MSL   +99999+99999GF199999021999018291999999MA1098681098315OC101341OD149901491150REMMET092METAR NZCM 242355Z 14018G26KT 9999 FEW060 FEW200 M14/M19 A2914 RMK PK WND 15029/2232 SLP874=
0274896640876012017042500004-77850+166667FM-12+002499999V0201401N009312200019N011000199-01391-01901098741ADDAA124000331AL19900131GA1011+018001061GA2999+999999001GE19MSL   +99999+99999GF102991011999018001999999KA1120M-01311KA2120N-01561MA1098685098301MD1610051+9999REMSYN10689664 12761 21418 11139 21190 39830 49874 56005 69934 81501 333 11131 21156 56202 58040 81656 90973 93101=
0155896640876012017042505554-77850+166667FM-15+002499999V0209999C00001027431CN009999199-01401-02001098681ADDGA1071+027431999GE19MSL   +99999+99999GF199999071999027431999999MA1098611098255REMMET064METAR NZCM 250555Z 00000KT 9999 BKN090 M14/M20 A2912 RMK SLP868=
0175896640876012017042506004-77850+166667FM-12+002499999V0209999C00001027001CN011000199-01391-02011098681ADDGA1051+027001031GE19MSL   +99999+99999GF105991051999027001999999MA1098635098251MD1810051+9999REMSYN07089664 32961 50000 11139 21201 39825 49868 58005 85070 333 56020 85359=
0155896640876012017042511554-77850+166667FM-15+002499999V0209999C000019999999N009999199-01501-02001098561ADDGA1041+018291999GE19MSL   +99999+99999GF199999041999018291999999MA1098511098135REMMET064METAR NZCM 251155Z 00000KT 9999 SCT060 M15/M20 A2909 RMK SLP856=
0219896640876012017042512004-77850+166667FM-12+002499999V0209999C000012200019N011000199-01551-02041098561ADDGA1041+018001061GE19MSL   +99999+99999GF104991041999018001999999KA1240M-01341KA2240N-01821MA1098505098121MD1610101+9999REMSYN08889664 32761 40000 11155 21204 39812 49856 56010 84500 333 11134 21182 56200 59015 84656=
0114896640876012017042517554-77850+166667FM-15+002499999V0209999C000012200019N009999199-01501-01901098421ADDGF100991999999999999999999MA1098371097995REMMET061METAR NZCM 251755Z 00000KT 9999 SKC M15/M19 A2905 RMK SLP842=
0089896640876012017042518004-77850+166667FM-12+002499999V0209999C000019999999N011000199-01531-01911098421ADDMA1098355097981MD1810091+9999REMSYN04889664 32961 00000 11153 21191 39798 49842 58009=
0178896640876012017042523554-77850+166667FM-15+002499999V0209999V00151021341CN009999199-01701-02101098341ADDGA1021+012191999GA2021+021341999GE19MSL   +99999+99999GF199999021999012191999999MA1098271097915REMMET071METAR NZCM 252355Z VRB03KT 9999 FEW040 FEW070 M17/M21 A2902 RMK SLP834=
0235896640876012017042600004-77850+166667FM-12+002499999V0209999V001512200019N011000199-01731-02131098341ADDGA1011+012001061GA2999+999999031GE19MSL   +99999+99999GF101991011999012001999999KA1120M-01391KA2120N-01751MA1098285097911MD1510001+9999REMSYN08889664 32661 19903 11173 21213 39791 49834 55000 81530 333 11139 21175 56770 59039 81640=
0187896640876012017042605554-77850+166667FM-15+002499999V0209999C00001001831CN008000199-01701-02001098441ADDGA1071+001831999GA2071+021341999GE19MSL   +99999+99999GF199999071999001831999999MA1098371098015MW1101REMMET074METAR NZCM 260555Z 00000KT 8000 BR BKN006 BKN070 M17/M20 A2905 RMK SLP844=
0219896640876012017042606004-77850+166667FM-12+002499999V0209999C00001001801CN008000199-01711-01961098441ADDAY111021AY211021GA1051+001801071GA2999+999999031GE19MSL   +99999+99999GF106991051999001801999999MA1098385098011MD1310061+9999MW1101REMSYN07689664 31258 60000 11171 21196 39801 49844 53006 71011 85630 333 56770 85706=
0155896640876012017042611554-77850+166667FM-15+002499999V0200801N002619999999N009999199-01901-02101098701ADDGA1021+021341999GE19MSL   +99999+99999GF199999021999021341999999MA1098651098265REMMET064METAR NZCM 261155Z 08005KT 9999 FEW070 M19/M21 A2913 RMK SLP870=
0219896640876012017042612004-77850+166667FM-12+002499999V0200801N002612200019N011000199-01881-02151098701ADDGA1021+021001031GE19MSL   +99999+99999GF102991021999021001999999KA1240M-01521KA2240N-01961MA1098645098261MD1110131+9999REMSYN08889664 32861 20805 11188 21215 39826 49870 51013 82030 333 11152 21196 56070 58014 82357=
0114896640876012017042617554-77850+166667FM-15+002499999V0200201N001512200019N009999199-02101-02401098881ADDGF100991999999999999999999MA1098811098445REMMET061METAR NZCM 261755Z 02003KT 9999 SKC M21/M24 A2918 RMK SLP888=
0155896640876012017042623554-77850+166667FM-15+002499999V0200801N003619999999N009999199-01801-02101099071ADDGA1021+018291999GE19MSL   +99999+99999GF199999021999018291999999MA1099021098645REMMET064METAR NZCM 262355Z 08007KT 9999 FEW060 M18/M21 A2924 RMK SLP907=
0155896640876012017042705554-77850+166667FM-15+002499999V0200501N00771033531CN009999199-01501-02101099221ADDGA1071+033531999GE19MSL   +99999+99999GF199999071999033531999999MA1099151098795REMMET064METAR NZCM 270555Z 05015KT 9999 BKN110 M15/M21 A2928 RMK SLP922=
0155896640876012017042711554-77850+166667FM-15+002499999V0200901N00461021341CN009999199-01201-01901099361ADDGA1071+021341999GE19MSL   +99999+99999GF199999071999021341999999MA1099291098935REMMET064METAR NZCM 271155Z 09009KT 9999 BKN070 M12/M19 A2932 RMK SLP936=
0219896640876012017042712004-77850+166667FM-12+002499999V0200901N00461021001CN011000199-01161-01921099361ADDGA1061+021001031GE19MSL   +99999+99999GF106991061999021001999999KA1240M-01111KA2240N-01941MA1099305098921MD1310081+9999REMSYN08889664 32861 60909 11116 21192 39892 49936 53008 86070 333 11111 21194 56020 58066 86357=
0195896640876012017042717554-77850+166667FM-15+002499999V0201401N00721012191CN008000199-01201-01401099541ADDGA1081+012191999GE19MSL   +99999+99999GF199999081999012191999999MA1099491099115MW1381MW2711OC101291REMMET084METAR NZCM 271755Z 14014G25KT 8000 -SN BLSN OVC040 M12/M14 A2938 RMK SNB1500 SLP954=
0194896640876012017042723554-77850+166667FM-15+002499999V0201301N00671012191CN009999199-01101-01401099651ADDGA1081+012191999GE19MSL   +99999+99999GF199999081999012191999999MA1099591099225OC101131REMMET095METAR NZCM 272355Z COR 13013G22KT 9999 OVC040 M11/M14 A2941 RMK PK WND 13026/27 SNE2245 SLP965=
0286896640876012017042800004-77850+166667FM-12+002499999V0201301N00671012001CN011000199-01061-01411099651ADDAA112000021AL19900031AY171021AY231021GA1081+012001061GE19MSL   +99999+99999GF108991081999012001999999KA1120M-01001KA2120N-01281MA1099595099211MD1990051+9999MW1021REMSYN11289664 11661 81313 11106 21141 39921 49965 50005 69902 70273 885// 333 11100 21128 56299 58058 88640 90923 93197=
0193896640876012017042805554-77850+166667FM-15+002499999V0201401N00821015241CN009000199-01001-01301099801ADDGA1071+015241999GE19MSL   +99999+99999GF199999071999015241999999MA1099731099385MW1381OC101241REMMET088METAR NZCM 280555Z 14016G24KT 9000 BLSN BKN050 M10/M13 A2945 RMK PK WND 14030/21 SLP980=
0203896640876012017042806004-77850+166667FM-12+002499999V0201401N00821015001CN009000199-00971-01351099801ADDAY121021AY221021GA1071+015001061GE19MSL   +99999+99999GF107991071999015001999999MA1099755099371MD1110091+9999MW1381REMSYN07689664 31759 71416 11097 21135 39937 49980 51009 73822 87500 333 56200 87650=
0166896640876012017042811554-77850+166667FM-15+002499999V0201401N005119999999N009999199-00901-01301099871ADDGA1041+015241999GE19MSL   +99999+99999GF199999041999015241999999MA1099831099455OC100981REMMET067METAR NZCM 281155Z 14010G19KT 9999 SCT050 M09/M13 A2948 RMK SLP987=
0247896640876012017042812004-77850+166667FM-12+002499999V0201401N005112200019N011000199-00911-01351099871ADDAY131021AY211021GA1031+015001061GE19MSL   +99999+99999GF103991031999015001999999KA1240M-00911KA2240N-01111MA1099825099441MD1990031+9999MW1011REMSYN09489664 31761 31410 11091 21135 39944 49987 50003 70131 83500 333 11091 21111 56200 58052 83650=
0155896640876012017042817554-77850+166667FM-15+002499999V0200801N00461018291CN009999199-01001-01701100021ADDGA1071+018291999GE19MSL   +99999+99999GF199999071999018291999999MA1099971099595REMMET064METAR NZCM 281755Z 08009KT 9999 BKN060 M10/M17 A2952 RMK SLP002=
0155896640876012017042823554-77850+166667FM-15+002499999V0201001N003619999999N009999199-01101-01801100081ADDGA1041+012191999GE19MSL   +99999+99999GF199999041999012191999999MA1100031099655REMMET064METAR NZCM 282355Z 10007KT 9999 SCT040 M11/M18 A2954 RMK SLP008=
0219896640876012017042900004-77850+166667FM-12+002499999V0201001N003612200019N011000199-01091-01811100081ADDGA1031+012001061GE19MSL   +99999+99999GF103991031999012001999999KA1120M-00861KA2120N-01161MA1100045099661MD1990001+9999REMSYN08889664 32661 31007 11109 21181 39966 40008 50000 83500 333 11086 21116 56200 58045 83640=
0155896640876012017042905554-77850+166667FM-15+002499999V0201001N004619999999N009999199-01001-02201100121ADDGA1041+021341999GE19MSL   +99999+99999GF199999041999021341999999MA1100071099695REMMET064METAR NZCM 290555Z 10009KT 9999 SCT070 M10/M22 A2955 RMK SLP012=
0175896640876012017042906004-77850+166667FM-12+002499999V0201001N004612200019N011000199-00981-02241100121ADDGA1041+021001031GE19MSL   +99999+99999GF104991041999021001999999MA1100075099691MD1310011+9999REMSYN07089664 32861 41009 11098 21224 39969 40012 53001 84070 333 56020 84357=
0155896640876012017042911554-77850+166667FM-15+002499999V0200601N00571021341CN009999199-01201-02301100111ADDGA1071+021341999GE19MSL   +99999+99999GF199999071999021341999999MA1100071099685REMMET064METAR NZCM 291155Z 06011KT 9999 BKN070 M12/M23 A2955 RMK SLP011=
0219896640876012017042912004-77850+166667FM-12+002499999V0200601N00571021001CN011000199-01221-02281100111ADDGA1051+021001031GE19MSL   +99999+99999GF105991051999021001999999KA1240M-00941KA2240N-01261MA1100055099671MD1610041+9999REMSYN08889664 32861 50611 11122 21228 39967 40011 56004 85070 333 11094 21126 56020 58023 85357=
0187896640876012017042917554-77850+166667FM-15+002499999V0200401N00981021341CN009999199-01601-02401099931ADDGA1071+021341999GE19MSL   +99999+99999GF199999071999021341999999MA1099861099495OD149901331040REMMET082METAR NZCM 291755Z 04019KT 9999 BKN070 M16/M24 A2949 RMK PK WND 04026/1626 SLP993=
0175896640876012017042918004-77850+166667FM-12+002499999V0200401N00981021001CN011000199-01561-02371099931ADDGA1071+021001041GE19MSL   +99999+99999GF107991071999021001999999MA1099885099501MD1810091+9999REMSYN07089664 32861 70419 11156 21237 39950 49993 58009 87010 333 56010 87457=
0221896640876012017042923554-77850+166667FM-15+002499999V0200501N00771021341CN009999199-01701-02601099911ADDGA1071+021341999GA2071+045721999GE19MSL   +99999+99999GF199999071999021341999999MA1099861099475OC101181OD149901391050REMMET092METAR NZCM 292355Z 05015G23KT 9999 BKN070 BKN150 M17/M26 A2949 RMK PK WND 05027/2244 SLP991=
0219896640876012017043000004-77850+166667FM-12+002499999V0200501N00771021001CN011000199-01711-02651099911ADDGA1051+021001031GE19MSL   +99999+99999GF107991051999021001999999KA1120M-01111KA2120N-01801MA1099865099481MD1510011+9999REMSYN08889664 32861 70515 11171 21265 39948 49991 55001 87070 333 11111 21180 56010 59018 85357=
0155896640876012017043005554-77850+166667FM-15+002499999V0200401N007219999999N009999199-01701-02701099841ADDGA1041+021341999GE19MSL   +99999+99999GF199999041999021341999999MA1099801099405REMMET064METAR NZCM 300555Z 04014KT 9999 SCT070 M17/M27 A2947 RMK SLP984=
0175896640876012017043006004-77850+166667FM-12+002499999V0200401N007212200019N011000199-01681-02741099841ADDGA1031+021001031GE19MSL   +99999+99999GF103991031999021001999999MA1099795099411MD1810071+9999REMSYN07089664 32861 30414 11168 21274 39941 49984 58007 83070 333 56010 83357=
0198896640876012017043011554-77850+166667FM-15+002499999V0200401N009319999999N009999199-01901-02401099771ADDGA1041+021341999GE19MSL   +99999+99999GF199999041999021341999999MA1099691099335OC101241OD149901491060REMMET085METAR NZCM 301155Z 04018G24KT 9999 SCT070 M19/M24 A2944 RMK PK WND 06029/2149 SLP977=
0219896640876012017043012004-77850+166667FM-12+002499999V0200401N009312200019N011000199-01911-02811099771ADDGA1031+021001031GE19MSL   +99999+99999GF103991031999021001999999KA1240M-01391KA2240N-01951MA1099715099331MD1610051+9999REMSYN08889664 32861 30418 11191 21281 39933 49977 56005 83070 333 11139 21195 56010 59034 83357=
0187896640876012017043017554-77850+166667FM-15+002499999V0200401N00571003661CN009999199-01801-02201099571ADDGA1081+003661999GE19MSL   +99999+99999GF199999081999003661999999MA1099491099135OD149901441040REMMET082METAR NZCM 301755Z 04011KT 9999 OVC012 M18/M22 A2938 RMK PK WND 04028/1442 SLP957=
0175896640876012017043018004-77850+166667FM-12+002499999V0200401N00571003601CN011000199-01751-02171099571ADDGA1081+003601071GE19MSL   +99999+99999GF108991081999003601999999MA1099515099131MD1810081+9999REMSYN07089664 32461 80411 11175 21217 39913 49957 58008 886// 333 56799 88712=
0155896640876012017043023554-77850+166667FM-15+002499999V0200401N00721003661CN009999199-02101-02501099301ADDGA1081+003661999GE19MSL   +99999+99999GF199999081999003661999999MA1099251098865REMMET064METAR NZCM 302355Z 04014KT 9999 OVC012 M21/M25 A2931 RMK SLP930=
0219896640876012017050100004-77850+166667FM-12+002499999V0200401N00721003601CN011000199-02071-02511099301ADDGA1081+003601071GE19MSL   +99999+99999GF108991081999003601999999KA1120M-01621KA2120N-02111MA1099245098861MD1810131+9999REMSYN08889664 32461 80414 11207 21251 39886 49930 58013 886// 333 11162 21211 56799 59062 88712=
0180896640876012017050105554-77850+166667FM-15+002499999V0200401N00261002441CN004800199-02001-02301099091ADDGA1081+002441999GE19MSL   +99999+99999GF199999081999002441999999MA1099021098655MW1101MW2711REMMET077METAR NZCM 010555Z 04005KT 4800 -SN BR OVC008 M20/M23 A2924 RMK SNB30 SLP909=
0248896640876012017050106004-77850+166667FM-12+002499999V0200401N00261002401CN004800199-01981-02311099091ADDAA106000021AL19900031AY121021AY221021GA1081+002401071GE19MSL   +99999+99999GF108991081999002401999999MA1099035098651MD1610081+9999MW1711REMSYN10089664 11348 80405 11198 21231 39865 49909 56008 69901 77122 886// 333 56199 88708 90910 93197 96010=
0174896640876012017050111554-77850+166667FM-15+002499999V0200201N00151004571CN004800199-02101-02401098901ADDGA1081+004571999GE19MSL   +99999+99999GF199999081999004571999999MA1098851098465MW1101MW2711REMMET071METAR NZCM 011155Z 02003KT 4800 -SN BR OVC015 M21/M24 A2919 RMK SLP890=
0292896640876012017050112004-77850+166667FM-12+002499999V0200201N00151004501CN004800199-02061-02371098901ADDAA112000021AL19900031AY171021AY271021GA1081+004501071GE19MSL   +99999+99999GF108991081999004501999999KA1240M-01801KA2240N-02321MA1098845098461MD1810101+9999MW1711REMSYN11889664 11448 80203 11206 21237 39846 49890 58010 69902 77177 886// 333 11180 21232 56199 59087 88715 90973 93197 96010=
0163896640876012017050117554-77850+166667FM-15+002499999V0209999C000019999999N009999199-02501-02801098771ADDGA1041+004571999GE19MSL   +99999+99999GF199999041999004571999999MA1098711098325REMMET072METAR NZCM 011755Z 00000KT 9999 SCT015 M25/M28 A2915 RMK SNE1515 SLP877=
0242896640876012017050118004-77850+166667FM-12+002499999V0209999C000012200019N011000199-02451-02791098771ADDAA118000021AL19900031AY171021AY211021GA1041+004501061GE19MSL   +99999+99999GF104991041999004501999999MA1098715098331MD1510031+9999MW1011REMSYN09489664 11461 40000 11245 21279 39833 49877 55003 69903 70171 84500 333 56700 84615 90933 93197=
0178896640876012017050123554-77850+166667FM-15+002499999V0209999C000010152419N009999199-02301-02701098631ADDGA1021+004571999GA2071+015241999GE19MSL   +99999+99999GF199999021999004571999999MA1098581098195REMMET071METAR NZCM 012355Z 00000KT 9999 FEW015 BKN050 M23/M27 A2911 RMK SLP863=
0280896640876012017050200004-77850+166667FM-12+002499999V0209999C00001015001CN011000199-02351-02701098631ADDAA124000021AL19900031GA1021+004501061GA2061+015001061GE19MSL   +99999+99999GF106991021999004501999999KA1120M-01971KA2120N-02561MA1098565098181MD1610081+9999REMSYN11289664 12461 60000 11235 21270 39818 49863 56008 69904 86500 333 11197 21256 56700 59068 82615 86650 90973 93197=
0155896640876012017050205554-77850+166667FM-15+002499999V0209999C00001010671CN009999199-02001-02401098411ADDGA1071+010671999GE19MSL   +99999+99999GF199999071999010671999999MA1098341097975REMMET064METAR NZCM 020555Z 00000KT 9999 BKN035 M20/M24 A2904 RMK SLP841=
0175896640876012017050206004-77850+166667FM-12+002499999V0209999C00001010501CN011000199-02051-02361098411ADDGA1061+010501061GE19MSL   +99999+99999GF106991061999010501999999MA1098345097971MD1610121+9999REMSYN07089664 32661 60000 11205 21236 39797 49841 56012 86500 333 56700 86635=
0155896640876012017050211554-77850+166667FM-15+002499999V0201301N00361018291CN009999199-01501-01901098121ADDGA1071+018291999GE19MSL   +99999+99999GF199999071999018291999999MA1098071097695REMMET064METAR NZCM 021155Z 13007KT 9999 BKN060 M15/M19 A2896 RMK SLP812=
0219896640876012017050212004-77850+166667FM-12+002499999V0201301N00361018001CN011000199-01481-01871098121ADDGA1071+018001061GE19MSL   +99999+99999GF107991071999018001999999KA1240M-01441KA2240N-02361MA1098055097681MD1610151+9999REMSYN08889664 32761 71307 11148 21187 39768 49812 56015 87500 333 11144 21236 56700 59078 87656=
0191896640876012017050217554-77850+166667FM-15+002499999V0201301N004610182919N009999199-01501-01801097831ADDGA1041+007621999GA2081+018291999GE19MSL   +99999+99999GF199999041999007621999999MA1097761097415REMMET084METAR NZCM 021755Z 13009KT 9999 SCT025 OVC060 M15/M18 A2887 RMK SNB1250E1700 SLP783=
0283896640876012017050218004-77850+166667FM-12+002499999V0201301N004610300019N011000199-01471-01751097831ADDAA106000091AL19900031AY171021AY211021GA1041+007501061GA2081+030001061GE19MSL   +99999+99999GF108991041999007501999999MA1097775097401MD1610101+9999MW1021REMSYN10089664 11761 81309 11147 21175 39740 49783 56010 69901 70271 885// 333 56299 84625 88660 90952 93197=EQDQ01  00002PRCP06
0189896640876012017050223554-77850+166667FM-15+002499999V0201101N006210182919N009999199-01501-01901097561ADDGA1021+007621999GA2071+018291999GE19MSL   +99999+99999GF199999021999007621999999MA1097491097145OC100981REMMET074METAR NZCM 022355Z 11012G19KT 9999 FEW025 BKN060 M15/M19 A2879 RMK SLP756=
0299896640876012017050300004-77850+166667FM-12+002499999V0201101N006210180019N011000199-01521-01891097561ADDAA112000091AL19900031GA1021+007501061GA2071+018001061GE19MSL   +99999+99999GF107991021999007501999999KA1120M-01411KA2120N-01521MA1097515097141MD1710121+9999REMSYN11289664 12561 71112 11152 21189 39714 49756 57012 69902 87500 333 11141 21152 56200 59104 82625 87656 90972 93197=EQDQ01  00002PRCP12
0171896640876012017050305554-77850+166667FM-15+002499999V0200801N00571008231CN009999199-01301-01801097281ADDGA1071+008231999GE19MSL   +99999+99999GF199999071999008231999999MA1097221096865MW1711REMMET074METAR NZCM 030555Z 08011KT 9999 -SN BKN027 M13/M18 A2871 RMK SNB45 SLP728=
0242896640876012017050306004-77850+166667FM-12+002499999V0200801N00571008101CN011000199-01281-01811097281ADDAA106000021AL19900031AY121021AY221021GA1071+008101061GE19MSL   +99999+99999GF107991071999008101999999MA1097235096861MD1610011+9999MW1711REMSYN09489664 11561 70811 11128 21181 39686 49728 56001 69901 77122 87500 333 56200 87627 90910 93197=
0163896640876012017050311554-77850+166667FM-15+002499999V0200901N005719999999N009999199-01301-01601097061ADDGA1041+018291999GE19MSL   +99999+99999GF199999041999018291999999MA1097021096645REMMET072METAR NZCM 031155Z 09011KT 9999 SCT060 M13/M16 A2865 RMK SNE0630 SLP706=
0286896640876012017050312004-77850+166667FM-12+002499999V0200901N005712200019N011000199-01291-01641097061ADDAA112000021AL19900031AY171021AY211021GA1041+018001061GE19MSL   +99999+99999GF104991041999018001999999KA1240M-01201KA2240N-01591MA1097015096641MD1810061+9999MW1011REMSYN11289664 11761 40911 11129 21164 39664 49706 58006 69902 70171 84500 333 11120 21159 56200 59104 84656 90970 93197=
0178896640876012017050317554-77850+166667FM-15+002499999V0201501N00151015241CN009999199-01401-02001096951ADDGA1071+015241999GA2081+027431999GE19MSL   +99999+99999GF199999071999015241999999MA1096921096535REMMET071METAR NZCM 031755Z 15003KT 9999 BKN050 OVC090 M14/M20 A2862 RMK SLP695=
0204896640876012017050323554-77850+166667FM-15+002499999V0200901N004110182919N009999199-01001-01401097051ADDGA1021+009141999GA2071+018291999GE19MSL   +99999+99999GF199999021999009141999999MA1096991096645MW1711REMMET091METAR NZCM 032355Z 09008KT 9999 -SN FEW030 BKN060 M10/M14 A2864 RMK SNB0700E0800B00 SLP705=
0187896640876012017050405554-77850+166667FM-15+002499999V0201801N01341011281CN004000199-01101-01401097191ADDGA1081+011281999GE19MSL   +99999+99999GF199999081999011281999999MA1097121096775MW1381MW2711OC101961REMMET076METAR NZCM 040555Z 18026G38KT 4000 -SN BLSN OVC037 M11/M14 A2868 RMK SLP719=
0240896640876012017050411554-77850+166667FM-15+002499999V0201701N013410112819N009000199-01101-01501097441ADDGA1021+008531999GA2081+011281999GE19MSL   +99999+99999GF199999021999008531999999MA1097391097025MW1381OC101901OD149902001190REMMET105METAR NZCM 041155Z 17026G37KT 9000 BLSN FEW028 OVC037 M11/M15 A2876 RMK PK WND 19039/0603 SNE1045 SLP744=
0314896640876012017050412004-77850+166667FM-12+002499999V0201701N013410111019N009000199-01071-01471097441ADDAA112000331AL19900131AY171021AY231021GA1011+008401061GA2081+011101061GE19MSL   +99999+99999GF108991011999008401999999KA1240M-00991KA2240N-01101MA1097395097021MD1110121+9999MW1381REMSYN12489664 11559 81726 11107 21147 39702 49744 51012 69932 73873 885// 333 01939 11099 21110 56299 58038 81628 88637 90923 93101=
0221896640876012017050417554-77850+166667FM-15+002499999V0200801N007210137219N009999199-01101-01501097671ADDGA1021+010671999GA2081+013721999GE19MSL   +99999+99999GF199999021999010671999999MA1097631097255OC100981OD149901641160REMMET092METAR NZCM 041755Z 08014G19KT 9999 FEW035 OVC045 M11/M15 A2883 RMK PK WND 16032/1204 SLP767=
0155896640876012017050423554-77850+166667FM-15+002499999V0200801N00671015241CN009999199-01301-01901097661ADDGA1081+015241999GE19MSL   +99999+99999GF199999081999015241999999MA1097601097245REMMET064METAR NZCM 042355Z 08013KT 9999 OVC050 M13/M19 A2882 RMK SLP766=
0258896640876012017050500004-77850+166667FM-12+002499999V0200801N00671015001CN011000199-01351-01881097661ADDAA124000331AL19900131GA1081+015001061GE19MSL   +99999+99999GF108991081999015001999999KA1120M-01051KA2120N-01351MA1097605097231MD1990011+9999REMSYN10689664 12761 80813 11135 21188 39723 49766 50001 69934 885// 333 11105 21135 56299 58060 88650 90983 93101=
0155896640876012017050505554-77850+166667FM-15+002499999V0200401N00981018291CN009999199-01801-02201097521ADDGA1071+018291999GE19MSL   +99999+99999GF199999071999018291999999MA1097461097095REMMET064METAR NZCM 050555Z 04019KT 9999 BKN060 M18/M22 A2878 RMK SLP752=
0175896640876012017050506004-77850+166667FM-12+002499999V0200401N00981018001CN011000199-01761-02191097521ADDGA1071+018001061GE19MSL   +99999+99999GF107991071999018001999999MA1097475097101MD1610041+9999REMSYN07089664 32761 70419 11176 21219 39710 49752 56004 87500 333 56200 87656=
0213896640876012017050511554-77850+166667FM-15+002499999V0200601N01181018291CN009000199-01701-02401097571ADDGA1071+018291999GE19MSL   +99999+99999GF199999071999018291999999MA1097531097145MW1381OC101541OD149901691050REMMET094METAR NZCM 051155Z COR 06023G30KT 9000 BLSN BKN060 M17/M24 A2880 RMK PK WND 05033/0857 SLP757=
0219896640876012017050512004-77850+166667FM-12+002499999V0200601N01181018001CN009000199-01751-02451097571ADDGA1071+018001061GE19MSL   +99999+99999GF107991071999018001999999KA1240M-01131KA2240N-01931MA1097515097141MD1110051+9999REMSYN08889664 32759 70623 11175 21245 39714 49757 51005 87500 333 11113 21193 56200 58012 87656=
0232896640876012017050517554-77850+166667FM-15+002499999V0200701N00981010671CN009999199-02001-02701097641ADDGA1071+010671999GA2081+024381999GE19MSL   +99999+99999GF199999071999010671999999MA1097601097215MW1361OC101391OD149901691060REMMET097METAR NZCM 051755Z 07019G27KT 9999 DRSN BKN035 OVC080 M20/M27 A2882 RMK PK WND 06033/1639 SLP764=
0238896640876012017050518004-77850+166667FM-12+002499999V0201201N00211999999CN011000199+99999-02711097641ADDAY131021AY221021GA1052+010501061GA2999+999999051GE19MSL   +99999+99999GF101992052999010501999999MA1097595097221MD1310091+9999MW1361REMSYN07689664 31561 11204 21271 39722 49764 53009 73632 8552/ 333 00633 56669 85635=EQDQ01 010503SCOCIG
0195896640876012017050523554-77850+166667FM-15+002499999V0200501N00881009141CN009999199-01801-02601097781ADDGA1081+009141999GE19MSL   +99999+99999GF199999081999009141999999MA1097731097355MW1361OC101241REMMET090METAR NZCM 052355Z 05017G24KT 9999 DRSN OVC030 M18/M26 A2886 RMK PK WND 06033/1852 SLP778=
0253896640876012017050600004-77850+166667FM-12+002499999V0200501N00881009001CN011000199-01841-02651097781ADDAY121021AY221021GA1081+009001061GE19MSL   +99999+99999GF108991081999009001999999KA1120M-01841KA2120N-02161MA1097715097341MD1110041+9999MW1361REMSYN10089664 31561 80517 11184 21265 39734 49778 51004 73622 885// 333 06033 11184 21216 56699 58011 88630=
0155896640876012017050605554-77850+166667FM-15+002499999V0203201N00151006711CN009999199-01701-02101097781ADDGA1071+006711999GE19MSL   +99999+99999GF199999071999006711999999MA1097731097355REMMET064METAR NZCM 060555Z 32003KT 9999 BKN022 M17/M21 A2886 RMK SLP778=
0155896640876012017050611554-77850+166667FM-15+002499999V0200401N00461008231CN009999199-01701-02301097741ADDGA1081+008231999GE19MSL   +99999+99999GF199999081999008231999999MA1097701097315REMMET064METAR NZCM 061155Z 04009KT 9999 OVC027 M17/M23 A2885 RMK SLP774=
0155896640876012017050617554-77850+166667FM-15+002499999V0200901N00671010671CN009999199-02301-02701097871ADDGA1081+010671999GE19MSL   +99999+99999GF199999081999010671999999MA1097801097435REMMET064METAR NZCM 061755Z 09013KT 9999 OVC035 M23/M27 A2888 RMK SLP787=
0155896640876012017050623554-77850+166667FM-15+002499999V0200801N00461006711CN009999199-02401-02901098121ADDGA1071+006711999GE19MSL   +99999+99999GF199999071999006711999999MA1098071097685REMMET064METAR NZCM 062355Z 08009KT 9999 BKN022 M24/M29 A2896 RMK SLP812=
0219896640876012017050700004-77850+166667FM-12+002499999V0200801N00461006601CN011000199-02441-02921098121ADDGA1071+006601061GE19MSL   +99999+99999GF107991071999006601999999KA1120M-01761KA2120N-02521MA1098055097681MD1110081+9999REMSYN08889664 32561 70809 11244 21292 39768 49812 51008 87500 333 11176 21252 56700 58034 87622=
0155896640876012017050705554-77850+166667FM-15+002499999V0201001N00261008531CN009999199-02101-02701098271ADDGA1071+008531999GE19MSL   +99999+99999GF199999071999008531999999MA1098201097835REMMET064METAR NZCM 070555Z 10005KT 9999 BKN028 M21/M27 A2900 RMK SLP827=
0175896640876012017050706004-77850+166667FM-12+002499999V0201001N00261008401CN011000199-02151-02681098271ADDGA1071+008401061GE19MSL   +99999+99999GF107991071999008401999999MA1098205097831MD1310061+9999REMSYN07089664 32561 71005 11215 21268 39783 49827 53006 87500 333 56700 87628=
0155896640876012017050711554-77850+166667FM-15+002499999V0209999C00001018291CN009999199-02201-02801098381ADDGA1071+018291999GE19MSL   +99999+99999GF199999071999018291999999MA1098311097945REMMET064METAR NZCM 071155Z 00000KT 9999 BKN060 M22/M28 A2903 RMK SLP838=
0219896640876012017050712004-77850+166667FM-12+002499999V0209999C00001018001CN011000199-02241-02761098381ADDGA1051+018001061GE19MSL   +99999+99999GF105991051999018001999999KA1240M-02151KA2240N-02551MA1098305097931MD1110021+9999REMSYN08889664 32761 50000 11224 21276 39793 49838 51002 85500 333 11215 21255 56700 58063 85656=
0189896640876012017050717554-77850+166667FM-15+002499999V0201001N001510213419N009999199-01901-02401098441ADDGA1041+010671999GA2071+021341999GE19MSL   +99999+99999GF199999041999010671999999MA1098371098015REMMET082METAR NZCM 071755Z 10003KT 9999 SCT035 BKN070 M19/M24 A2905 RMK SNB1400E30 SLP844=
0283896640876012017050718004-77850+166667FM-12+002499999V0201001N00151021001CN011000199-01941-02451098441ADDAA106000091AL19900031AY171021AY221021GA1031+010501061GA2051+021001041GE19MSL   +99999+99999GF105991031999010501999999MA1098365097991MD1310031+9999MW1011REMSYN10089664 11661 51003 11194 21245 39799 49844 53003 69901 70172 83510 333 56330 83635 85457 90952 93197=EQDQ01  00002PRCP06
0177896640876012017050723554-77850+166667FM-15+002499999V0200601N00461012191CN006000199-01801-02201098531ADDGA1081+012191999GE19MSL   +99999+99999GF199999081999012191999999MA1098481098105MW1711REMMET080METAR NZCM 072355Z COR 06009KT 6000 -SN OVC040 M18/M22 A2908 RMK SNB2100 SLP853=
0286896640876012017050800004-77850+166667FM-12+002499999V0200601N00461012001CN004000199-01801-02171098531ADDAA124000331AL19900131AY171021AY221021GA1081+012001061GE19MSL   +99999+99999GF108991081999012001999999KA1120M-01791KA2120N-02251MA1098475098091MD1110051+9999MW1711REMSYN11289664 11640 80609 11180 21217 39809 49853 51005 69934 77172 885// 333 11179 21225 56399 58041 88640 90937 93101=
0165896640876012017050805554-77850+166667FM-15+002499999V0200901N007719999999N009999199-02201-02601098441ADDGA1041+012191999GE19MSL   +99999+99999GF199999041999012191999999MA1098371098005MW1711REMMET068METAR NZCM 080555Z 09015KT 9999 -SN SCT040 M22/M26 A2905 RMK SLP844=
0242896640876012017050806004-77850+166667FM-12+002499999V0200901N007712200019N011000199-02161-02591098441ADDAA106000021AL19900031AY171021AY271021GA1041+012001051GE19MSL   +99999+99999GF104991041999012001999999MA1098375098001MD1810031+9999MW1711REMSYN09489664 11661 40915 11216 21259 39800 49844 58003 69901 77177 84500 333 56300 84540 90973 93197=
0201896640876012017050811554-77850+166667FM-15+002499999V0200601N009819999999N009000199-02501-03101098251ADDGA1021+012191999GE19MSL   +99999+99999GF199999021999012191999999MA1098171097815MW1381OC101341REMMET096METAR NZCM 081155Z 06019G26KT 9000 BLSN FEW040 M25/M31 A2899 RMK PK WND 07027/02 SNE0700 SLP825=
0286896640876012017050812004-77850+166667FM-12+002499999V0200601N009812200019N009000199-02541-03091098251ADDAA112000021AL19900031AY171021AY231021GA1021+012001061GE19MSL   +99999+99999GF102991021999012001999999KA1240M-01681KA2240N-02541MA1098185097811MD1710081+9999MW1381REMSYN11289664 11659 20619 11254 21309 39781 49825 57008 69902 73873 82500 333 11168 21254 56300 59012 82640 90953 93197=
0198896640876012017050817554-77850+166667FM-15+002499999V0200701N00671007621CN009999199-02601-03301098021ADDGA1071+007621999GE19MSL   +99999+99999GF199999071999007621999999MA1097971097585OC101031OD149901591060REMMET085METAR NZCM 081755Z 07013G20KT 9999 BKN025 M26/M33 A2893 RMK PK WND 06031/1646 SLP802=
0242896640876012017050818004-77850+166667FM-12+002499999V0200701N00671007501CN011000199-02621-03351098021ADDAA118000021AL19900031AY131021AY211021GA1071+007501061GE19MSL   +99999+99999GF107991071999007501999999MA1097955097581MD1610131+9999MW1031REMSYN09489664 11561 70713 11262 21335 39758 49802 56013 69903 70331 86500 333 56799 87625 90973 93197=
0193896640876012017050823554-77850+166667FM-15+002499999V0200401N00931007011CN008000199-02601-03401097831ADDGA1071+007011999GE19MSL   +99999+99999GF199999071999007011999999MA1097761097395MW1381OC101341REMMET088METAR NZCM 082355Z 04018G26KT 8000 BLSN BKN023 M26/M34 A2887 RMK PK WND 01031/36 SLP783=
0286896640876012017050900004-77850+166667FM-12+002499999V0200401N00931006901CN008000199-02641-03451097831ADDAA124000021AL19900031AY131021AY221021GA1071+006901061GE19MSL   +99999+99999GF107991071999006901999999KA1120M-02451KA2120N-02781MA1097755097381MD1610111+9999MW1381REMSYN11289664 11558 70418 11264 21345 39738 49783 56011 69904 73832 87500 333 11245 21278 56700 59071 87623 90973 93197=
0191896640876012017050905554-77850+166667FM-15+002499999V0200901N005119999999N009999199-02501-03301097861ADDGA1021+018291999GE19MSL   +99999+99999GF199999021999018291999999MA1097801097425OD149901391040REMMET086METAR NZCM 090555Z COR 09010KT 9999 FEW060 M25/M33 A2888 RMK PK WND 04027/0000 SLP786=
0203896640876012017050906004-77850+166667FM-12+002499999V0200901N005112200019N011000199-02491-03351097861ADDAY131021AY211021GA1021+018001061GE19MSL   +99999+99999GF102991021999018001999999MA1097795097421MD1410001+9999MW1011REMSYN07689664 31761 20910 11249 21335 39742 49786 54000 70131 82500 333 56700 82656=
0155896640876012017050911554-77850+166667FM-15+002499999V0201001N005119999999N009999199-02301-03201098021ADDGA1041+018291999GE19MSL   +99999+99999GF199999041999018291999999MA1097931097585REMMET064METAR NZCM 091155Z 10010KT 9999 SCT060 M23/M32 A2892 RMK SLP802=
0219896640876012017050912004-77850+166667FM-12+002499999V0201001N005112200019N011000199-02341-03211098021ADDGA1031+018001061GE19MSL   +99999+99999GF103991031999018001999999KA1240M-02311KA2240N-02701MA1097945097571MD1310051+9999REMSYN08889664 32761 31010 11234 21321 39757 49802 53005 83500 333 11231 21270 56700 59024 83656=
0166896640876012017050917554-77850+166667FM-15+002499999V0200901N00571018291CN009999199-02401-02901098121ADDGA1081+018291999GE19MSL   +99999+99999GF199999081999018291999999MA1098071097685OC101031REMMET067METAR NZCM 091755Z 09011G20KT 9999 OVC060 M24/M29 A2896 RMK SLP812=
0175896640876012017050918004-77850+166667FM-12+002499999V0200901N00571018001CN011000199-02391-02891098121ADDGA1081+018001061GE19MSL   +99999+99999GF108991081999018001999999MA1098055097681MD1110091+9999REMSYN07089664 32761 80911 11239 21289 39768 49812 51009 885// 333 56299 88656=
0228896640876012017050923554-77850+166667FM-15+002499999V0200701N004610182919N009000199-02401-02901098331ADDGA1041+010061999GA2071+018291999GE19MSL   +99999+99999GF199999041999010061999999MA1098271097895MW1711OD149901691110REMMET101METAR NZCM 092355Z 07009KT 9000 -SN SCT033 BKN060 M24/M29 A2902 RMK PK WND 11033/2204 SNB1930 SLP833=
0308896640876012017051000004-77850+166667FM-12+002499999V0200701N004610180019N009000199-02411-02921098331ADDAA106000021AL19900031AY171021AY221021GA1041+009901061GA2071+018001061GE19MSL   +99999+99999GF107991041999009901999999KA1120M-02301KA2120N-02441MA1098265097891MD1210151+9999MW1711REMSYN11889664 11659 70709 11241 21292 39789 49833 52015 69901 77172 87500 333 11230 21244 56200 58051 84633 87656 90952 93197=
0197896640876012017051005554-77850+166667FM-15+002499999V0200601N00621015241CN009000199-02301-02801098411ADDGA1081+015241999GE19MSL   +99999+99999GF199999081999015241999999MA1098341097975MW1711OD149901331120REMMET086METAR NZCM 100555Z 06012KT 9000 -SN OVC050 M23/M28 A2904 RMK PK WND 12026/0056 SLP841=
0242896640876012017051006004-77850+166667FM-12+002499999V0200601N00621015001CN009000199-02321-02811098411ADDAA106000331AL19900131AY171021AY271021GA1081+015001061GE19MSL   +99999+99999GF108991081999015001999999MA1098345097971MD1810011+9999MW1711REMSYN09489664 11759 80612 11232 21281 39797 49841 58001 69931 77177 885// 333 56299 88650 90973 93101=
0165896640876012017051011554-77850+166667FM-15+002499999V0200701N00311009141CN004800199-02201-02601098461ADDGA1081+009141999GE19MSL   +99999+99999GF199999081999009141999999MA1098411098025MW1711REMMET068METAR NZCM 101155Z 07006KT 4800 -SN OVC030 M22/M26 A2906 RMK SLP846=
0286896640876012017051012004-77850+166667FM-12+002499999V0200701N00311009001CN004800199-02191-02591098461ADDAA112000631AL19900331AY171021AY271021GA1081+009001061GE19MSL   +99999+99999GF108991081999009001999999KA1240M-02151KA2240N-02491MA1098395098021MD1310081+9999MW1711REMSYN11289664 11548 80706 11219 21259 39802 49846 53008 69962 77177 885// 333 11215 21249 56299 58045 88630 90983 93103=
0187896640876012017051017554-77850+166667FM-15+002499999V0200501N00931010671CN003200199-02201-02501098431ADDGA1081+010671999GE19MSL   +99999+99999GF199999081999010671999999MA1098371097995MW1381MW2711OC101131REMMET076METAR NZCM 101755Z 05018G22KT 3200 -SN BLSN OVC035 M22/M25 A2905 RMK SLP843=
0248896640876012017051018004-77850+166667FM-12+002499999V0200501N00931010501CN003200199-02191-02531098431ADDAA118000831AL19900331AY171021AY271021GA1081+010501061GE19MSL   +99999+99999GF108991081999010501999999MA1098365097991MD1610071+9999MW1711REMSYN10089664 11632 80518 11219 21253 39799 49843 56007 69983 77177 885// 333 56299 88635 90983 93103 96038=
0165896640876012017051023554-77850+166667FM-15+002499999V0200801N00461014631CN009999199-02101-02401098361ADDGA1081+014631999GE19MSL   +99999+99999GF199999081999014631999999MA1098311097925MW1711REMMET068METAR NZCM 102355Z 08009KT 9999 -SN OVC048 M21/M24 A2903 RMK SLP836=
0286896640876012017051100004-77850+166667FM-12+002499999V0200801N00461014401CN011000199-02081-02381098361ADDAA124000831AL19900731AY171021AY231021GA1081+014401061GE19MSL   +99999+99999GF108991081999014401999999KA1120M-01991KA2120N-02261MA1098295097921MD1810021+9999MW1711REMSYN11289664 11661 80809 11208 21238 39792 49836 58002 69984 77173 885// 333 11199 21226 56299 58003 88648 90983 93107=
0186896640876012017051105554-77850+166667FM-15+002499999V0200701N00151033531CN009999199-01901-02401098201ADDGA1021+015241999GA2041+033531999GE19MSL   +99999+99999GF199999021999015241999999MA1098141097775REMMET079METAR NZCM 110555Z 07003KT 9999 FEW050 SCT110 M19/M24 A2898 RMK SNE0330 SLP820=
0283896640876012017051106004-77850+166667FM-12+002499999V0200701N00151999999CN011000199-01931-02441098201ADDAA106000021AL19900031AY171021AY211021GA1021+015001061GA2041+033001031GE19MSL   +99999+99999GF104991021999015001999999MA1098145097771MD1810061+9999MW1011REMSYN10089664 11761 40703 11193 21244 39777 49820 58006 69901 70171 82530 333 56220 82650 84361 90933 93197=EQDQ01 033003SCOCIG
0155896640876012017051111554-77850+166667FM-15+002499999V0209999C000019999999N009999199-02101-02601098021ADDGA1041+033531999GE19MSL   +99999+99999GF199999041999033531999999MA1097971097585REMMET064METAR NZCM 111155Z 00000KT 9999 SCT110 M21/M26 A2893 RMK SLP802=
0258896640876012017051112004-77850+166667FM-12+002499999V0209999C000012200019N011000199-02061-02651098021ADDAA112000021AL19900031GA1031+033001031GE19MSL   +99999+99999GF103991031999033001999999KA1240M-01811KA2240N-02141MA1097955097581MD1710061+9999REMSYN10689664 12961 30000 11206 21265 39758 49802 57006 69902 83030 333 11181 21214 56020 59044 83361 90973 93197=
0155896640876012017051117554-77850+166667FM-15+002499999V0200801N00311005491CN009999199-01901-02401097801ADDGA1081+005491999GE19MSL   +99999+99999GF199999081999005491999999MA1097731097375REMMET064METAR NZCM 111755Z 08006KT 9999 OVC018 M19/M24 A2886 RMK SLP780=
0214896640876012017051118004-77850+166667FM-12+002499999V0200801N00311005401CN011000199-01941-02421097801ADDAA118000021AL19900031GA1081+005401071GE19MSL   +99999+99999GF108991081999005401999999MA1097745097371MD1710101+9999REMSYN08889664 12461 80806 11194 21242 39737 49780 57010 69903 886// 333 56799 88718 90983 93197=
0164896640876012017051123554-77850+166667FM-15+002499999V0201001N009319999999N006000199-02401-02701097591ADDGA1041+012191999GE19MSL   +99999+99999GF199999041999012191999999MA1097531097155MW1101REMMET067METAR NZCM 112355Z 10018KT 6000 BR SCT040 M24/M27 A2880 RMK SLP759=
0164896640876012017051223554-77850+166667FM-15+002499999V0200701N002119999999N009000199-02601-02901098021ADDGA1021+027431999GE19MSL   +99999+99999GF199999021999027431999999MA1097971097585MW1101REMMET067METAR NZCM 122355Z 07004KT 9000 BR FEW090 M26/M29 A2893 RMK SLP802=
0305896640876012017051300004-77850+166667FM-12+002499999V0200701N002112200019N009000199-02601-02901098021ADDAA124000091AL19900031AY101021AY201021GA1021+027001041GE19MSL   +99999+99999GF102991021999027001999999KA1120M-02151KA2120N-02791MA1097965097591MD1310131+9999MW1101REMSYN11289664 11959 20704 11260 21290 39759 49802 53013 69904 71000 82010 333 11215 21279 56070 58044 82459 90982 93197=EQDQ01  00002PRCP24
0178896640876012017051305554-77850+166667FM-15+002499999V0209999C00001027431CN009999199-02601-03001098091ADDGA1021+010671999GA2041+027431999GE19MSL   +99999+99999GF199999021999010671999999MA1098041097655REMMET071METAR NZCM 130555Z 00000KT 9999 FEW035 SCT090 M26/M30 A2895 RMK SLP809=
0216896640876012017051306004-77850+166667FM-12+002499999V0209999C00001999999CN011000199-02601-02991098091ADDGA1021+010501071GA2041+027001041GE19MSL   +99999+99999GF104991021999010501999999MA1098025097651MD1310031+9999REMSYN07689664 32661 40000 11260 21299 39765 49809 53003 82610 333 56770 82735 84459=EQDQ01 027003SCOCIG
0155896640876012017051311554-77850+166667FM-15+002499999V0203501N004119999999N009999199-02001-02301097771ADDGA1021+027431999GE19MSL   +99999+99999GF199999021999027431999999MA1097701097345REMMET064METAR NZCM 131155Z 35008KT 9999 FEW090 M20/M23 A2885 RMK SLP777=
0219896640876012017051312004-77850+166667FM-12+002499999V0203501N004112200019N011000199-02021-02321097771ADDGA1021+027001041GE19MSL   +99999+99999GF102991021999027001999999KA1240M-02001KA2240N-02831MA1097715097341MD1810151+9999REMSYN08889664 32961 23508 11202 21232 39734 49777 58015 82010 333 11200 21283 56070 58042 82459=
0155896640876012017051317554-77850+166667FM-15+002499999V0203301N004119999999N009999199-02001-02301097351ADDGA1021+009141999GE19MSL   +99999+99999GF199999021999009141999999MA1097291096925REMMET064METAR NZCM 131755Z 33008KT 9999 FEW030 M20/M23 A2873 RMK SLP735=
0175896640876012017051318004-77850+166667FM-12+002499999V0203301N004112200019N011000199-02021-02321097351ADDGA1021+009001061GE19MSL   +99999+99999GF102991021999009001999999MA1097285096911MD1810201+9999REMSYN07089664 32561 23308 11202 21232 39691 49735 58020 82500 333 56700 82630=
0155896640876012017051323554-77850+166667FM-15+002499999V0203301N00571027431CN009999199-01901-02201096851ADDGA1081+027431999GE19MSL   +99999+99999GF199999081999027431999999MA1096782096425REMMET064METAR NZCM 132355Z 33011KT 9999 OVC090 M19/M22 A2858 RMK SLP685=
0219896640876012017051400004-77850+166667FM-12+002499999V0203301N00571027001CN011000199-01861-02181096851ADDGA1081+027001031GE19MSL   +99999+99999GF108991081999027001999999KA1120M-01851KA2120N-02621MA1999999096421MD1810231+9999REMSYN08889664 32961 83311 11186 21218 39642 49685 58023 8807/ 333 11185 21262 56079 59117 88359=
0173896640876012017051405554-77850+166667FM-15+002499999V0203201N00261003661CN001200199-01601-01901096691ADDGA1081+003661999GE19MSL   +99999+99999GF199999081999003661999999MA1096612096275MW1711REMMET076METAR NZCM 140555Z 32005KT 1200 -SN OVC012 M16/M19 A2853 RMK SNB0330 SLP669=
0242896640876012017051406004-77850+166667FM-12+002499999V0203201N00261003601CN001200199-01581-01941096691ADDAA106000021AL19900031AY171021AY221021GA1081+003601061GE19MSL   +99999+99999GF108991081999003601999999MA1999999096261MD1310031+9999MW1711REMSYN09489664 11412 83205 11158 21194 39626 49669 53003 69901 77172 885// 333 56799 88612 90931 93197=
0165896640876012017051411554-77850+166667FM-15+002499999V0200301N00671003351CN001200199-01501-01801096911ADDGA1081+003351999GE19MSL   +99999+99999GF199999081999003351999999MA1096851096495MW1711REMMET068METAR NZCM 141155Z 03013KT 1200 -SN OVC011 M15/M18 A2860 RMK SLP691=
0217896640876012017051417554-77850+166667FM-15+002499999V0200701N00821001221WN000200199-02201-02601097661ADDGA1091+001221999GE19MSL   +99999+99999GF109991091999001221999999MA1097601097225MW1381MW2731OC101241OD149902111170REMMET092METAR NZCM 141755Z 07016G24KT 0200 SN BLSN VV004 M22/M26 A2882 RMK PK WND 17041/1513 SLP766=
0218896640876012017051423554-77850+166667FM-15+002499999V0200901N00771003661CN000400199-02201-02501098171ADDGA1081+003661999GE19MSL   +99999+99999GF199999081999003661999999MA1098101097735MW1381MW2731OC101131OD149902211160REMMET093METAR NZCM 142355Z 09015G22KT 0400 SN BLSN OVC012 M22/M25 A2897 RMK PK WND 16043/1916 SLP817=
0298896640876012017051500004-77850+166667FM-12+002499999V0200901N00771003601CN000400199-02241-02551098171ADDAA124003031AL19901331AY171021AY271021GA1081+003601061GE19MSL   +99999+99999GF108991081999003601999999KA1120M-01411KA2120N-02291MA1098105097731MD1110241+9999MW1711REMSYN12489664 11404 80915 11224 21255 39773 49817 51024 60034 77177 885// 333 01643 11141 21229 56399 58131 88612 90983 93113 96038=
0197896640876012017051505554-77850+166667FM-15+002499999V0209999C00001008231CN001200199-01401-01501098021ADDGA1081+008231999GE19MSL   +99999+99999GF199999081999008231999999MA1097971097605MW1711OD149901441020REMMET086METAR NZCM 150555Z 00000KT 1200 -SN OVC027 M14/M15 A2893 RMK PK WND 02028/0127 SLP802=
0242896640876012017051506004-77850+166667FM-12+002499999V0209999C00001008101CN001200199-01381-01541098021ADDAA106000331AL19900131AY171021AY271021GA1081+008101061GE19MSL   +99999+99999GF108991081999008101999999MA1097965097591MD1610101+9999MW1711REMSYN09489664 11512 80000 11138 21154 39759 49802 56010 69931 77177 885// 333 56399 88627 90983 93101=
0286896640876012017051512004-77850+166667FM-12+002499999V0209999C00001009001CN001200199-01451-01631097701ADDAA112000831AL19900331AY171021AY271021GA1081+009001061GE19MSL   +99999+99999GF108991081999009001999999KA1240M-01381KA2240N-02271MA1097645097271MD1610201+9999MW1711REMSYN11289664 11512 80000 11145 21163 39727 49770 56020 69982 77177 885// 333 11138 21227 56399 58080 88630 90983 93103=
0165896640876012017051517554-77850+166667FM-15+002499999V0201101N00361007621CN001200199-00801-00901097291ADDGA1081+007621999GE19MSL   +99999+99999GF199999081999007621999999MA1097221096885MW1711REMMET068METAR NZCM 151755Z 11007KT 1200 -SN OVC025 M08/M09 A2871 RMK SLP729=
0242896640876012017051518004-77850+166667FM-12+002499999V0201101N00361007501CN001200199-00821-00891097291ADDAA118001031AL19900531AY171021AY271021GA1081+007501061GE19MSL   +99999+99999GF108991081999007501999999MA1097245096871MD1610241+9999MW1711REMSYN09489664 11512 81107 11082 21089 39687 49729 56024 60013 77177 885// 333 56399 88625 90983 93105=
0188896640876012017051523554-77850+166667FM-15+002499999V0201601N00571009141CN009999199-00801-00801097111ADDGA1071+009141999GA2081+021341999GE19MSL   +99999+99999GF199999071999009141999999MA1097051096705MW1711REMMET075METAR NZCM 152355Z 16011KT 9999 -SN BKN030 OVC070 M08/M08 A2866 RMK SLP711=
0203896640876012017051605554-77850+166667FM-15+002499999V0201801N01541002441CN000200199-00801-00901096961ADDGA1081+002441999GE19MSL   +99999+99999GF199999081999002441999999MA1096921096555MW1381MW2711OC102111REMMET092METAR NZCM 160555Z 18030G41KT 0200 -SN BLSN OVC008 M08/M09 A2862 RMK PK WND 19047/30 SLP696=
0254896640876012017051606004-77850+166667FM-12+002499999V0201801N01541002401CN000200199-00821-00871096961ADDAA106000331AL19900131AY171021AY271021GA1081+002401061GE19MSL   +99999+99999GF108991081999002401999999MA1096925096551MD1510051+9999MW1711REMSYN10689664 11302 81830 11082 21087 39655 49696 55005 69931 77177 885// 333 01841 56399 88608 90983 93195 96038=
0186896640876012017051611554-77850+166667FM-15+002499999V0201601N01961000911WN000200199-00901-00901096961ADDGA1091+000911999GE19MSL   +99999+99999GF109991091999000911999999MA1096921096555MW1381MW2711OC102571REMMET075METAR NZCM 161155Z 16038G50KT 0200 -SN BLSN VV003 M09/M09 A2862 RMK SLP696=
0286896640876012017051612004-77850+166667FM-12+002499999V0201601N01961000901WN000800199-00861-00931096961ADDAA112000631AL19900131AY171021AY271021GA1091+000901999GE19MSL   +99999+99999GF109991091999000901999999KA1240M-00711KA2240N-00991MA1096915096541MD1810121+9999MW1711REMSYN11289664 11108 91638 11086 21093 39654 49696 58012 69962 77177 333 11071 21099 56999 59073 89/03 90983 93101 96038=
0218896640876012017051617554-77850+166667FM-15+002499999V0201301N01131000611WN000200199-00901-01001097411ADDGA1091+000611999GE19MSL   +99999+99999GF109991091999000611999999MA1097361097005MW1381MW2711OC102161OD149902831160REMMET093METAR NZCM 161755Z 13022G42KT 0200 -SN BLSN VV002 M09/M10 A2875 RMK PK WND 16055/1208 SLP741=
0242896640876012017051618004-77850+166667FM-12+002499999V0201301N01131000601WN000200199-00951-01021097411ADDAA118000631AL19900131AY171021AY271021GA1091+000601999GE19MSL   +99999+99999GF109991091999000601999999MA1097365096991MD1110241+9999MW1711REMSYN09489664 11/02 91322 11095 21102 39699 49741 51024 69963 77177 333 01655 89/02 90983 93101 96038=
0186896640876012017051623554-77850+166667FM-15+002499999V0201801N01961000611WN000200199-01001-01101097681ADDGA1091+000611999GE19MSL   +99999+99999GF109991091999000611999999MA1097631097265MW1381MW2711OC102881REMMET075METAR NZCM 162355Z 18038G56KT 0200 -SN BLSN VV002 M10/M11 A2883 RMK SLP768=
0225896640876012017051705554-77850+166667FM-15+002499999V0201501N01341000911WN000300199-01101-01201098291ADDGA1091+000911999GE19MSL   +99999+99999GF109991091999000911999999MA1098241097875MW1381MW2711OC102061OD149902721170REMMET100METAR NZCM 170555Z 15026G40KT 0300 -SN BLSN VV003 M11/M12 A2901 RMK PK WND 17053/0320 PRESRR SLP829=
0242896640876012017051706004-77850+166667FM-12+002499999V0201501N01341000901WN000300199-01111-01211098291ADDAA106000531AL19900231AY171021AY271021GA1091+000901999GE19MSL   +99999+99999GF109991091999000901999999MA1098245097871MD1310221+9999MW1711REMSYN09489664 11/03 91526 11111 21121 39787 49829 53022 69951 77177 333 01753 89/03 90983 93102 96038=
0202896640876012017051711554-77850+166667FM-15+002499999V0200801N00721033531CN009999199-01301-01401098881ADDGA1071+033531999GE19MSL   +99999+99999GF199999071999033531999999MA1098811098455OD149901591080REMMET097METAR NZCM 171155Z 08014KT 9999 BKN110 M13/M14 A2918 RMK PK WND 08031/0605 SNE1000 PRESRR SLP888=
0198896640876012017051717554-77850+166667FM-15+002499999V0200601N00771019811CN009999199-01201-01301098971ADDGA1081+019811999GE19MSL   +99999+99999GF199999081999019811999999MA1098921098555OC100981OD149901591130REMMET085METAR NZCM 171755Z 06015G19KT 9999 OVC065 M12/M13 A2921 RMK PK WND 13031/1327 SLP897=
0214896640876012017051718004-77850+166667FM-12+002499999V0200601N00771018001CN011000199-01181-01311098971ADDAA118000531AL19900231GA1081+018001061GE19MSL   +99999+99999GF108991081999018001999999MA1098925098541MD1810021+9999REMSYN08889664 32761 80615 11118 21131 39854 49897 58002 69953 885// 333 56399 88656 90973 93102=
0155896640876012017051723554-77850+166667FM-15+002499999V0200601N00461033531CN009999199-01301-01501099151ADDGA1071+033531999GE19MSL   +99999+99999GF199999071999033531999999MA1099091098725REMMET064METAR NZCM 172355Z 06009KT 9999 BKN110 M13/M15 A2926 RMK SLP915=
0258896640876012017051800004-77850+166667FM-12+002499999V0200601N00461033001CN011000199-01301-01491099151ADDAA124000531AL19900231GA1061+033001031GE19MSL   +99999+99999GF106991061999033001999999KA1120M-01051KA2120N-01541MA1099105098721MD1310071+9999REMSYN10689664 12961 60609 11130 21149 39872 49915 53007 69954 86030 333 11105 21154 56030 58146 86361 90983 93102=
0155896640876012017051805554-77850+166667FM-15+002499999V0200601N003619999999N009999199-01401-01601099431ADDGA1021+033531999GE19MSL   +99999+99999GF199999021999033531999999MA1099391099005REMMET064METAR NZCM 180555Z 06007KT 9999 FEW110 M14/M16 A2935 RMK SLP943=
0175896640876012017051806004-77850+166667FM-12+002499999V0200601N003612200019N011000199-01451-01651099431ADDGA1021+033001031GE19MSL   +99999+99999GF102991021999033001999999MA1099375098991MD1990081+9999REMSYN07089664 32961 20607 11145 21165 39899 49943 50008 82030 333 56030 82361=
0155896640876012017051811554-77850+166667FM-15+002499999V0200701N006219999999N009999199-01601-01801099481ADDGA1021+033531999GE19MSL   +99999+99999GF199999021999033531999999MA1099421099055REMMET064METAR NZCM 181155Z 07012KT 9999 FEW110 M16/M18 A2936 RMK SLP948=
0219896640876012017051812004-77850+166667FM-12+002499999V0200701N006212200019N011000199-01631-01811099481ADDGA1011+033001031GE19MSL   +99999+99999GF101991011999033001999999KA1240M-01141KA2240N-01891MA1099435099051MD1990021+9999REMSYN08889664 32961 10712 11163 21181 39905 49948 50002 81030 333 11114 21189 56030 58060 81361=
0141896640876012017051817554-77850+166667FM-15+002499999V0201101N007712200019N009999199-01801-02101099621ADDGF100991999999999999999999MA1099561099185OC101131REMMET080METAR NZCM 181755Z 11015G22KT 9999 SKC M18/M21 A2940 RMK PK WND 08026/04 SLP962=
0155896640876012017051823554-77850+166667FM-15+002499999V0201401N001519999999N009999199-01701-02101099621ADDGA1021+024381999GE19MSL   +99999+99999GF199999021999024381999999MA1099561099185REMMET064METAR NZCM 182355Z 14003KT 9999 FEW080 M17/M21 A2940 RMK SLP962=
0219896640876012017051900004-77850+166667FM-12+002499999V0201401N001512200019N011000199-01751-02071099621ADDGA1011+024001031GE19MSL   +99999+99999GF101991011999024001999999KA1120M-01531KA2120N-02041MA1099555099171MD1510011+9999REMSYN08889664 32761 11403 11175 21207 39917 49962 55001 81030 333 11153 21204 56030 58045 81358=
0114896640876012017051905554-77850+166667FM-15+002499999V0209999C000012200019N009999199-01701-02001099471ADDGF100991999999999999999999MA1099391099045REMMET061METAR NZCM 190555Z 00000KT 9999 SKC M17/M20 A2935 RMK SLP947=
0137896640876012017051906004-77850+166667FM-12+002499999V0209999C00001002401WN011000199-01751-02041099461ADDGE19MSL   +99999+99999GF109991999999999999999999MA1099405099021MD1810111+9999REMSYN04889664 11961 90000 11175 21204 39902 49946 58011=
0114896640876012017051911554-77850+166667FM-15+002499999V0209999C000012200019N009999199-02201-02601099001ADDGF100991999999999999999999MA1098951098565REMMET061METAR NZCM 191155Z 00000KT 9999 SKC M22/M26 A2922 RMK SLP900=
0156896640876012017051912004-77850+166667FM-12+002499999V0209999C000019999999N011000199-02211-02571999999ADDKA1240M-01551KA2240N-02251MA1098945098561MD1810271-0491REMSYN07089664 32961 00000 11221 21257 39856 49990 58027 333 11155 21225 59049=EQDQ01999   3APOSLP
0155896640876012017051917554-77850+166667FM-15+002499999V0200901N003619999999N009999199-01601-01901098561ADDGA1021+025911999GE19MSL   +99999+99999GF199999021999025911999999MA1098511098135REMMET064METAR NZCM 191755Z 09007KT 9999 FEW085 M16/M19 A2909 RMK SLP856=
0175896640876012017051918004-77850+166667FM-12+002499999V0200901N003612200019N011000199-01631-01881098561ADDGA1011+024001041GE19MSL   +99999+99999GF101991011999024001999999MA1098505098121MD1610231+9999REMSYN07089664 32961 10907 11163 21188 39812 49856 56023 81020 333 56020 81458=
0155896640876012017051923554-77850+166667FM-15+002499999V0209999V002119999999N009999199-01701-02001098391ADDGA1021+030481999GE19MSL   +99999+99999GF199999021999030481999999MA1098311097965REMMET064METAR NZCM 192355Z VRB04KT 9999 FEW100 M17/M20 A2903 RMK SLP839=
0219896640876012017052000004-77850+166667FM-12+002499999V0209999V002112200019N011000199-01681-02011098391ADDGA1011+030001031GE19MSL   +99999+99999GF101991011999030001999999KA1120M-01341KA2120N-02131MA1098325097951MD1610151+9999REMSYN08889664 32961 19904 11168 21201 39795 49839 56015 81030 333 11134 21213 56020 59122 81360=
0178896640876012017052005554-77850+166667FM-15+002499999V0200801N007210304819N009999199-01501-02001098171ADDGA1021+024381999GA2071+030481999GE19MSL   +99999+99999GF199999021999024381999999MA1098101097745REMMET071METAR NZCM 200555Z 08014KT 9999 FEW080 BKN100 M15/M20 A2897 RMK SLP817=
0197896640876012017052006004-77850+166667FM-12+002499999V0200801N00721030001CN011000199-01521-02021098171ADDGA1021+024001031GA2051+030001031GE19MSL   +99999+99999GF105991021999024001999999MA1098115097741MD1810061+9999REMSYN07689664 32861 50814 11152 21202 39774 49817 58006 85070 333 56020 82358 85360=
0245896640876012017052011554-77850+166667FM-15+002499999V0201301N00821015241CN008000199-01701-02001098201ADDGA1071+015241999GA2081+021341999GE19MSL   +99999+99999GF199999071999015241999999MA1098141097775MW1381MW2711OC101341REMMET118METAR NZCM 201155Z 13016G26KT 8000 -SN BLSN BKN050 OVC070 M17/M20 A2898 RMK PK WND 11033/36 WSHFT 1133 SNB0900 SLP820=
0219896640876012017052017554-77850+166667FM-15+002499999V0200901N00771003661CN000800199-01701-01901098351ADDGA1081+003661999GE19MSL   +99999+99999GF199999081999003661999999MA1098311097925MW1381MW2711OC101291OD149901851130REMMET094METAR NZCM 201755Z 09015G25KT 0800 -SN BLSN OVC012 M17/M19 A2903 RMK PK WND 13036/1216 SLP835=
0218896640876012017052023554-77850+166667FM-15+002499999V0200601N01031002441WN000800199-02101-02401098501ADDGA1091+002441999GE19MSL   +99999+99999GF109991091999002441999999MA1098441098065MW1381MW2711OC101441OD149902111140REMMET093METAR NZCM 202355Z 06020G28KT 0800 -SN BLSN VV008 M21/M24 A2907 RMK PK WND 14041/2140 SLP850=
0286896640876012017052100004-77850+166667FM-12+002499999V0200601N01031002401WN000800199-02141-02391098501ADDAA118000021AL19900031AY171021AY271021GA1091+002401999GE19MSL   +99999+99999GF109991091999002401999999KA1120M-01651KA2120N-02151MA1098435098061MD1110111+0111MW1711REMSYN11289664 11/08 90620 11214 21239 39806 49850 51011 69903 77177 333 01441 11165 21215 58011 89/08 90983 93197 96038=
0203896640876012017052105554-77850+166667FM-15+002499999V0201201N00931015241CN004800199-01901-02201098371ADDGA1081+015241999GE19MSL   +99999+99999GF199999081999015241999999MA1098311097945MW1381MW2711OC101391REMMET092METAR NZCM 210555Z 12018G27KT 4800 -SN BLSN OVC050 M19/M22 A2903 RMK PK WND 16032/01 SLP837=
0193896640876012017052111554-77850+166667FM-15+002499999V0201801N007719999999N009999199-02101-02601098231ADDGA1021+054861999GE19MSL   +99999+99999GF199999021999054861999999MA1098171097795OD149901951140REMMET088METAR NZCM 211155Z 18015KT 9999 FEW180 M21/M26 A2899 RMK PK WND 14038/1031 SNE00 SLP823=
0195896640876012017052117554-77850+166667FM-15+002499999V0200601N00881022861CN009999199-02301-02901098031ADDGA1071+022861999GE19MSL   +99999+99999GF199999071999022861999999MA1097971097595MW1361OC101341REMMET090METAR NZCM 211755Z 06017G26KT 9999 DRSN BKN075 M23/M29 A2893 RMK PK WND 05029/1616 SLP803=
0187896640876012017052123554-77850+166667FM-15+002499999V0200701N006219999999N009999199-02401-03001097971ADDGA1021+022861999GE19MSL   +99999+99999GF199999021999022861999999MA1097901097535OD149901391060REMMET082METAR NZCM 212355Z 07012KT 9999 FEW075 M24/M30 A2891 RMK PK WND 06027/1938 SLP797=
0258896640876012017052200004-77850+166667FM-12+002499999V0200701N006212200019N011000199-02381-03031097971ADDAA124000021AL19900031GA1021+021001041GE19MSL   +99999+99999GF102991021999021001999999KA1120M-01981KA2120N-02551MA1097915097541MD1510011+9999REMSYN10689664 12861 20712 11238 21303 39754 49797 55001 69904 82020 333 11198 21255 56030 59052 82457 90983 93197=
0187896640876012017052205554-77850+166667FM-15+002499999V0200601N001019999999N009999199-02101-03301097831ADDGA1021+018291999GE19MSL   +99999+99999GF199999021999018291999999MA1097761097405OD149901391040REMMET082METAR NZCM 220555Z 06002KT 9999 FEW060 M21/M33 A2887 RMK PK WND 04027/0200 SLP783=
0175896640876012017052206004-77850+166667FM-12+002499999V0200601N001012200019N011000199-02171-03301097831ADDGA1021+018001071GE19MSL   +99999+99999GF102991021999018001999999MA1097775097401MD1810041+9999REMSYN07089664 32761 20602 11217 21330 39740 49783 58004 82600 333 56300 82756=
0155896640876012017052211554-77850+166667FM-15+002499999V0209999C00001018291CN009999199-02101-03001097661ADDGA1071+018291999GE19MSL   +99999+99999GF199999071999018291999999MA1097601097235REMMET064METAR NZCM 221155Z 00000KT 9999 BKN060 M21/M30 A2882 RMK SLP766=
0219896640876012017052212004-77850+166667FM-12+002499999V0209999C00001018001CN011000199-02071-03001097661ADDGA1071+018001061GE19MSL   +99999+99999GF107991071999018001999999KA1240M-02041KA2240N-02471MA1097605097231MD1810101+9999REMSYN08889664 32761 70000 11207 21300 39723 49766 58010 87500 333 11204 21247 56300 59056 87656=
0155896640876012017052217554-77850+166667FM-15+002499999V0200901N00621027431CN009999199-01701-02501097561ADDGA1081+027431999GE19MSL   +99999+99999GF199999081999027431999999MA1097491097135REMMET064METAR NZCM 221755Z 09012KT 9999 OVC090 M17/M25 A2879 RMK SLP756=
0175896640876012017052218004-77850+166667FM-12+002499999V0200901N00621027001CN011000199-01751-02531097561ADDGA1081+027001041GE19MSL   +99999+99999GF108991081999027001999999MA1097495097121MD1310011+9999REMSYN07089664 32961 80912 11175 21253 39712 49756 53001 8802/ 333 56399 88459=
0173896640876012017052223554-77850+166667FM-15+002499999V0201301N00411009141CN000800199-01301-01601097631ADDGA1081+009141999GE19MSL   +99999+99999GF199999081999009141999999MA1097561097215MW1711REMMET076METAR NZCM 222355Z 13008KT 0800 -SN OVC030 M13/M16 A2881 RMK SNB2100 SLP763=
0286896640876012017052300004-77850+166667FM-12+002499999V0201301N00411009001CN000800199-01341-01621097631ADDAA106000021AL19900031AY171021AY221021GA1081+009001061GE19MSL   +99999+99999GF108991081999009001999999KA1120M-01221KA2120N-01691MA1097575097201MD1310081+9999MW1711REMSYN11289664 11508 81308 11134 21162 39720 49763 53008 69901 77172 885// 333 11122 21169 56399 59034 88630 90931 93197=
0165896640876012017052305554-77850+166667FM-15+002499999V0200901N00411009141CN001600199-01101-01301097621ADDGA1081+009141999GE19MSL   +99999+99999GF199999081999009141999999MA1097561097205MW1711REMMET068METAR NZCM 230555Z 09008KT 1600 -SN OVC030 M11/M13 A2881 RMK SLP762=
0242896640876012017052306004-77850+166667FM-12+002499999V0200901N00411009001CN001600199-01111-01311097621ADDAA106000531AL19900231AY171021AY271021GA1081+009001061GE19MSL   +99999+99999GF108991081999009001999999MA1097575097201MD1510001+9999MW1711REMSYN09489664 11516 80908 11111 21131 39720 49762 55000 69951 77177 885// 333 56399 88630 90973 93102=
0195896640876012017052311554-77850+166667FM-15+002499999V0201901N01701001221WN000200199-01201-01301097811ADDGA1091+001221999GE19MSL   +99999+99999GF109991091999001221999999MA1097761097395MW1381MW2711OC102371REMMET084METAR NZCM 231155Z 19033G46KT 0200 -SN BLSN VV004 M12/M13 A2887 RMK WSHFT 26 SLP781=
0203896640876012017052317554-77850+166667FM-15+002499999V0200701N00671018291CN009999199-01201-01501098291ADDGA1081+018291999GE19MSL   +99999+99999GF199999081999018291999999MA1098241097875MW1361OC101081REMMET098METAR NZCM 231755Z 07013G21KT 9999 DRSN OVC060 M12/M15 A2901 RMK PK WND 16040/1332 SNE1600 SLP829=
0187896640876012017052323554-77850+166667FM-15+002499999V0200901N005719999999N009999199-01401-02101098691ADDGA1021+018291999GE19MSL   +99999+99999GF199999021999018291999999MA1098651098265OD149901331040REMMET082METAR NZCM 232355Z 09011KT 9999 FEW060 M14/M21 A2913 RMK PK WND 04026/1808 SLP869=
0258896640876012017052400004-77850+166667FM-12+002499999V0200901N005712200019N011000199-01451-02081098691ADDAA124000831AL19900231GA1021+018001061GE19MSL   +99999+99999GF102991021999018001999999KA1120M-00931KA2120N-01451MA1098645098261MD1110241+9999REMSYN10689664 12761 20911 11145 21208 39826 49869 51024 69984 82500 333 11093 21145 56300 58106 82656 90973 93102=
0146896640876012017052405554-77850+166667FM-15+002499999V0200501N007712200019N009999199-01501-02301099101ADDGF100991999999999999999999MA1099051098675OD149901441110REMMET079METAR NZCM 240555Z 05015KT 9999 SKC M15/M23 A2925 RMK PK WND 11028/0042 SLP910=
0089896640876012017052406004-77850+166667FM-12+002499999V0200501N007719999999N011000199-01491-02301099101ADDMA1099045098661MD1110151+9999REMSYN04889664 32961 00515 11149 21230 39866 49910 51015=
0146896640876012017052411554-77850+166667FM-15+002499999V0200901N005712200019N009999199-01601-02501099461ADDGF100991999999999999999999MA1099391099035OD149901391060REMMET079METAR NZCM 241155Z 09011KT 9999 SKC M16/M25 A2935 RMK PK WND 06027/0612 SLP946=
0114896640876012017052417554-77850+166667FM-15+002499999V0209999C000012200019N009999199-01501-02301099761ADDGF100991999999999999999999MA1099691099335REMMET061METAR NZCM 241755Z 00000KT 9999 SKC M15/M23 A2944 RMK SLP976=
0089896640876012017052418004-77850+166667FM-12+002499999V0209999C000019999999N011000199-01531-02331099761ADDMA1099715099331MD1110101+9999REMSYN04889664 32961 00000 11153 21233 39933 49976 51010=
0155896640876012017052423554-77850+166667FM-15+002499999V0200801N00511021341CN009999199-01401-02501100011ADDGA1071+021341999GE19MSL   +99999+99999GF199999071999021341999999MA1099971099585REMMET064METAR NZCM 242355Z 08010KT 9999 BKN070 M14/M25 A2952 RMK SLP001=
0213896640876012017052500004-77850+166667FM-12+002499999V0200801N00511021001CN011000199-01391-02531100011ADDGA1071+021001031GE19MSL   +99999+99999GF107991071999021001999999KA1120M-01331KA2120N-01861MA1099955099571MD1210111+9999REMSYN08289664 32961 70810 11139 21253 39957 40001 52011 87070 333 11133 21186 56400 87357=
0159896640876012017052505554-77850+166667FM-15+002499999V0200501N00261021341CN009999199-01601-02701100151ADDGA1071+021341999GE19MSL   +99999+99999GF199999071999021341999999MA1100101099715REMMET068METAR NZCM 250555Z COR 05005KT 9999 BKN070 M16/M27 A2956 RMK SLP015=
0175896640876012017052506004-77850+166667FM-12+002499999V0200501N00261021001CN011000199-01601-02671100151ADDGA1071+021001031GE19MSL   +99999+99999GF107991071999021001999999MA1100095099711MD1310041+9999REMSYN07089664 32961 70505 11160 21267 39971 40015 53004 87070 333 56040 87357=
0155896640876012017052511554-77850+166667FM-15+002499999V0200901N00461021341CN009999199-01701-02601100251ADDGA1071+021341999GE19MSL   +99999+99999GF199999071999021341999999MA1100201099815REMMET064METAR NZCM 251155Z 09009KT 9999 BKN070 M17/M26 A2959 RMK SLP025=
0219896640876012017052512004-77850+166667FM-12+002499999V0200901N00461021001CN011000199-01661-02631100251ADDGA1061+021001031GE19MSL   +99999+99999GF106991061999021001999999KA1240M-01401KA2240N-01681MA1100195099811MD1310051+9999REMSYN08889664 32861 60909 11166 21263 39981 40025 53005 86070 333 11140 21168 56040 58079 86357=
0166896640876012017052517554-77850+166667FM-15+002499999V0201401N00821019811CN009999199-01601-02101100261ADDGA1081+019811999GE19MSL   +99999+99999GF199999081999019811999999MA1100201099825OC101241REMMET067METAR NZCM 251755Z 14016G24KT 9999 OVC065 M16/M21 A2959 RMK SLP026=
0155896640876012017052523554-77850+166667FM-15+002499999V0200801N00511018291CN009999199-01801-02301100261ADDGA1071+018291999GE19MSL   +99999+99999GF199999071999018291999999MA1100201099825REMMET064METAR NZCM 252355Z 08010KT 9999 BKN060 M18/M23 A2959 RMK SLP026=
0166896640876012017052605554-77850+166667FM-15+002499999V0200401N00721018291CN009999199-02001-02501099981ADDGA1071+018291999GE19MSL   +99999+99999GF199999071999018291999999MA1099901099545OC101081REMMET067METAR NZCM 260555Z 04014G21KT 9999 BKN060 M20/M25 A2950 RMK SLP998=
0175896640876012017052606004-77850+166667FM-12+002499999V0200401N00721018001CN011000199-01961-02521099981ADDGA1061+018001061GE19MSL   +99999+99999GF106991061999018001999999MA1099915099531MD1810221+9999REMSYN07089664 32761 60414 11196 21252 39953 49998 58022 86500 333 56200 86656=
0155896640876012017052611554-77850+166667FM-15+002499999V0209999C00001015241CN009999199-01701-02401099641ADDGA1081+015241999GE19MSL   +99999+99999GF199999081999015241999999MA1099561099205REMMET064METAR NZCM 261155Z 00000KT 9999 OVC050 M17/M24 A2940 RMK SLP964=
0219896640876012017052612004-77850+166667FM-12+002499999V0209999C00001015001CN011000199-01741-02371099641ADDGA1081+015001061GE19MSL   +99999+99999GF108991081999015001999999KA1240M-01641KA2240N-02041MA1099585099201MD1810201+9999REMSYN08889664 32761 80000 11174 21237 39920 49964 58020 885// 333 11164 21204 56299 59061 88650=
0201896640876012017052617554-77850+166667FM-15+002499999V0203401N002110137219N009999199-01801-02401099201ADDGA1021+007621999GA2071+013721999GA3081+021341999GE19MSL   +99999+99999GF199999021999007621999999MA1099121098765REMMET078METAR NZCM 261755Z 34004KT 9999 FEW025 BKN045 OVC070 M18/M24 A2927 RMK SLP920=
0197896640876012017052618004-77850+166667FM-12+002499999V0203401N00211013501CN011000199-01821-02411099201ADDGA1011+007501061GA2051+013501061GE19MSL   +99999+99999GF108991011999007501999999MA1099145098761MD1610201+9999REMSYN07689664 32861 83404 11182 21241 39876 49920 56020 8552/ 333 56739 81625 85645=
0155896640876012017052623554-77850+166667FM-15+002499999V0209999C00001007621CN009999199-01801-02301098731ADDGA1071+007621999GE19MSL   +99999+99999GF199999071999007621999999MA1098681098305REMMET064METAR NZCM 262355Z 00000KT 9999 BKN025 M18/M23 A2914 RMK SLP873=
0305896640876012017052700004-77850+166667FM-12+002499999V0209999C00001007501CN011000199-01801-02271098731ADDAA106000091AL19900031AY171021AY221021GA1061+007501061GE19MSL   +99999+99999GF106991061999007501999999KA1120M-01721KA2120N-02161MA1098675098291MD1810221+9999MW1021REMSYN11289664 11561 60000 11180 21227 39829 49873 58022 69901 70272 86500 333 11172 21216 56700 59152 86625 90951 93197=EQDQ01  00002PRCP06
0165896640876012017052705554-77850+166667FM-15+002499999V0209999C00001006101CN004800199-01801-02201098461ADDGA1081+006101999GE19MSL   +99999+99999GF199999081999006101999999MA1098411098035MW1711REMMET068METAR NZCM 270555Z 00000KT 4800 -SN OVC020 M18/M22 A2906 RMK SLP846=
0242896640876012017052706004-77850+166667FM-12+002499999V0209999C00001006001CN004800199-01811-02181098461ADDAA106000021AL19900131AY171021AY221021GA1081+006001061GE19MSL   +99999+99999GF108991081999006001999999MA1098395098021MD1610131+9999MW1711REMSYN09489664 11548 80000 11181 21218 39802 49846 56013 69901 77172 885// 333 56799 88620 90931 93101=
0155896640876012017052711554-77850+166667FM-15+002499999V0209999V001519999999N009999199-01801-02201098431ADDGA1021+018291999GE19MSL   +99999+99999GF199999021999018291999999MA1098371098005REMMET064METAR NZCM 271155Z VRB03KT 9999 FEW060 M18/M22 A2905 RMK SLP843=
0286896640876012017052712004-77850+166667FM-12+002499999V0209999V001512200019N011000199-01841-02171098431ADDAA112000021AL19900131AY171021AY211021GA1011+018001061GE19MSL   +99999+99999GF101991011999018001999999KA1240M-01661KA2240N-01961MA1098355097981MD1510011+9999MW1011REMSYN11289664 11761 19903 11184 21217 39798 49843 55001 69902 70171 81500 333 11166 21196 56700 59122 81656 90932 93101=
0173896640876012017052717554-77850+166667FM-15+002499999V0209999C00001004271CN009999199-01801-02101098501ADDGA1081+004271999GE19MSL   +99999+99999GF199999081999004271999999MA1098441098075MW1711REMMET076METAR NZCM 271755Z 00000KT 9999 -SN OVC014 M18/M21 A2907 RMK SNB1600 SLP850=
0242896640876012017052718004-77850+166667FM-12+002499999V0209999C00001004201CN011000199-01791-02081098501ADDAA118000021AL19900131AY171021AY211021GA1081+004201071GE19MSL   +99999+99999GF108991081999004201999999MA1098435098061MD1110041+9999MW1711REMSYN09489664 11461 80000 11179 21208 39806 49850 51004 69903 77171 886// 333 56799 88714 90931 93101=
0163896640876012017052723554-77850+166667FM-15+002499999V0200701N003619999999N009999199-02101-02601098611ADDGA1041+004271999GE19MSL   +99999+99999GF199999041999004271999999MA1098541098175REMMET072METAR NZCM 272355Z 07007KT 9999 SCT014 M21/M26 A2910 RMK SNB2200 SLP861=
0286896640876012017052800004-77850+166667FM-12+002499999V0200701N003612200019N011000199-02131-02581098611ADDAA124000021AL19900131AY171021AY221021GA1041+004201071GE19MSL   +99999+99999GF104991041999004201999999KA1120M-01781KA2120N-02291MA1098545098161MD1310021+9999MW1011REMSYN11289664 11461 40707 11213 21258 39816 49861 53002 69904 70172 84600 333 11178 21229 56700 59013 84714 90922 93101=
0155896640876012017052805554-77850+166667FM-15+002499999V0209999C000019999999N009999199-02101-02401098511ADDGA1041+005491999GE19MSL   +99999+99999GF199999041999005491999999MA1098441098075REMMET064METAR NZCM 280555Z 00000KT 9999 SCT018 M21/M24 A2907 RMK SLP851=
0175896640876012017052806004-77850+166667FM-12+002499999V0209999C000012200019N011000199-02111-02451098511ADDGA1041+005401071GE19MSL   +99999+99999GF104991041999005401999999MA1098445098071MD1810091+9999REMSYN07089664 32461 40000 11211 21245 39807 49851 58009 84600 333 56700 84718=
0114896640876012017052811554-77850+166667FM-15+002499999V0203201N002612200019N009999199-02301-02701098321ADDGF100991999999999999999999MA1098241097885REMMET061METAR NZCM 281155Z 32005KT 9999 SKC M23/M27 A2901 RMK SLP832=
0137896640876012017052812004-77850+166667FM-12+002499999V0203201N002619999999N011000199-02331-02721098321ADDKA1240M-01941KA2240N-02391MA1098245097871MD1810121-0111REMSYN07089664 32961 03205 11233 21272 39787 49832 58012 333 11194 21239 59011=
0136896640876012017052817554-77850+166667FM-15+002499999V0203301N006712200019N009999199-01801-02401098111ADDGF100991999999999999999999MA1098041097685MW1361OC101081REMMET069METAR NZCM 281755Z 33013G21KT 9999 DRSN SKC M18/M24 A2895 RMK SLP811=
0117896640876012017052818004-77850+166667FM-12+002499999V0203301N006719999999N011000199-01761-02381098111ADDAY101021AY201021MA1098045097671MD1510071+9999MW1361REMSYN05489664 31961 03313 11176 21238 39767 49811 55007 73600=
0125896640876012017052823554-77850+166667FM-15+002499999V0203401N007712200019N009999199-01701-02401098201ADDGF100991999999999999999999MA1098141097775OC101181REMMET064METAR NZCM 282355Z 34015G23KT 9999 SKC M17/M24 A2898 RMK SLP820=
0137896640876012017052900004-77850+166667FM-12+002499999V0203401N007719999999N011000199-01721-02411098201ADDKA1120M-01671KA2120N-02321MA1098145097771MD1310061-0391REMSYN07089664 32961 03415 11172 21241 39777 49820 53006 333 11167 21232 59039=
0155896640876012017052905554-77850+166667FM-15+002499999V0203301N006719999999N009999199-01701-02501098291ADDGA1041+018291999GE19MSL   +99999+99999GF199999041999018291999999MA1098241097865REMMET064METAR NZCM 290555Z 33013KT 9999 SCT060 M17/M25 A2901 RMK SLP829=
0175896640876012017052906004-77850+166667FM-12+002499999V0203301N006712200019N011000199-01731-02471098291ADDGA1031+018001061GE19MSL   +99999+99999GF103991031999018001999999MA1098225097851MD1310081+9999REMSYN07089664 32761 33313 11173 21247 39785 49829 53008 83500 333 56700 83656=
0166896640876012017052911554-77850+166667FM-15+002499999V0203401N00621024381CN009999199-01801-02201098321ADDGA1071+024381999GE19MSL   +99999+99999GF199999071999024381999999MA1098241097895OC101031REMMET067METAR NZCM 291155Z 34012G20KT 9999 BKN080 M18/M22 A2901 RMK SLP832=
0219896640876012017052912004-77850+166667FM-12+002499999V0203401N00621024001CN011000199-01821-02221098321ADDGA1071+024001031GE19MSL   +99999+99999GF107991071999024001999999KA1240M-01701KA2240N-02131MA1098255097881MD1990011+9999REMSYN08889664 32861 73412 11182 21222 39788 49832 50001 87070 333 11170 21213 56070 58001 87358=
0177896640876012017052917554-77850+166667FM-15+002499999V0203301N00931021341CN009999199-01801-02301098431ADDGA1081+021341999GE19MSL   +99999+99999GF199999081999021341999999MA1098371098005OC101291REMMET078METAR NZCM 291755Z 33018G25KT 9999 OVC070 M18/M23 A2905 RMK SNB1530E20 SLP843=
0242896640876012017052918004-77850+166667FM-12+002499999V0203301N00931021001CN011000199-01781-02271097972ADDAA118000531AL19900231AY171021AY221021GA1081+021001041GE19MSL   +99999+99999GF108991081999021001999999MA1098812098432MD1310031+9999MW1021REMSYN09489664 11861 83318 11178 21227 39843 49797 53003 69953 70272 8802/ 333 56399 88457 90911 93102=
0155896640876012017052923554-77850+166667FM-15+002499999V0203201N00311021341CN009999199-01701-02201098711ADDGA1071+021341999GE19MSL   +99999+99999GF199999071999021341999999MA1098651098285REMMET064METAR NZCM 292355Z 32006KT 9999 BKN070 M17/M22 A2913 RMK SLP871=
0258896640876012017053000004-77850+166667FM-12+002499999V0203201N00311021001CN011000199-01751-02221098711ADDAA112000531AL19900231GA1071+021001031GE19MSL   +99999+99999GF107991071999021001999999KA1120M-01741KA2120N-01781MA1098655098271MD1110091+9999REMSYN10689664 12861 73206 11175 21222 39827 49871 51009 69952 87070 333 11174 21178 56030 58050 87357 90971 93102=
0155896640876012017053005554-77850+166667FM-15+002499999V0200701N00211021341CN009999199-01901-02301098671ADDGA1071+021341999GE19MSL   +99999+99999GF199999071999021341999999MA1098611098245REMMET064METAR NZCM 300555Z 07004KT 9999 BKN070 M19/M23 A2912 RMK SLP867=
0155896640876012017053011554-77850+166667FM-15+002499999V0203101N00411012191CN009999199-01801-02201098541ADDGA1071+012191999GE19MSL   +99999+99999GF199999071999012191999999MA1098481098115REMMET064METAR NZCM 301155Z 31008KT 9999 BKN040 M18/M22 A2908 RMK SLP854=
0155896640876012017053017554-77850+166667FM-15+002499999V0209999V003119999999N009999199-01701-02001098081ADDGA1041+012191999GE19MSL   +99999+99999GF199999041999012191999999MA1098001097655REMMET064METAR NZCM 301755Z VRB06KT 9999 SCT040 M17/M20 A2894 RMK SLP808=
0175896640876012017053018004-77850+166667FM-12+002499999V0209999V003112200019N011000199-01661-02011098081ADDGA1031+012001061GE19MSL   +99999+99999GF103991031999012001999999MA1098015097641MD1610221+9999REMSYN07089664 32661 39906 11166 21201 39764 49808 56022 83500 333 56300 83640=
0155896640876012017053023554-77850+166667FM-15+002499999V0209999C00001030481CN009999199-01601-01901097731ADDGA1071+030481999GE19MSL   +99999+99999GF199999071999030481999999MA1097661097305REMMET064METAR NZCM 302355Z 00000KT 9999 BKN100 M16/M19 A2884 RMK SLP773=
0219896640876012017053100004-77850+166667FM-12+002499999V0209999C00001030001CN011000199-01571-01891097731ADDGA1061+030001031GE19MSL   +99999+99999GF106991061999030001999999KA1120M-01361KA2120N-02041MA1097665097291MD1810161+9999REMSYN08889664 32961 60000 11157 21189 39729 49773 58016 86070 333 11136 21204 56030 59098 86360=
0155896640876012017053105554-77850+166667FM-15+002499999V0200801N00621024381CN009999199-01501-02001097601ADDGA1071+024381999GE19MSL   +99999+99999GF199999071999024381999999MA1097561097185REMMET064METAR NZCM 310555Z 08012KT 9999 BKN080 M15/M20 A2881 RMK SLP760=
0175896640876012017053106004-77850+166667FM-12+002499999V0200801N00621024001CN011000199-01531-01971097601ADDGA1071+024001031GE19MSL   +99999+99999GF107991071999024001999999MA1097555097181MD1510011+9999REMSYN07089664 32861 70812 11153 21197 39718 49760 55001 87070 333 56030 87358=
0178896640876012017053111554-77850+166667FM-15+002499999V0200401N007210457219N009999199-01701-02301097711ADDGA1041+027431999GA2071+045721999GE19MSL   +99999+99999GF199999041999027431999999MA1097661097285REMMET071METAR NZCM 311155Z 04014KT 9999 SCT090 BKN150 M17/M23 A2884 RMK SLP771=
0178896640876012017053117564-77850+166667FM-15+002499999V0203201N00261024381CN009999199-01601-02101097811ADDGA1071+024381999GA2081+030481999GE19MSL   +99999+99999GF199999071999024381999999MA1097761097385REMMET071METAR NZCM 311756Z 32005KT 9999 BKN080 OVC100 M16/M21 A2887 RMK SLP781=
0155896640876012017053123554-77850+166667FM-15+002499999V0203001N00151028961CN009999199-01401-02101097751ADDGA1081+028961999GE19MSL   +99999+99999GF199999081999028961999999MA1097701097335REMMET064METAR NZCM 312355Z 30003KT 9999 OVC095 M14/M21 A2885 RMK SLP775=
0219896640876012017060100004-77850+166667FM-12+002499999V0203001N00151027001CN011000199-01421-02081097751ADDGA1081+027001041GE19MSL   +99999+99999GF108991081999027001999999KA1120M-01241KA2120N-01771MA1097705097331MD1810041+9999REMSYN08889664 32961 83003 11142 21208 39733 49775 58004 8802/ 333 11124 21177 56039 58004 88459=
0195896640876012017060105554-77850+166667FM-15+002499999V0201601N01081012191CN003200199-01201-01501097811ADDGA1081+012191999GE19MSL   +99999+99999GF199999081999012191999999MA1097761097395MW1381MW2711OC101241REMMET084METAR NZCM 010555Z 16021G24KT 3200 -SN BLSN OVC040 M12/M15 A2887 RMK SNB0430 SLP781=
0206896640876012017060111554-77850+166667FM-15+002499999V0201301N00881018291CN009999199-01201-01601098061ADDGA1071+018291999GE19MSL   +99999+99999GF199999071999018291999999MA1098001097645OC101441OD149902261150REMMET093METAR NZCM 011155Z 13017G28KT 9999 BKN060 M12/M16 A2894 RMK PK WND 15044/0738 SNE1030 SLP806=
0286896640876012017060112004-77850+166667FM-12+002499999V0201301N00881018001CN011000199-01181-01621098061ADDAA112000021AL19900031AY171021AY231021GA1061+018001061GE19MSL   +99999+99999GF106991061999018001999999KA1240M-01011KA2240N-01711MA1098015097641MD1310161+9999MW1021REMSYN11289664 11761 61317 11118 21162 39764 49806 53016 69902 70273 86500 333 11101 21171 56300 58036 86656 90972 93197=
0198896640876012017060117554-77850+166667FM-15+002499999V0200601N00771042671CN009999199-01201-01901098261ADDGA1081+042671999GE19MSL   +99999+99999GF199999081999042671999999MA1098201097845OC101031OD149901801140REMMET085METAR NZCM 011755Z 06015G20KT 9999 OVC140 M12/M19 A2900 RMK PK WND 14035/1348 SLP826=
0206896640876012017060123554-77850+166667FM-15+002499999V0201201N00721018291CN006000199-01601-01901098741ADDGA1081+018291999GE19MSL   +99999+99999GF199999081999018291999999MA1098681098315MW1381OC101131REMMET101METAR NZCM 012355Z 12014G22KT 6000 BLSN OVC060 M16/M19 A2914 RMK PK WND 16043/2231 WSHFT 2226 SLP874=
0192896640876012017060205554-77850+166667FM-15+002499999V0200701N01181001831WN000200199-02601-02901098991ADDGA1091+001831999GE19MSL   +99999+99999GF109991091999001831999999MA1098921098545MW1381OC101601REMMET087METAR NZCM 020555Z 07023G31KT 0200 BLSN VV006 M26/M29 A2921 RMK PK WND 06035/06 SLP899=
0194896640876012017060211554-77850+166667FM-15+002499999V0200401N00981013721CN009000199-02101-02401999999ADDGA1081+013721999GE19MSL   +99999+99999GF199999081999013721999999MA1099021999999MW1381OC101341REMMET089METAR NZCM 021155Z 04019G26KT 9000 BLSN OVC045 M21/M24 A2924 RMK PK WND 05041/0755 SLPNO=
0241896640876012017060212004-77850+166667FM-12+002499999V0200401N00981013501CN009000199-02121-02411099105ADDAY131021AY231021GA1081+013501061GE19MSL   +99999+99999GF108991081999013501999999KA1240M-01401KA2240N-02641MA1099045098661MD1810051+9999MW1381REMSYN08889664 31659 80419 11212 21241 39866 58005 73833 885// 333 11140 21264 56399 58102 88645=
0154896640876012017060217554-77850+166667FM-15+002499999V0203301N002619999999N009999199-02001-02301999999ADDGA1041+002441999GE19MSL   +99999+99999GF199999041999002441999999MA1098751999999REMMET063METAR NZCM 021755Z 33005KT 9999 SCT008 M20/M23 A2916 RMK SLPNO=
0113896640876012017060223554-77850+166667FM-15+002499999V0202901N002612200019N009999199-02001-02301999999ADDGF100991999999999999999999MA1098241999999REMMET060METAR NZCM 022355Z 29005KT 9999 SKC M20/M23 A2901 RMK SLPNO=
0093896640876012017060300004-77850+166667FM-12+002499999V0202901N002619999999N011000199-02021-02311098315ADDMA1098245097871MD1810271-0441REMSYN05289664 32961 02905 11202 21231 39787 58027 333 59044=
0113896640876012017060305554-77850+166667FM-15+002499999V0209999C000012200019N009999199-02001-02301999999ADDGF100991999999999999999999MA1098001999999REMMET060METAR NZCM 030555Z 00000KT 9999 SKC M20/M23 A2894 RMK SLPNO=
0083896640876012017060306004-77850+166667FM-12+002499999V0209999C000019999999N011000199-01991-02281098055ADDMA1097995097621MD1610101+9999REMSYN04289664 32961 00000 11199 21228 39762 56010=
0133896640876012017060311554-77850+166667FM-15+002499999V0209999C000012200019N009999199-01801-02101999999ADDGF100991999999999999999999MA1097931999995REMMET061METAR NZCM 031155Z 00000KT 9999 SKC M18/M21 A2892 RMK SLP979=EQDQ01993.5 3APOSP 
0137896640876012017060312004-77850+166667FM-12+002499999V0209999C000019999999N011000199-01821-02091097992ADDKA1240M-01801KA2240N-02151MA1097935097562MD1810041-0111REMSYN07089664 32961 00000 11182 21209 39756 49799 58004 333 11180 21215 59011=
0189896640876012017060317554-77850+166667FM-15+002499999V0200601N004610609619N009999199-01201-01401097971ADDGA1041+045721999GA2071+060961999GE19MSL   +99999+99999GF199999041999045721999999MA1097901097555OC100821REMMET074METAR NZCM 031755Z 06009G16KT 9999 SCT150 BKN200 M12/M14 A2891 RMK SLP797=
0197896640876012017060318004-77850+166667FM-12+002499999V0200601N00461060001CN011000199-01241-01441097971ADDGA1031+045001041GA2051+060001021GE19MSL   +99999+99999GF105991031999045001999999MA1097915097541MD1810031+9999REMSYN07689664 32961 50609 11124 21144 39754 49797 58003 80018 333 56033 83465 85270=
0155896640876012017060323554-77850+166667FM-15+002499999V0200701N00461015241CN009999199-01001-01501097991ADDGA1081+015241999GE19MSL   +99999+99999GF199999081999015241999999MA1097931097575REMMET064METAR NZCM 032355Z 07009KT 9999 OVC050 M10/M15 A2892 RMK SLP799=
0219896640876012017060400004-77850+166667FM-12+002499999V0200701N00461015001CN011000199-00971-01481097991ADDGA1081+015001061GE19MSL   +99999+99999GF108991081999015001999999KA1120M-00971KA2120N-02121MA1097935097561MD1810061+9999REMSYN08889664 32761 80709 11097 21148 39756 49799 58006 885// 333 11097 21212 56399 59031 88650=
0228896640876012017060405554-77850+166667FM-15+002499999V0201401N007710304819N009999199-01101-01301098001ADDGA1021+015241999GA2071+030481999GE19MSL   +99999+99999GF199999021999015241999999MA1097931097585MW1711OD149901801150REMMET101METAR NZCM 040555Z 14015KT 9999 -SN FEW050 BKN100 M11/M13 A2892 RMK PK WND 15035/0340 SNB0100 SLP800=
0203896640876012017060411554-77850+166667FM-15+002499999V0201201N00881006101CN004800199-01101-01301098171ADDGA1071+006101999GE19MSL   +99999+99999GF199999071999006101999999MA1098101097755MW1381OC101491REMMET098METAR NZCM 041155Z 12017G29KT 4800 BLSN BKN020 M11/M13 A2897 RMK PK WND 19034/1017 SNE0700 SLP817=
0292896640876012017060412004-77850+166667FM-12+002499999V0201201N00881006001CN004800199-01131-01351098171ADDAA112000021AL19900031AY171021AY231021GA1071+006001061GE19MSL   +99999+99999GF107991071999006001999999KA1240M-00901KA2240N-01221MA1098115097741MD1310151+9999MW1381REMSYN11889664 11548 71217 11113 21135 39774 49817 53015 69902 73873 87500 333 01934 11090 21122 56300 58018 87620 90952 93197=
0187896640876012017060417554-77850+166667FM-15+002499999V0200501N00511027431CN009999199-00901-01601097961ADDGA1081+027431999GE19MSL   +99999+99999GF199999081999027431999999MA1097931097545OD149901491130REMMET082METAR NZCM 041755Z 05010KT 9999 OVC090 M09/M16 A2892 RMK PK WND 13029/1224 SLP796=
0195896640876012017060423554-77850+166667FM-15+002499999V0201601N00771021341CN009000199-01101-01401098121ADDGA1081+021341999GE19MSL   +99999+99999GF199999081999021341999999MA1098071097705MW1381OC101241REMMET090METAR NZCM 042355Z 16015G24KT 9000 BLSN OVC070 M11/M14 A2896 RMK PK WND 19040/2135 SLP812=
0227896640876012017060505554-77850+166667FM-15+002499999V0201601N01651003051CN000800199-01301-01401097871ADDGA1081+003051999GE19MSL   +99999+99999GF199999081999003051999999MA1097831097455MW1381MW2711OC102111OD149902261160REMMET102METAR NZCM 050555Z 16032G41KT 0800 -SN BLSN OVC010 M13/M14 A2889 RMK PK WND 16044/0443 SNB0330 SLP787=
0254896640876012017060506004-77850+166667FM-12+002499999V0201601N01651003001CN000800199-01271-01451097871ADDAA106000021AL19900031AY171021AY231021GA1081+003001061GE19MSL   +99999+99999GF108991081999003001999999MA1097825097451MD1810131+9999MW1711REMSYN10689664 11408 81632 11127 21145 39745 49787 58013 69901 77173 885// 333 01644 56399 88610 90931 93197 96038=
0230896640876012017060511554-77850+166667FM-15+002499999V0200701N00881009141CN001200199-01201-01401098301ADDGA1081+009141999GE19MSL   +99999+99999GF199999081999009141999999MA1098241097885MW1381MW2711OC101341OD149902111120REMMET105METAR NZCM 051155Z 07017G26KT 1200 -SN BLSN OVC030 M12/M14 A2901 RMK PK WND 12041/0919 WSHFT 1050 SLP830=
0229896640876012017060517554-77850+166667FM-15+002499999V0201401N007710259119N009999199-01001-01401098561ADDGA1021+010671999GA2081+025911999GE19MSL   +99999+99999GF199999021999010671999999MA1098511098145OC101081OD149902111160REMMET100METAR NZCM 051755Z 14015G21KT 9999 FEW035 OVC085 M10/M14 A2909 RMK PK WND 16041/1215 SNE1330 SLP856=
0193896640876012017060523554-77850+166667FM-15+002499999V0201301N00881018291CN004800199-01501-01801098701ADDGA1081+018291999GE19MSL   +99999+99999GF199999081999018291999999MA1098651098275MW1381OC101541REMMET088METAR NZCM 052355Z 13017G30KT 4800 BLSN OVC060 M15/M18 A2913 RMK PK WND 15035/42 SLP870=
0292896640876012017060600004-77850+166667FM-12+002499999V0201301N00881018001CN004800199-01461-01801098701ADDAA124000021AL19900131AY131021AY221021GA1081+018001061GE19MSL   +99999+99999GF108991081999018001999999KA1120M-00971KA2120N-01511MA1098655098271MD1210171+9999MW1381REMSYN11889664 11748 81317 11146 21180 39827 49870 52017 69904 73832 885// 333 01535 11097 21151 56399 58057 88656 90973 93101=
0198896640876012017060605554-77850+166667FM-15+002499999V0200601N007219999999N009999199-01901-02401098741ADDGA1041+018291999GE19MSL   +99999+99999GF199999041999018291999999MA1098681098305OC101081OD149901441050REMMET085METAR NZCM 060555Z 06014G21KT 9999 SCT060 M19/M24 A2914 RMK PK WND 05028/0450 SLP874=
0187896640876012017060611554-77850+166667FM-15+002499999V0200801N002619999999N009999199-01501-02201098781ADDGA1041+042671999GE19MSL   +99999+99999GF199999041999042671999999MA1098711098355OD149901331050REMMET082METAR NZCM 061155Z 08005KT 9999 SCT140 M15/M22 A2915 RMK PK WND 05026/0852 SLP878=
0219896640876012017060612004-77850+166667FM-12+002499999V0200801N002612200019N011000199-01471-02221098781ADDGA1041+042001031GE19MSL   +99999+99999GF104991041999042001999999KA1240M-01391KA2240N-01961MA1098735098351MD1110101+9999REMSYN08889664 32961 40805 11147 21222 39835 49878 51010 84030 333 11139 21196 56030 58048 84364=
0155896640876012017060617554-77850+166667FM-15+002499999V0201001N00411045721CN009999199-01701-02501098741ADDGA1071+045721999GE19MSL   +99999+99999GF199999071999045721999999MA1098681098315REMMET064METAR NZCM 061755Z 10008KT 9999 BKN150 M17/M25 A2914 RMK SLP874=
0145896640876012017060618004-77850+166667FM-12+002499999V0201001N004119999999N011000199-01721-02521098725ADDGE19MSL   +99999+99999GF105991999999999999999999MA1098675098291REMSYN07089664 32961 51008 11172 21252 39829 39874 55001 80006 333 56003 85265=
0166896640876012017060623554-77850+166667FM-15+002499999V0201401N00981021341CN009999199-01701-02401098781ADDGA1071+021341999GE19MSL   +99999+99999GF199999071999021341999999MA1098711098355OC101291REMMET067METAR NZCM 062355Z 14019G25KT 9999 BKN070 M17/M24 A2915 RMK SLP878=
0219896640876012017060700004-77850+166667FM-12+002499999V0201401N00931021001CN011000199-01691-02391098781ADDGA1071+021001031GE19MSL   +99999+99999GF107991071999021001999999KA1120M-01391KA2120N-01871MA1098725098341MD1210041+9999REMSYN08889664 32861 71418 11169 21239 39834 49878 52004 87070 333 11139 21187 56030 58007 87357=
0206896640876012017060705554-77850+166667FM-15+002499999V0200601N00721021341CN009999199-02001-02501098961ADDGA1071+021341999GE19MSL   +99999+99999GF199999071999021341999999MA1098921098525OC101081OD149901951150REMMET093METAR NZCM 070555Z 06014G21KT 9999 BKN070 M20/M25 A2921 RMK PK WND 15038/0047 SNB0530 SLP896=
0165896640876012017060711554-77850+166667FM-15+002499999V0209999C00001010671CN009999199-01701-02101099071ADDGA1081+010671999GE19MSL   +99999+99999GF199999081999010671999999MA1099021098645MW1711REMMET068METAR NZCM 071155Z 00000KT 9999 -SN OVC035 M17/M21 A2924 RMK SLP907=
0286896640876012017060712004-77850+166667FM-12+002499999V0209999C00001010501CN011000199-01701-02151099071ADDAA112000021AL19900031AY171021AY271021GA1081+010501061GE19MSL   +99999+99999GF108991081999010501999999KA1240M-01631KA2240N-02061MA1099015098631MD1210051+9999MW1711REMSYN11289664 11661 80000 11170 21215 39863 49907 52005 69902 77177 885// 333 11163 21206 56399 58028 88635 90973 93197=
0163896640876012017060717554-77850+166667FM-15+002499999V0209999V00311018291CN009999199-01701-02201099041ADDGA1081+018291999GE19MSL   +99999+99999GF199999081999018291999999MA1098981098615REMMET072METAR NZCM 071755Z VRB06KT 9999 OVC060 M17/M22 A2923 RMK SNE1250 SLP904=
0242896640876012017060718004-77850+166667FM-12+002499999V0209999V00311018001CN011000199-01681-02171099041ADDAA118000021AL19900031AY171021AY221021GA1081+018001061GE19MSL   +99999+99999GF108991081999018001999999MA1098985098601MD1110061+9999MW1021REMSYN09489664 11761 89906 11168 21217 39860 49904 51006 69903 70272 885// 333 56399 88656 90963 93197=
0204896640876012017060723554-77850+166667FM-15+002499999V0200501N00671024381CN006000199-02101-02501099141ADDGA1081+024381999GE19MSL   +99999+99999GF199999081999024381999999MA1099091098705MW1381OC101131REMMET099METAR NZCM 072355Z 05013G22KT 6000 BLSN OVC080 M21/M25 A2926 RMK PK WND 17031/17 WSHFT 2342 SLP914=
0286896640876012017060800004-77850+166667FM-12+002499999V0200501N00671024001CN006000199-02061-02471099141ADDAA124000021AL19900031AY131021AY221021GA1081+024001031GE19MSL   +99999+99999GF108991081999024001999999KA1120M-01581KA2120N-02111MA1099075098691MD1510001+9999MW1381REMSYN11289664 11856 80513 11206 21247 39869 49914 55000 69904 73832 8807/ 333 11158 21211 56039 58035 88358 90973 93197=
0194896640876012017060805554-77850+166667FM-15+002499999V0201201N00821024381CN009000199-02501-03101099171ADDGA1081+024381999GE19MSL   +99999+99999GF199999081999024381999999MA1099121098725MW1711OC101291REMMET089METAR NZCM 080555Z 12016G25KT 9000 -SN OVC080 M25/M31 A2927 RMK PK WND 15030/0340 SLP917=
0155896640876012017060811554-77850+166667FM-15+002499999V0209999C00001021341CN009999199-02201-02601098941ADDGA1081+021341999GE19MSL   +99999+99999GF199999081999021341999999MA1098881098505REMMET064METAR NZCM 081155Z 00000KT 9999 OVC070 M22/M26 A2920 RMK SLP894=
0247896640876012017060812004-77850+166667FM-12+002499999V0209999C00001021001CN011000199-02181-02641098941ADDAY131021AY221021GA1081+021001031GE19MSL   +99999+99999GF108991081999021001999999KA1240M-02051KA2240N-02621MA1098875098491MD1810051+9999MW1021REMSYN09489664 31861 80000 11218 21264 39849 49894 58005 70232 8807/ 333 11205 21262 56039 59014 88357=
0173896640876012017060817554-77850+166667FM-15+002499999V0209999V00261009141CN003200199-01901-02201098751ADDGA1081+009141999GE19MSL   +99999+99999GF199999081999009141999999MA1098681098315MW1711REMMET076METAR NZCM 081755Z VRB05KT 3200 -SN OVC030 M19/M22 A2914 RMK SNB1230 SLP875=
0242896640876012017060818004-77850+166667FM-12+002499999V0209999V00261009001CN003200199-01881-02231098751ADDAA118000831AL19900431AY171021AY271021GA1081+009001061GE19MSL   +99999+99999GF108991081999009001999999MA1098695098311MD1610131+9999MW1711REMSYN09489664 11532 89905 11188 21223 39831 49875 56013 69983 77177 885// 333 56399 88630 90962 93104=
0197896640876012017060823554-77850+166667FM-15+002499999V0201201N00671002441CN000800199-01801-02101098751ADDGA1081+002441999GE19MSL   +99999+99999GF199999081999002441999999MA1098681098325MW1711OD149901331160REMMET086METAR NZCM 082355Z 12013KT 0800 -SN OVC008 M18/M21 A2914 RMK PK WND 16026/1826 SLP875=
0286896640876012017060900004-77850+166667FM-12+002499999V0201201N00671002401CN000800199-01831-02101098751ADDAA124002031AL19900931AY171021AY271021GA1081+002401061GE19MSL   +99999+99999GF108991081999002401999999KA1120M-01801KA2120N-02341MA1098695098311MD1410001+9999MW1711REMSYN11289664 11308 81213 11183 21210 39831 49875 54000 60024 77177 885// 333 11180 21234 56399 59038 88608 90973 93109=
0223896640876012017060905554-77850+166667FM-15+002499999V0200601N00721004571CN000300199-02201-02501098791ADDGA1081+004571999GE19MSL   +99999+99999GF199999081999004571999999MA1098711098355MW1381MW2711OC101391OD149901751060REMMET098METAR NZCM 090555Z COR 06014G27KT 0300 -SN BLSN OVC015 M22/M25 A2915 RMK PK WND 06034/0336 SLP879=
0219896640876012017060911554-77850+166667FM-15+002499999V0200901N00621003051CN000400199-02201-02601098901ADDGA1081+003051999GE19MSL   +99999+99999GF199999081999003051999999MA1098851098465MW1381MW2711OC101081OD149901641150REMMET094METAR NZCM 091155Z 09012G21KT 0400 -SN BLSN OVC010 M22/M26 A2919 RMK PK WND 15032/0837 SLP890=
0292896640876012017060912004-77850+166667FM-12+002499999V0200901N00621003001CN000400199-02231-02571098901ADDAA112000331AL19900331AY171021AY231021GA1081+003001061GE19MSL   +99999+99999GF108991081999003001999999KA1240M-01811KA2240N-02261MA1098845098461MD1990041+9999MW1711REMSYN11889664 11404 80912 11223 21257 39846 49890 50004 69932 77173 885// 333 11181 21226 56399 59003 88610 90983 93103 96038=
0203896640876012017060917554-77850+166667FM-15+002499999V0200601N00881025911CN006000199-02401-02801098971ADDGA1081+025911999GE19MSL   +99999+99999GF199999081999025911999999MA1098921098535MW1381OC101181REMMET098METAR NZCM 091755Z 06017G23KT 6000 BLSN OVC085 M24/M28 A2921 RMK PK WND 06028/1246 SNE1230 SLP897=
0242896640876012017060918004-77850+166667FM-12+002499999V0200601N00881024001CN006000199-02411-02851098971ADDAA118000331AL19900331AY171021AY231021GA1081+024001041GE19MSL   +99999+99999GF108991081999024001999999MA1098915098531MD1110091+9999MW1381REMSYN09489664 11956 80617 11241 21285 39853 49897 51009 69933 73873 8802/ 333 56039 88458 90960 93103=
0232896640876012017060923554-77850+166667FM-15+002499999V0200901N003110243819N009999199-02201-02601099041ADDGA1041+008531999GA2081+024381999GE19MSL   +99999+99999GF199999041999008531999999MA1098981098605MW1711OD149901491060REMMET105METAR NZCM 092355Z COR 09006KT 9999 -SN SCT028 OVC080 M22/M26 A2923 RMK PK WND 06029/1953 SNB2200 SLP904=
0308896640876012017061000004-77850+166667FM-12+002499999V0200901N003110240019N011000199-02201-02651099041ADDAA124000331AL19900331AY171021AY231021GA1031+008401061GA2081+024001041GE19MSL   +99999+99999GF108991031999008401999999KA1120M-02131KA2120N-02591MA1098985098601MD1310061+9999MW1711REMSYN11889664 11561 80906 11220 21265 39860 49904 53006 69934 77173 8351/ 333 11213 21259 56339 58029 83628 88458 90921 93103=
0165896640876012017061005554-77850+166667FM-15+002499999V0201001N00361015241CN009000199-02101-02501099061ADDGA1081+015241999GE19MSL   +99999+99999GF199999081999015241999999MA1098981098625MW1711REMMET068METAR NZCM 100555Z 10007KT 9000 -SN OVC050 M21/M25 A2923 RMK SLP906=
0242896640876012017061006004-77850+166667FM-12+002499999V0201001N00361015001CN009000199-02101-02491099061ADDAA106000021AL19900031AY171021AY271021GA1081+015001061GE19MSL   +99999+99999GF108991081999015001999999MA1098995098611MD1810011+9999MW1711REMSYN09489664 11759 81007 11210 21249 39861 49906 58001 69901 77177 885// 333 56399 88650 90973 93197=
0165896640876012017061011554-77850+166667FM-15+002499999V0209999V00211018291CN006000199-02201-02501099011ADDGA1081+018291999GE19MSL   +99999+99999GF199999081999018291999999MA1098951098575MW1711REMMET068METAR NZCM 101155Z VRB04KT 6000 -SN OVC060 M22/M25 A2922 RMK SLP901=
0286896640876012017061012004-77850+166667FM-12+002499999V0209999V00211018001CN006000199-02161-02521099011ADDAA112000021AL19900031AY171021AY271021GA1081+018001061GE19MSL   +99999+99999GF108991081999018001999999KA1240M-02081KA2240N-02241MA1098955098571MD1310051+9999MW1711REMSYN11289664 11756 89904 11216 21252 39857 49901 53005 69902 77177 885// 333 11208 21224 56399 58011 88656 90983 93197=
0203896640876012017061017554-77850+166667FM-15+002499999V0201301N00771022861CN004800199-02201-02501099081ADDGA1081+022861999GE19MSL   +99999+99999GF199999081999022861999999MA1099021098645MW1381OC101241REMMET098METAR NZCM 101755Z 13015G24KT 4800 BLSN OVC075 M22/M25 A2924 RMK PK WND 16029/1354 SNE1620 SLP908=
0242896640876012017061018004-77850+166667FM-12+002499999V0201301N00771021001CN004800199-02161-02511099081ADDAA118000021AL19900031AY171021AY231021GA1081+021001041GE19MSL   +99999+99999GF108991081999021001999999MA1099025098641MD1110061+9999MW1381REMSYN09489664 11848 81315 11216 21251 39864 49908 51006 69903 73873 8802/ 333 56039 88457 90922 93197=
0194896640876012017061023554-77850+166667FM-15+002499999V0200901N00721009141CN000800199-02801-03001999999ADDGA1081+009141999GE19MSL   +99999+99999GF199999081999009141999999MA1099531999999MW1381OC101081REMMET089METAR NZCM 102355Z 09014G21KT 0800 BLSN OVC030 M28/M30 A2939 RMK PK WND 06033/1957 SLPNO=
0248896640876012017061100004-77850+166667FM-12+002499999V0200901N00721009001CN000800199-02761-03051099895ADDAA124000021AL19900031AY131021AY231021GA1081+009001061GE19MSL   +99999+99999GF108991081999009001999999MA1099815099431MD1110231+9999MW1381REMSYN10089664 11508 80914 11276 21305 39943 51023 69904 73833 885// 333 00633 56399 58083 88630 90973 93197=
0195896640876012017061105554-77850+166667FM-15+002499999V0201001N01081003051CN000600199-02901-03301099841ADDGA1081+003051999GE19MSL   +99999+99999GF199999081999003051999999MA1099761099385MW1381OC101441REMMET090METAR NZCM 110555Z 10021G28KT 0600 BLSN OVC010 M29/M33 A2946 RMK PK WND 15034/0355 SLP984=
0209896640876012017061106004-77850+166667FM-12+002499999V0201001N01081003001CN000600199-02891-03311099841ADDAY131021AY231021GA1081+003001061GE19MSL   +99999+99999GF108991081999003001999999MA1099775099391MD1310151+9999MW1381REMSYN08289664 31406 81021 11289 21331 39939 49984 53015 73833 885// 333 01534 56399 88610=
0205896640876012017061111554-77850+166667FM-15+002499999V0201101N00821003051CN000800199-02501-02801999999ADDGA1081+003051999GE19MSL   +99999+99999GF199999081999003051999999MA1099801999999MW1381OC101391REMMET100METAR NZCM 111155Z 11016G27KT 0800 BLSN OVC010 M25/M28 A2947 RMK PK WND 17037/1007 WSHFT 1107 SLPNO=
0247896640876012017061112004-77850+166667FM-12+002499999V0201101N00821003001CN000800199-02491-02851099885ADDAY131021AY231021GA1081+003001061GE19MSL   +99999+99999GF108991081999003001999999KA1240M-02501KA2240N-02951MA1099815099431MD1510041+9999MW1381REMSYN09489664 31408 81116 11249 21285 39943 55004 73833 885// 333 01737 11250 21295 56399 58086 88610=
0194896640876012017061117554-77850+166667FM-15+002499999V0200701N00671019811CN004000199-02301-02701999999ADDGA1081+019811999GE19MSL   +99999+99999GF199999081999019811999999MA1099761999999MW1381OC101081REMMET089METAR NZCM 111755Z 07013G21KT 4000 BLSN OVC065 M23/M27 A2946 RMK PK WND 16038/1254 SLPNO=
0197896640876012017061118004-77850+166667FM-12+002499999V0200701N00671018001CN004000199-02351-02671099825ADDAY131021AY231021GA1081+018001061GE19MSL   +99999+99999GF108991081999018001999999MA1099755099371MD1810111+9999MW1381REMSYN07089664 31640 80713 11235 21267 39937 58011 73833 885// 333 56399 88656=
0155896640876012017061123554-77850+166667FM-15+002499999V0201201N00771021341CN009999199-02001-02301099551ADDGA1081+021341999GE19MSL   +99999+99999GF199999081999021341999999MA1099491099115REMMET064METAR NZCM 112355Z 12015KT 9999 OVC070 M20/M23 A2938 RMK SLP955=
0155896640876012017061205554-77850+166667FM-15+002499999V0201001N00461014331CN009999199-01801-02301099291ADDGA1081+014331999GE19MSL   +99999+99999GF199999081999014331999999MA1099221098855REMMET064METAR NZCM 120555Z 10009KT 9999 OVC047 M18/M23 A2930 RMK SLP929=
0175896640876012017061206004-77850+166667FM-12+002499999V0201001N00461014101CN011000199-01791-02291099291ADDGA1081+014101061GE19MSL   +99999+99999GF108991081999014101999999MA1099235098851MD1810111+9999REMSYN07089664 32661 81009 11179 21229 39885 49929 58011 885// 333 56399 88647=
0171896640876012017061211554-77850+166667FM-15+002499999V0200801N00211012191CN009999199-01601-02101098991ADDGA1081+012191999GE19MSL   +99999+99999GF199999081999012191999999MA1098851098565MW1711REMMET074METAR NZCM 121155Z 08004KT 9999 -SN OVC040 M16/M21 A2919 RMK SNB00 SLP899=
0286896640876012017061212004-77850+166667FM-12+002499999V0200801N00211012001CN011000199-01631-02081098991ADDAA106000021AL19900031AY121021AY221021GA1081+012001061GE19MSL   +99999+99999GF108991081999012001999999KA1240M-01631KA2240N-02021MA1098865098481MD1810121+9999MW1711REMSYN11289664 11661 80804 11163 21208 39848 49899 58012 69901 77122 885// 333 11163 21202 56399 59095 88640 90910 93197=
0165896640876012017061217554-77850+166667FM-15+002499999V0201701N00571005791CN001600199-01501-01901098601ADDGA1081+005791999GE19MSL   +99999+99999GF199999081999005791999999MA1098541098175MW1711REMMET068METAR NZCM 121755Z 17011KT 1600 -SN OVC019 M15/M19 A2910 RMK SLP860=
0226896640876012017061223554-77850+166667FM-15+002499999V0201501N01181006101CN000300199-02001-02201099031ADDGA1081+006101999GE19MSL   +99999+99999GF199999081999006101999999MA1098951098595MW1381MW2711OC101751OD149902621170REMMET101METAR NZCM 122355Z 15023G34KT 0300 -SN BLSN OVC020 M20/M22 A2922 RMK PK WND 17051/1830 PRESRR SLP903=
0298896640876012017061300004-77850+166667FM-12+002499999V0201501N01181006001CN000300199-02041-02161099031ADDAA118000021AL19900231AY171021AY231021GA1081+006001061GE19MSL   +99999+99999GF108991081999006001999999KA1120M-01481KA2120N-02031MA1098965098581MD1310311+9999MW1711REMSYN12489664 11503 81523 11204 21216 39858 49903 53031 69903 77173 885// 333 01751 11148 21203 56399 59053 88620 90983 93102 96038=
0197896640876012017061305554-77850+166667FM-15+002499999V0201701N01961001521WN000200199-02001-02401098841ADDGA1091+001521999GE19MSL   +99999+99999GF109991091999001521999999MA1098781098405MW1381MW2711OC102371REMMET086METAR NZCM 130555Z 17038G46KT 0200 -SN BLSN VV005 M20/M24 A2917 RMK WSHFT 0449 SLP884=
0242896640876012017061306004-77850+166667FM-12+002499999V0201701N019610015019N000200199-02191-02401098841ADDAA106000021AL19900031AY171021AY231021GA1092+001501999GE19MSL   +99999+99999GF108992092999001501999999MA1098775098391MD1810251+9999MW1711REMSYN09489664 11/02 81738 11219 21240 39839 49884 58025 69901 77173 333 01646 89/05 90983 93197 96038=
0174896640876012017061311554-77850+166667FM-15+002499999V0200701N005719999999N009999199-02101-02301098771ADDGA1041+015241999GE19MSL   +99999+99999GF199999041999015241999999MA1098711098335REMMET083METAR NZCM 131155Z 07011KT 9999 SCT050 M21/M23 A2915 RMK SNE1000 WSHFT 1001 SLP877=
0178896640876012017061317554-77850+166667FM-15+002499999V0209999V00311018291CN009999199-02101-02201098281ADDGA1021+003051999GA2041+018291999GE19MSL   +99999+99999GF199999021999003051999999MA1098201097845REMMET071METAR NZCM 131755Z VRB06KT 9999 FEW010 SCT060 M21/M22 A2900 RMK SLP828=
0214896640876012017061318004-77850+166667FM-12+002499999V0209999V003112200019N011000199-02071-02191098281ADDAA118000021AL19900031GA1011+003001061GE19MSL   +99999+99999GF104991011999003001999999MA1098215097841MD1810221+9999REMSYN08889664 12461 49906 11207 21219 39784 49828 58022 69903 84500 333 56700 81610 90973 93197=
0155896640876012017061323554-77850+166667FM-15+002499999V0202001N00101015241CN009999199-01901-02001098051ADDGA1071+015241999GE19MSL   +99999+99999GF199999071999015241999999MA1098001097625REMMET064METAR NZCM 132355Z 20002KT 9999 BKN050 M19/M20 A2894 RMK SLP805=
0258896640876012017061400004-77850+166667FM-12+002499999V0202001N00101015001CN011000199-01941-02001098051ADDAA124000021AL19900031GA1061+015001061GE19MSL   +99999+99999GF106991061999015001999999KA1120M-01771KA2120N-02271MA1097985097611MD1810091+9999REMSYN10689664 12761 62002 11194 21200 39761 49805 58009 69904 86500 333 11177 21227 56700 59097 86650 90983 93197=
0155896640876012017061405554-77850+166667FM-15+002499999V0200501N00151015241CN009999199-02001-02101097921ADDGA1071+015241999GE19MSL   +99999+99999GF199999071999015241999999MA1097871097495REMMET064METAR NZCM 140555Z 05003KT 9999 BKN050 M20/M21 A2890 RMK SLP792=
0173896640876012017061411554-77850+166667FM-15+002499999V0209999V00211011581CN009000199-01801-01801097801ADDGA1071+011581999GE19MSL   +99999+99999GF199999071999011581999999MA1097731097375MW1711REMMET076METAR NZCM 141155Z VRB04KT 9000 -SN BKN038 M18/M18 A2886 RMK SNB0630 SLP780=
0286896640876012017061412004-77850+166667FM-12+002499999V0209999V00211054001CN009000199-01831-01851097801ADDAA106000021AL19900031AY171021AY221021GA1071+054001061GE19MSL   +99999+99999GF107991071999054001999999KA1240M-01771KA2240N-02021MA1097745097371MD1610051+9999MW1711REMSYN11289664 11659 79904 11183 21185 39737 49780 56005 69901 77172 87500 333 11177 21202 56700 59096 87668 90962 93197=
0163896640876012017061417554-77850+166667FM-15+002499999V0203401N00461016761CN009999199-01901-02001097561ADDGA1071+016761999GE19MSL   +99999+99999GF199999071999016761999999MA1097491097135REMMET072METAR NZCM 141755Z 34009KT 9999 BKN055 M19/M20 A2879 RMK SNE1230 SLP756=
0242896640876012017061418004-77850+166667FM-12+002499999V0203401N00461015001CN011000199-01901-01981097561ADDAA112000021AL19900031AY171021AY221021GA1061+015001061GE19MSL   +99999+99999GF106991061999015001999999MA1097495097121MD1610111+9999MW1021REMSYN09489664 11761 63409 11190 21198 39712 49756 56011 69902 70272 86500 333 56300 86650 90962 93197=
0155896640876012017061423554-77850+166667FM-15+002499999V0203501N00721013111CN009999199-01801-02001097241ADDGA1071+013111999GE19MSL   +99999+99999GF199999071999013111999999MA1097191096815REMMET064METAR NZCM 142355Z 35014KT 9999 BKN043 M18/M20 A2870 RMK SLP724=
0258896640876012017061500004-77850+166667FM-12+002499999V0203501N00721012901CN011000199-01851-01991097241ADDAA118000021AL19900031GA1071+012901061GE19MSL   +99999+99999GF107991071999012901999999KA1120M-01811KA2120N-02111MA1097175096801MD1810181+9999REMSYN10689664 12661 73514 11185 21199 39680 49724 58018 69903 87500 333 11181 21211 56300 59081 87643 90973 93197=
0155896640876012017061505554-77850+166667FM-15+002499999V0209999C00001015241CN009999199-02101-02401097081ADDGA1071+015241999GE19MSL   +99999+99999GF199999071999015241999999MA1097021096655REMMET064METAR NZCM 150555Z 00000KT 9999 BKN050 M21/M24 A2865 RMK SLP708=
0175896640876012017061506004-77850+166667FM-12+002499999V0209999C00001015001CN011000199-02131-02361097081ADDGA1061+015001061GE19MSL   +99999+99999GF106991061999015001999999MA1097015096641MD1510051+9999REMSYN07089664 32761 60000 11213 21236 39664 49708 55005 86500 333 56300 86650=
0173896640876012017061511554-77850+166667FM-15+002499999V0203601N00211010971CN006000199-01901-02001097211ADDGA1081+010971999GE19MSL   +99999+99999GF199999081999010971999999MA1097161096785MW1711REMMET076METAR NZCM 151155Z 36004KT 6000 -SN OVC036 M19/M20 A2869 RMK SNB1030 SLP721=
0286896640876012017061512004-77850+166667FM-12+002499999V0203601N00211010801CN006000199-01871-01961097211ADDAA106000021AL19900031AY171021AY221021GA1081+010801061GE19MSL   +99999+99999GF108991081999010801999999KA1240M-01801KA2240N-02171MA1097155096781MD1110061+9999MW1711REMSYN11289664 11656 83604 11187 21196 39678 49721 51006 69901 77172 885// 333 11180 21217 56399 59059 88636 90921 93197=
0195896640876012017061517554-77850+166667FM-15+002499999V0201701N01751000911WN000200199-01701-01701097421ADDGA1091+000911999GE19MSL   +99999+99999GF109991091999000911999999MA1097361096995MW1381MW2731OC102211REMMET084METAR NZCM 151755Z 17034G43KT 0200 SN BLSN VV003 M17/M17 A2875 RMK WSHFT1513 SLP742=
0202896640876012017061523554-77850+166667FM-15+002499999V0201701N02421000301WN000000199-02001-02101097251ADDGA1091+000301999GE19MSL   +99999+99999GF109991091999000301999999MA1097051096825MW1381MW2711OC103501REMMET091METAR NZCM 152355Z 17047G68KT 0000 -SN BLSN VV001 M20/M21 A2866 RMK PK WND 19076/47 SLP725=
0286896640876012017061600004-77850+166667FM-12+002499999V0201701N02421000301WN000000199-02011-02071097131ADDAA199999919AL19999919AY171021AY231021GA1091+000301999GE19MSL   +99999+99999GF109991091999000301999999KA1120M-01611KA2120N-02011MA1097065096691MD1510281-0111MW1711REMSYN11289664 11000 91747 11201 21207 39669 49713 55028 6//// 77173 333 01976 11161 21201 59011 89/01 90983 93199 96038=
0240896640876012017061605554-77850+166667FM-15+002499999V0201201N004610042719N002400199-02001-02101097751ADDGA1021+001521999GA2081+004271999GE19MSL   +99999+99999GF199999021999001521999999MA1097701097325MW1381MW2711OD149903701180REMMET107METAR NZCM 160555Z 12009KT 2400 -SN BLSN FEW005 OVC014 M20/M21 A2885 RMK PK WND 18072/0012 WSHFT 12 SLP775=
0199896640876012017061611554-77850+166667FM-15+002499999V0201601N00671018291CN009999199-01701-01701097251ADDGA1081+018291999GE19MSL   +99999+99999GF199999081999018291999999MA1097191096825OD149902111210REMMET094METAR NZCM 161155Z COR 16013KT 9999 OVC060 M17/M17 A2870 RMK PK WND 21041/0818 SNE0930 SLP725=
0292896640876012017061612004-77850+166667FM-12+002499999V0201601N00671018001CN011000199-01661-01661097251ADDAA112318032AL19903231AY171021AY231021GA1081+018001061GE19MSL   +99999+99999GF108991081999018001999999KA1240M-01631KA2240N-02081MA1097185096811MD1610131+9999MW1021REMSYN11889664 11761 81613 11166 21166 39681 49725 56013 63182 70273 885// 333 02141 11163 21208 56399 58003 88656 90933 93132=
0166896640876012017061617554-77850+166667FM-15+002499999V0203501N010819999999N009999199-01601-01601096701ADDGA1041+036581999GE19MSL   +99999+99999GF199999041999036581999999MA1096651096285OC101341REMMET067METAR NZCM 161755Z 35021G26KT 9999 SCT120 M16/M16 A2854 RMK SLP670=
0157896640876012017061623554-77850+166667FM-15+002499999V0203501N008212200019N009999199-01701-01801096591ADDGF100991999999999999999999MA1096551096175OC101291OD149901851350REMMET082METAR NZCM 162355Z 35016G25KT 9999 SKC M17/M18 A2851 RMK PK WND 35036/2001 SLP659=
0143896640876012017061700004-77850+166667FM-12+002499999V0203501N008219999999N011000199-01721-01771096591ADDKA1120M-01491KA2120N-01801MA1096535096161MD1310071-0531REMSYN07689664 32961 03516 11172 21177 39616 49659 53007 333 03536 11149 21180 59053=
0163896640876012017061705554-77850+166667FM-15+002499999V0200501N009312200019N009000199-02501-02901097401ADDGF100991999999999999999999MA1097361096965MW1381OC101341REMMET096METAR NZCM 170555Z 05018G26KT 9000 BLSN SKC M25/M29 A2875 RMK PK WND 06030/17 WSHFT 0450 SLP740=
0146896640876012017061711554-77850+166667FM-15+002499999V0200901N001512200019N009999199-02101-02901097981ADDGF100991999999999999999999MA1097931097545OD149901541050REMMET079METAR NZCM 171155Z 09003KT 9999 SKC M21/M29 A2892 RMK PK WND 05030/0714 SLP798=
0081896640876012017061712004-77850+166667FM-12+002499999V0200901N001519999999N011000199-02101-02871999999REMSYN07289664 31961 00903 11210 21287 11205 21260 39754 49798 51027 58073 70230=
0166896640876012017061717554-77850+166667FM-15+002499999V0201101N004119999999N009999199-02301-03001098241ADDGA1021+018291999GE19MSL   +99999+99999GF199999021999018291999999MA1098171097805OC100881REMMET067METAR NZCM 171755Z 11008G17KT 9999 FEW060 M23/M30 A2899 RMK SLP824=
0155896640876012017061723554-77850+166667FM-15+002499999V0201101N00361018291CN009999199-02401-03101098241ADDGA1071+018291999GE19MSL   +99999+99999GF199999071999018291999999MA1098171097805REMMET064METAR NZCM 172355Z 11007KT 9999 BKN060 M24/M31 A2899 RMK SLP824=
0219896640876012017061800004-77850+166667FM-12+002499999V0201101N00361018001CN011000199-02401-03101098241ADDGA1051+018001061GE19MSL   +99999+99999GF105991051999018001999999KA1120M-02101KA2120N-02721MA1098165097791MD1810021+9999REMSYN08889664 32761 51107 11240 21310 39779 49824 58002 85500 333 11210 21272 56300 58163 85656=
0198896640876012017061805554-77850+166667FM-15+002499999V0200401N010319999999N009999199-02801-03601098021ADDGA1021+007621999GE19MSL   +99999+99999GF199999021999007621999999MA1097931097575OC101391OD149901441040REMMET085METAR NZCM 180555Z 04020G27KT 9999 FEW025 M28/M36 A2892 RMK PK WND 04028/0432 SLP802=
0187896640876012017061811554-77850+166667FM-15+002499999V0200601N004619999999N009999199-02701-03601098081ADDGA1041+009141999GE19MSL   +99999+99999GF199999041999009141999999MA1098001097635OD149901491050REMMET082METAR NZCM 181155Z 06009KT 9999 SCT030 M27/M36 A2894 RMK PK WND 05029/0721 SLP808=
0219896640876012017061812004-77850+166667FM-12+002499999V0201101N00361018001CN011000199-02401-03101098241ADDGA1051+018001061GE19MSL   +99999+99999GF105991051999018001999999KA1240M-02101KA2240N-02721MA1098165097791MD1810021+9999REMSYN08889664 32761 51107 11240 21310 39779 49824 58002 85500 333 11210 21272 56300 58163 85656=
0114896640876012017061817554-77850+166667FM-15+002499999V0200801N004612200019N009999199-02801-03801098241ADDGF100991999999999999999999MA1098171097795REMMET061METAR NZCM 181755Z 08009KT 9999 SKC M28/M38 A2899 RMK SLP824=
0089896640876012017061818004-77850+166667FM-12+002499999V0200801N004619999999N011000199-02801-03771098241ADDMA1098165097791MD1110081+9999REMSYN04889664 32961 00809 11280 21377 39779 49824 51008=
0181896640876012017061823554-77850+166667FM-15+002499999V0201301N00771018291CN009999199-02901-03201999999ADDGA1071+018291999GE19MSL   +99999+99999GF199999071999018291999999MA1098511999999OC101441REMMET082METAR NZCM 182355Z 13015G28KT 9999 BKN060 M29/M32 A2909 RMK PK WND 14034/15 SLPNO=
0187896640876012017061905554-77850+166667FM-15+002499999V0200901N005719999999N009999199-02801-03501098741ADDGA1041+013721999GE19MSL   +99999+99999GF199999041999013721999999MA1098681098295OD149901441130REMMET082METAR NZCM 190555Z 09011KT 9999 SCT045 M28/M35 A2914 RMK PK WND 13028/0432 SLP874=
0175896640876012017061906004-77850+166667FM-12+002499999V0200901N005712200019N011000199-02851-03481098741ADDGA1041+013501061GE19MSL   +99999+99999GF104991041999013501999999MA1098675098291MD1310051+9999REMSYN07089664 32661 40911 11285 21348 39829 49874 53005 84500 333 56300 84645=
0186896640876012017061911554-77850+166667FM-15+002499999V0200901N00621012191CN009999199-02801-03501999999ADDGA1071+012191999GE19MSL   +99999+99999GF199999071999012191999999MA1098921999999OD149901951130REMMET081METAR NZCM 191155Z 09012KT 9999 BKN040 M28/M35 A2921 RMK PK WND 13038/0955 SLPNO=
0175896640876012017061912004-77850+166667FM-12+002499999V0200901N00621012001CN011000199-02821-03501099005ADDGA1051+012001061GE19MSL   +99999+99999GF105991051999012001999999MA1098935098551MD1990151+9999REMSYN07089664 32661 50912 11282 21350 39855 50015 85500 333 56300 58091 85640=
0114896640876012017061917554-77850+166667FM-15+002499999V0200401N004612200019N009999199-02701-03601098891ADDGF100991999999999999999999MA1098811098445REMMET061METAR NZCM 191755Z 04009KT 9999 SKC M27/M36 A2918 RMK SLP889=
0173896640876012017061923554-77850+166667FM-15+002499999V0200301N00261007011CN009999199-02701-03201098831ADDGA1081+007011999GE19MSL   +99999+99999GF199999081999007011999999MA1098751098385MW1711REMMET076METAR NZCM 192355Z 03005KT 9999 -SN OVC023 M27/M32 A2916 RMK SNB1030 SLP883=
0286896640876012017062000004-77850+166667FM-12+002499999V0200301N00261006901CN011000199-02671-03211098831ADDAA106000021AL19900031AY171021AY211021GA1081+006901061GE19MSL   +99999+99999GF108991081999006901999999KA1120M-02621KA2120N-03311MA1098755098371MD1810051+9999MW1711REMSYN11289664 11561 80305 11267 21321 39837 49883 58005 69901 77171 885// 333 11262 21331 56399 58025 88623 90921 93197=
0169896640876012017062005554-77850+166667FM-15+002499999V0209999C00001005181CN008000199-02901-03401098831ADDGA1081+005181999GE19MSL   +99999+99999GF199999081999005181999999MA1098751098385MW1711REMMET072METAR NZCM 200555Z COR 00000KT 8000 -SN OVC017 M29/M34 A2916 RMK SLP883=
0242896640876012017062006004-77850+166667FM-12+002499999V0209999C00001005101CN008000199-02891-03361098831ADDAA106000021AL19900031AY171021AY271021GA1081+005101061GE19MSL   +99999+99999GF108991081999005101999999MA1098755098371MD1510001+9999MW1711REMSYN09489664 11458 80000 11289 21336 39837 49883 55000 69901 77177 885// 333 56399 88617 90973 93197=
0163896640876012017062011554-77850+166667FM-15+002499999V0200201N002119999999N009999199-02901-03501098971ADDGA1021+006101999GE19MSL   +99999+99999GF199999021999006101999999MA1098881098525REMMET072METAR NZCM 201155Z 02004KT 9999 FEW020 M29/M35 A2920 RMK SNE0645 SLP897=
0258896640876012017062012004-77850+166667FM-12+002499999V0200201N002112200019N011000199-02901-03481098971ADDAA112000021AL19900031GA1021+006001061GE19MSL   +99999+99999GF102991021999006001999999KA1240M-02641KA2240N-03061MA1098905098521MD1110091+9999REMSYN10689664 12561 20204 11290 21348 39852 49897 51009 69902 82500 333 11264 21306 56300 59003 82620 90963 93197=
0114896640876012017062017554-77850+166667FM-15+002499999V0200901N001512200019N009999199-03001-03501099301ADDGF100991999999999999999999MA1099221098845REMMET061METAR NZCM 201755Z 09003KT 9999 SKC M30/M35 A2930 RMK SLP930=
0114896640876012017062023554-77850+166667FM-15+002499999V0200901N006712200019N009999199-03401-03901099701ADDGF100991999999999999999999MA1099631099235REMMET061METAR NZCM 202355Z 09013KT 9999 SKC M34/M39 A2942 RMK SLP970=
0176896640876012017062100004-77850+166667FM-12+002499999V0200901N006719999999N011000199-03421-03891099701ADDAA124000021AL19900031KA1120M-02761KA2120N-03421MA1099625099241MD1210211+9999REMSYN08889664 12961 00913 11342 21389 39924 49970 52021 69904 333 11276 21342 58087 90983 93197=
0114896640876012017062105554-77850+166667FM-15+002499999V0200801N005112200019N009999199-03001-03501100001ADDGF100991999999999999999999MA1099931099545REMMET061METAR NZCM 210555Z 08010KT 9999 SKC M30/M35 A2951 RMK SLP000=
0089896640876012017062106004-77850+166667FM-12+002499999V0200801N005119999999N011000199-03041-03481100001ADDMA1099925099541MD1310121+9999REMSYN04889664 32961 00810 11304 21348 39954 40000 53012=
0113896640876012017062111554-77850+166667FM-15+002499999V0209999C000012200019N009999199-03701-04101999999ADDGF100991999999999999999999MA1100141999999REMMET060METAR NZCM 211155Z 00000KT 9999 SKC M37/M41 A2957 RMK SLPNO=
0093896640876012017062112004-77850+166667FM-12+002499999V0209999C000019999999N011000199-03741-04091100235ADDMA1100135099751MD1110071+9999REMSYN05289664 32961 00000 11374 21409 39975 51007 333 58123=
0154896640876012017062117554-77850+166667FM-15+002499999V0203501N003619999999N009999199-02501-02801999999ADDGA1021+060961999GE19MSL   +99999+99999GF199999021999060961999999MA1099931999999REMMET063METAR NZCM 211755Z 35007KT 9999 FEW200 M25/M28 A2951 RMK SLPNO=
0169896640876012017062118004-77850+166667FM-12+002499999V0203501N003612200019N011000199-02541-02841100005ADDGA1021+060001001GE19MSL   +99999+99999GF102991021999060001999999MA1099935099551MD1810121+9999REMSYN06489664 32961 23507 11254 21284 39955 58012 80004 333 56007 82070=
0113896640876012017062123554-77850+166667FM-15+002499999V0203101N004112200019N009999199-02601-03401999999ADDGF100991999999999999999999MA1099531999999REMMET060METAR NZCM 212355Z 31008KT 9999 SKC M26/M34 A2939 RMK SLPNO=
0093896640876012017062200004-77850+166667FM-12+002499999V0203101N004119999999N011000199-02611-03361099605ADDMA1099535099151MD1710281-0091REMSYN05289664 32961 03108 11261 21336 39915 57028 333 59009=
0113896640876012017062205554-77850+166667FM-15+002499999V0209999C000012200019N009999199-02801-03401999999ADDGF100991999999999999999999MA1098981999999REMMET060METAR NZCM 220555Z 00000KT 9999 SKC M28/M34 A2923 RMK SLPNO=
0083896640876012017062206004-77850+166667FM-12+002499999V0209999C000019999999N011000199-02831-03381099075ADDMA1099005098621MD1810291+9999REMSYN04289664 32961 00000 11283 21338 39862 58029=
0114896640876012017062211554-77850+166667FM-15+002499999V0203101N005112200019N009999199-02501-02901098601ADDGF100991999999999999999999MA1098511098155REMMET061METAR NZCM 221155Z 31010KT 9999 SKC M25/M29 A2909 RMK SLP860=
0137896640876012017062212004-77850+166667FM-12+002499999V0203101N005119999999N011000199-02481-02891098601ADDKA1240M-02291KA2240N-02961MA1098535098151MD1610171+9999REMSYN07089664 32961 03110 11248 21289 39815 49860 56017 333 11229 21296 59160=
0155896640876012017062217554-77850+166667FM-15+002499999V0200801N002119999999N009999199-02701-03101098251ADDGA1021+003661999GE19MSL   +99999+99999GF199999021999003661999999MA1098171097805REMMET064METAR NZCM 221755Z 08004KT 9999 FEW012 M27/M31 A2899 RMK SLP825=
0114896640876012017062223554-77850+166667FM-15+002499999V0200501N003612200019N009999199-02501-03001098221ADDGF100991999999999999999999MA1098141097785REMMET061METAR NZCM 222355Z 05007KT 9999 SKC M25/M30 A2898 RMK SLP822=
0137896640876012017062300004-77850+166667FM-12+002499999V0200501N003619999999N011000199-02511-02981098221ADDKA1120M-02471KA2120N-02931MA1098145097771MD1810031+9999REMSYN07089664 32961 00507 11251 21298 39777 49822 58003 333 11247 21293 59138=
0172896640876012017062305554-77850+166667FM-15+002499999V0200701N007219999999N009999199-02801-03301098601ADDGA1041+007621999GE19MSL   +99999+99999GF199999041999007621999999MA1098541098155MW1761REMMET075METAR NZCM 230555Z 07014KT 9999 IC SCT025 M28/M33 A2910 RMK ICB1230 SLP860=
0242896640876012017062306004-77850+166667FM-12+002499999V0200701N007212200019N011000199-02831-03281098601ADDAA106000021AL19900031AY171021AY211021GA1031+007501071GE19MSL   +99999+99999GF103991031999007501999999MA1098535098151MD1310181+9999MW1761REMSYN09489664 11561 30714 11283 21328 39815 49860 53018 69901 77671 83600 333 56000 83725 90962 93197=
0122896640876012017062311554-77850+166667FM-15+002499999V0200501N006712200019N009999199-02501-03301098871ADDGF100991999999999999999999MA1098811098425REMMET069METAR NZCM 231155Z 05013KT 9999 SKC M25/M33 A2918 RMK ICE0900 SLP887=
0166896640876012017062312004-77850+166667FM-12+002499999V0200501N006719999999N011000199-02511-03291098871ADDAA112000021AL19900031AY171021AY211021MA1098805098421MD1110091+0271MW1021REMSYN08289664 11961 00513 11251 21329 39842 49887 51009 69902 70271 333 58027 90933 93197=
0184896640876012017062317554-77850+166667FM-15+002499999V0201101N006219999999N009999199-02601-03401099451ADDGA1021+060961999GE19MSL   +99999+99999GF199999021999060961999999MA1099361099005MW1361OC101031REMMET079METAR NZCM 231755Z 11012G20KT 9999 DRSN FEW200 M26/M34 A2934 RMK PRESRR SLP945=
0155896640876012017062323554-77850+166667FM-15+002499999V0200701N004119999999N009999199-02601-03401099981ADDGA1021+045721999GE19MSL   +99999+99999GF199999021999045721999999MA1099901099535REMMET064METAR NZCM 232355Z 07008KT 9999 FEW150 M26/M34 A2950 RMK SLP998=
0258896640876012017062400004-77850+166667FM-12+002499999V0200701N004112200019N011000199-02611-03391099981ADDAA124000021AL19900031GA1021+045001041GE19MSL   +99999+99999GF102991021999045001999999KA1120M-02341KA2120N-02991MA1099915099531MD1310251+9999REMSYN10689664 12961 20708 11261 21339 39953 49998 53025 69904 82010 333 11234 21299 56070 58176 82465 90983 93197=
0178896640876012017062405554-77850+166667FM-15+002499999V0200401N00261076201CN009999199-02501-03101099981ADDGA1021+004571999GA2041+076201999GE19MSL   +99999+99999GF199999021999004571999999MA1099901099535REMMET071METAR NZCM 240555Z 04005KT 9999 FEW015 SCT250 M25/M31 A2950 RMK SLP998=
0197896640876012017062406004-77850+166667FM-12+002499999V0200401N004112200019N011000199-02541-03141099981ADDGA1011+004501071GA2031+075001021GE19MSL   +99999+99999GF103991011999004501999999MA1099915099531MD1810011+9999REMSYN07689664 32461 30408 11254 21314 39953 49998 58001 81608 333 56707 81715 83275=
0172896640876012017062411554-77850+166667FM-15+002499999V0200601N00461013721CN003200199-02701-03201099721ADDGA1071+013721999GE19MSL   +99999+99999GF199999071999013721999999MA1099661099275MW1761REMMET075METAR NZCM 241155Z 06009KT 3200 IC BKN045 M27/M32 A2943 RMK ICB1030 SLP972=
0286896640876012017062412004-77850+166667FM-12+002499999V0200601N00461013501CN003200199-02681-03251099721ADDAA106000021AL19900031AY171021AY211021GA1061+013501071GE19MSL   +99999+99999GF106991061999013501999999KA1240M-02461KA2240N-03001MA1099655099271MD1810171+9999MW1761REMSYN11289664 11632 60609 11268 21325 39927 49972 58017 69901 77671 86600 333 11246 21300 56700 58085 86745 90921 93197=
0225896640876012017062417554-77850+166667FM-15+002499999V0200601N00721016761CN009999199-02801-03301099281ADDGA1071+016761999GA2081+027431999GE19MSL   +99999+99999GF199999071999016761999999MA1099191098835MW1361MW2711OC100931REMMET098METAR NZCM 241755Z 06014G18KT 9999 -SN DRSN BKN055 OVC090 M28/M33 A2929 RMK ICE1230SNB1230 SLP928=
0264896640876012017062418004-77850+166667FM-12+002499999V0200601N00721015001CN011000199-02811-03331099281ADDAA112000531AL19900231AY171021AY221021GA1071+015001061GA2999+999999051GE19MSL   +99999+99999GF108991071999015001999999MA1099205098821MD1810191+9999MW1711REMSYN10089664 11761 80614 11281 21333 39882 49928 58019 69952 77172 8752/ 333 56779 87650 90962 93102 96036=
0122896640876012017062423554-77850+166667FM-15+002499999V0200801N005712200019N009999199-02801-03401099191ADDGF100991999999999999999999MA1099121098745REMMET069METAR NZCM 242355Z 08011KT 9999 SKC M28/M34 A2927 RMK SNE2200 SLP919=
0204896640876012017062500004-77850+166667FM-12+002499999V0200801N005719999999N011000199-02811-03381099191ADDAA118000531AL19900231AY171021AY211021KA1120M-02621KA2120N-03051MA1099115098731MD1510001-0801MW1011REMSYN09489664 11961 00811 11281 21338 39873 49919 55000 69953 70171 333 11262 21305 59080 90923 93102=
0114896640876012017062505554-77850+166667FM-15+002499999V0203001N002112200019N009999199-03001-03401099101ADDGF100991999999999999999999MA1099021098645REMMET061METAR NZCM 250555Z 30004KT 9999 SKC M30/M34 A2924 RMK SLP910=
0173896640876012017062511554-77850+166667FM-15+002499999V0200401N00621004271CN009999199-02701-03201098941ADDGA1071+004271999GE19MSL   +99999+99999GF199999071999004271999999MA1098851098495MW1711REMMET076METAR NZCM 251155Z 04012KT 9999 -SN BKN014 M27/M32 A2919 RMK SNB1030 SLP894=
0174896640876012017062517554-77850+166667FM-15+002499999V0200801N00511006711CN008000199-03101-03601098501ADDGA1081+006711999GE19MSL   +99999+99999GF199999081999006711999999MA1098411098045MW1101MW2711REMMET071METAR NZCM 251755Z 08010KT 8000 -SN BR OVC022 M31/M36 A2906 RMK SLP850=
0248896640876012017062518004-77850+166667FM-12+002499999V0200801N00511006601CN008000199-03071-03631098501ADDAA112000021AL19900031AY171021AY231021GA1081+006601071GE19MSL   +99999+99999GF108991081999006601999999MA1098415098041MD1810231+9999MW1711REMSYN10089664 11558 80810 11307 21363 39804 49850 58023 69902 77173 887// 333 56799 88722 90973 93197 96010=
0163896640876012017062523554-77850+166667FM-15+002499999V0201001N004119999999N009999199-03201-03701098151ADDGA1021+006711999GE19MSL   +99999+99999GF199999021999006711999999MA1098071097695REMMET072METAR NZCM 252355Z 10008KT 9999 FEW022 M32/M37 A2896 RMK SNE2000 SLP815=
0286896640876012017062600004-77850+166667FM-12+002499999V0201001N004112200019N011000199-03231-03691098151ADDAA118000021AL19900031AY171021AY211021GA1011+006601061GE19MSL   +99999+99999GF101991011999006601999999KA1120M-02731KA2120N-03411MA1098075097701MD1810151+9999MW1021REMSYN11289664 11561 11008 11323 21369 39770 49815 58015 69903 70271 81500 333 11273 21341 56700 59103 81622 90943 93197=
0155896640876012017062605554-77850+166667FM-15+002499999V0209999C000019999999N009999199-03101-03601097981ADDGA1021+024381999GE19MSL   +99999+99999GF199999021999024381999999MA1097901097535REMMET064METAR NZCM 260555Z 00000KT 9999 FEW080 M31/M36 A2891 RMK SLP798=
0175896640876012017062606004-77850+166667FM-12+002499999V0209999C000012200019N011000199-03141-03621097981ADDGA1021+024001031GE19MSL   +99999+99999GF102991021999024001999999MA1097915097541MD1510011+9999REMSYN07089664 32861 20000 11314 21362 39754 49798 55001 82030 333 56070 82358=
0202896640876012017062611554-77850+166667FM-15+002499999V0200701N01131002131CN009000199-03101-03501098081ADDGA1071+002131999GE19MSL   +99999+99999GF199999071999002131999999MA1098001097635MW1381MW2711REMMET099METAR NZCM 261155Z 07022KT 9000 -SN BLSN BKN007 M31/M35 A2894 RMK PK WND 07026/1145 SNB0930 SLP808=
0292896640876012017062612004-77850+166667FM-12+002499999V0200701N01131002101CN009000199-03081-03531098081ADDAA106000021AL19900031AY171021AY231021GA1051+002101061GE19MSL   +99999+99999GF105991051999002101999999KA1240M-02861KA2240N-03301MA1098005097631MD1510001+9999MW1711REMSYN11889664 11359 50722 11308 21353 39763 49808 55000 69901 77173 85500 333 11286 21330 56700 59085 85607 90931 93197 96038=
0195896640876012017062617554-77850+166667FM-15+002499999V0200401N007219999999N009999199-02901-03501098501ADDGA1041+010671999GE19MSL   +99999+99999GF199999041999010671999999MA1098441098055OD149901491080REMMET090METAR NZCM 261755Z 04014KT 9999 SCT035 M29/M35 A2907 RMK PK WND 08029/1218 SNE1230 SLP850=
0114896640876012017062623554-77850+166667FM-15+002499999V0209999C000012200019N009999199-03101-03601098871ADDGF100991999999999999999999MA1098781098415REMMET061METAR NZCM 262355Z 00000KT 9999 SKC M31/M36 A2917 RMK SLP887=
0176896640876012017062700004-77850+166667FM-12+002499999V0209999C000019999999N011000199-03141-03601098871ADDAA118000021AL19900031KA1120M-02861KA2120N-03311MA1098805098421MD1110141+0721REMSYN08889664 12961 00000 11314 21360 39842 49887 51014 69903 333 11286 21331 58072 90972 93197=
0114896640876012017062705554-77850+166667FM-15+002499999V0200701N001512200019N009999199-03101-03601098971ADDGF100991999999999999999999MA1098881098515REMMET061METAR NZCM 270555Z 07003KT 9999 SKC M31/M36 A2920 RMK SLP897=
0089896640876012017062706004-77850+166667FM-12+002499999V0200701N001519999999N011000199-03101-03591098971ADDMA1098905098521MD1110031+9999REMSYN04889664 32961 00703 11310 21359 39852 49897 51003=
0114896640876012017062711554-77850+166667FM-15+002499999V0209999C000012200019N009999199-03201-03701099131ADDGF100991999999999999999999MA1099051098675REMMET061METAR NZCM 271155Z 00000KT 9999 SKC M32/M37 A2925 RMK SLP913=
0137896640876012017062712004-77850+166667FM-12+002499999V0209999C000019999999N011000199-03181-03681099131ADDKA1240M-03051KA2240N-03361MA1099065098681MD1110081+9999REMSYN07089664 32961 00000 11318 21368 39868 49913 51008 333 11305 21336 58105=
0111896640876012017062718004-77850+166667FM-12+002499999V0200901N004619999999N009000199-03681-04031099405ADDAY101021AY201021MA1099315098931MD1310161+9999MW1101REMSYN04889664 31959 00909 11368 21403 39893 53016 71000=
0151896640876012017062723554-77850+166667FM-15+002499999V0200701N010812200019N008000199-03401-03801999999ADDGF100991999999999999999999MA1099361999999MW1381OC101441REMMET084METAR NZCM 272355Z 07021G28KT 8000 BLSN SKC M34/M38 A2934 RMK PK WND 07029/40 SLPNO=
0121896640876012017062800004-77850+166667FM-12+002499999V0200701N010819999999N008000199-03441-03781099475ADDAY131021AY201021MA1099385099001MD1710051+0581MW1381REMSYN05889664 31958 00721 11344 21378 39900 57005 73830 333 58058=
0126896640876012017062805554-77850+166667FM-15+002499999V0200701N002112200019N009999199-03301-03701999999ADDGF100991999999999999999999MA1099461999999REMMET073METAR NZCM 280555Z 07004KT 9999 SKC M33/M37 A2937 RMK ICB0100E0400 SLPNO=
0173896640876012017062806004-77850+166667FM-12+002499999V0200701N002119999999N011000199-03351-03701099545ADDAA106000091AL19900031AY171021AY201021MA1099455099071MD1110051+9999MW1021REMSYN07089664 11961 00704 11335 21370 39907 51005 69901 70270 333 90922 93197=EQDQ01  00002PRCP06
0113896640876012017062811554-77850+166667FM-15+002499999V0200501N000512200019N009999199-03201-03501999999ADDGF100991999999999999999999MA1099491999999REMMET060METAR NZCM 281155Z 05001KT 9999 SKC M32/M35 A2938 RMK SLPNO=
0151896640876012017062812004-77850+166667FM-12+002499999V0200501N000519999999N011000199-03201-03531099565ADDAA112000091AL19900031MA1099485099101MD1990011+0421REMSYN07089664 12961 00501 11320 21353 39910 50001 69902 333 58042 90972 93197=EQDQ01  00002PRCP12
0113896640876012017062817554-77850+166667FM-15+002499999V0209999C000012200019N009999199-03401-03801999999ADDGF100991999999999999999999MA1099561999999REMMET060METAR NZCM 281755Z 00000KT 9999 SKC M34/M38 A2940 RMK SLPNO=
0083896640876012017062818004-77850+166667FM-12+002499999V0209999C000019999999N011000199-03421-03761099665ADDMA1099575099191MD1990041+9999REMSYN04289664 32961 00000 11342 21376 39919 50004=
0113896640876012017062823554-77850+166667FM-15+002499999V0209999C000012200019N009999199-03301-03801999999ADDGF100991999999999999999999MA1099691999999REMMET060METAR NZCM 282355Z 00000KT 9999 SKC M33/M38 A2944 RMK SLPNO=
0151896640876012017062900004-77850+166667FM-12+002499999V0209999C000019999999N011000199-03311-03801099795ADDAA124000091AL19900031MA1099705099321MD1110061+0321REMSYN07089664 12961 00000 11331 21380 39932 51006 69904 333 58032 90982 93197=EQDQ01  00002PRCP24
0113896640876012017062905554-77850+166667FM-15+002499999V0209999C000012200019N009999199-03401-04001999999ADDGF100991999999999999999999MA1099931999999REMMET060METAR NZCM 290555Z 00000KT 9999 SKC M34/M40 A2951 RMK SLPNO=
0083896640876012017062906004-77850+166667FM-12+002499999V0209999C000019999999N011000199-03451-03961100045ADDMA1099955099571MD1310101+9999REMSYN04289664 32961 00000 11345 21396 39957 53010=
0114896640876012017062911554-77850+166667FM-15+002499999V0209999C000012200019N009999199-03301-03801100271ADDGF100991999999999999999999MA1100201099805REMMET061METAR NZCM 291155Z 00000KT 9999 SKC M33/M38 A2959 RMK SLP027=
0137896640876012017062912004-77850+166667FM-12+002499999V0209999C000019999999N011000199-03301-03791100271ADDKA1240M-03281KA2240N-03461MA1100205099821MD1110121+0721REMSYN07089664 32961 00000 11330 21379 39982 40027 51012 333 11328 21346 58072=
0113896640876012017062917554-77850+166667FM-15+002499999V0209999C000012200019N009999199-03501-03801999999ADDGF100991999999999999999999MA1100371999999REMMET060METAR NZCM 291755Z 00000KT 9999 SKC M35/M38 A2964 RMK SLPNO=
0083896640876012017062918004-77850+166667FM-12+002499999V0209999C000019999999N011000199-03461-03801100455ADDMA1100365099981MD1310071+9999REMSYN04289664 32961 00000 11346 21380 39998 53007=
0114896640876012017062923554-77850+166667FM-15+002499999V0203501N002112200019N009999199-03301-03801100421ADDGF100991999999999999999999MA1100341099955REMMET061METAR NZCM 292355Z 35004KT 9999 SKC M33/M38 A2963 RMK SLP042=
0099896640876012017063000004-77850+166667FM-12+002499999V0203501N002119999999N011000199-03261-03771100421ADDMA1100355099971MD1990021+0651REMSYN05889664 32961 03504 11326 21377 39997 40042 50002 333 58065=
0083896640876012017063006004-77850+166667FM-12+002499999V0209999C000019999999N011000199-03161-03681100245ADDMA1100165099781MD1810111+9999REMSYN04289664 32961 00000 11316 21368 39978 58011=
0114896640876012017063011554-77850+166667FM-15+002499999V0201901N001512200019N009999199-03401-03901100001ADDGF100991999999999999999999MA1099931099535REMMET061METAR NZCM 301155Z 19003KT 9999 SKC M34/M39 A2951 RMK SLP000=
0137896640876012017063012004-77850+166667FM-12+002499999V0201901N001519999999N011000199-03361-03901100001ADDKA1240M-03081KA2240N-03431MA1099925099541MD1810141-0281REMSYN07089664 32961 01903 11336 21390 39954 40000 58014 333 11308 21343 59028=
0154896640876012017063017554-77850+166667FM-15+002499999V0209999C00001060961CN009999199-02501-02901999999ADDGA1071+060961999GE19MSL   +99999+99999GF199999071999060961999999MA1099461999999REMMET063METAR NZCM 301755Z 00000KT 9999 BKN200 M25/M29 A2937 RMK SLPNO=
0169896640876012017063018004-77850+166667FM-12+002499999V0209999C000010600019N011000199-02471-02871099525ADDGA1061+060001021GE19MSL   +99999+99999GF106991061999060001999999MA1099455099071MD1810251+9999REMSYN06489664 32961 60000 11247 21287 39907 58025 80006 333 56003 86270=
0154896640876012017063023554-77850+166667FM-15+002499999V0203501N00621045721CN009999199-01601-02201999999ADDGA1071+045721999GE19MSL   +99999+99999GF199999071999045721999999MA1098851999999REMMET063METAR NZCM 302355Z 35012KT 9999 BKN150 M16/M22 A2919 RMK SLPNO=
0175896640876012017070100004-77850+166667FM-12+002499999V0203501N006210450019N011000199-01561-02221098925ADDGA1071+045001021GE19MSL   +99999+99999GF107991071999045001999999MA1098875098491MD1810271+9999REMSYN07089664 32961 73512 11156 21222 39849 58027 80006 333 56003 59148 87265=
0154896640876012017070105554-77850+166667FM-15+002499999V0201701N00671045721CN009999199-01401-02001999999ADDGA1071+045721999GE19MSL   +99999+99999GF199999071999045721999999MA1098981999999REMMET063METAR NZCM 010555Z 17013KT 9999 BKN150 M14/M20 A2923 RMK SLPNO=
0154896640876012017070111554-77850+166667FM-15+002499999V0200901N007219999999N009999199-01401-02401999999ADDGA1041+045721999GE19MSL   +99999+99999GF199999041999045721999999MA1099091999999REMMET063METAR NZCM 011155Z 09014KT 9999 SCT150 M14/M24 A2926 RMK SLPNO=
0149896640876012017070117554-77850+166667FM-15+002499999V0200701N010312200019N009999199-01401-02701999999ADDGF100991999999999999999999MA1099021999999OD149901331030REMMET082METAR NZCM 011755Z COR 07020KT 9999 SKC M14/M27 A2924 RMK PK WND 03026/1515 SLPNO=
0083896640876012017070118004-77850+166667FM-12+002499999V0200701N010319999999N011000199-01401-02691099075ADDMA1099025098641MD1810141+9999REMSYN04289664 32961 00720 11140 21269 39864 58014=
0113896640876012017070123554-77850+166667FM-15+002499999V0202801N002112200019N009999199-01901-02401999999ADDGF100991999999999999999999MA1098921999999REMMET060METAR NZCM 012355Z 28004KT 9999 SKC M19/M24 A2921 RMK SLPNO=
0145896640876012017070205554-77850+166667FM-15+002499999V0203201N006212200019N009999199-01401-02301999999ADDGF100991999999999999999999MA1098481999999OD149901441330REMMET078METAR NZCM 020555Z 32012KT 9999 SKC M14/M23 A2908 RMK PK WND 33028/0357 SLPNO=
0083896640876012017070206004-77850+166667FM-12+002499999V0203201N006219999999N011000199-01371-02311098525ADDMA1098475098091MD1610201+9999REMSYN04289664 32961 03212 11137 21231 39809 56020=
0165896640876012017070211554-77850+166667FM-15+002499999V0200801N01031054861CN009999199-02101-02701999999ADDGA1071+054861999GE19MSL   +99999+99999GF199999071999054861999999MA1098341999999OC101651REMMET066METAR NZCM 021155Z 08020G32KT 9999 BKN180 M21/M27 A2904 RMK SLPNO=
0145896640876012017070217554-77850+166667FM-15+002499999V0200701N005712200019N009999199-02401-02901999999ADDGF100991999999999999999999MA1098611999999OD149901951070REMMET078METAR NZCM 021755Z 07011KT 9999 SKC M24/M29 A2912 RMK PK WND 07038/1254 SLPNO=
0093896640876012017070218004-77850+166667FM-12+002499999V0200701N005719999999N011000199-02431-02931098685ADDMA1098625098241MD1310091+9999REMSYN05289664 32961 00711 11243 21293 39824 53009 333 00738=
0194896640876012017070223554-77850+166667FM-15+002499999V0201401N010319999999N003200199-02801-03301999999ADDGA1041+054861999GE19MSL   +99999+99999GF199999041999054861999999MA1098951999999MW1381OC101491REMMET089METAR NZCM 022355Z 14020G29KT 3200 BLSN SCT180 M28/M33 A2922 RMK PK WND 14041/2248 SLPNO=
0156896640876012017070305554-77850+166667FM-15+002499999V0201301N006712200019N009999199-02601-03501999999ADDGF100991999999999999999999MA1099121999999OC101081OD149901951140REMMET081METAR NZCM 030555Z 13013G21KT 9999 SKC M26/M35 A2927 RMK PK WND 14038/0212 SLPNO=
0111896640876012017070306004-77850+166667FM-12+002499999V0201301N006719999999N011000199-02611-03521099195ADDAY131021AY201021MA1099125098741MD1990101+9999MW1021REMSYN04889664 31961 01313 11261 21352 39874 50010 70230=
0155896640876012017070311554-77850+166667FM-15+002499999V0200401N004119999999N009999199-02501-03701098931ADDGA1041+054861999GE19MSL   +99999+99999GF199999041999054861999999MA1098851098485REMMET064METAR NZCM 031155Z 04008KT 9999 SCT180 M25/M37 A2919 RMK SLP893=
0154896640876012017070317554-77850+166667FM-15+002499999V0200401N001519999999N009999199-02701-03501999999ADDGA1041+054861999GE19MSL   +99999+99999GF199999041999054861999999MA1098651999999REMMET063METAR NZCM 031755Z 04003KT 9999 SCT180 M27/M35 A2913 RMK SLPNO=
0169896640876012017070318004-77850+166667FM-12+002499999V0200401N001512200019N011000199-02701-03551098725ADDGA1031+054001021GE19MSL   +99999+99999GF103991031999054001999999MA1098655098271MD1610131+9999REMSYN06489664 32961 30403 11270 21355 39827 56013 80008 333 56006 83268=
0154896640876012017070323554-77850+166667FM-15+002499999V0200301N001019999999N009999199-02701-03701999999ADDGA1041+015241999GE19MSL   +99999+99999GF199999041999015241999999MA1098541999999REMMET063METAR NZCM 032355Z 03002KT 9999 SCT050 M27/M37 A2910 RMK SLPNO=
0175896640876012017070400004-77850+166667FM-12+002499999V0200301N001012200019N011000199-02691-03661098615ADDGA1041+015001061GE19MSL   +99999+99999GF104991041999015001999999MA1098545098161MD1610051+9999REMSYN07089664 32761 40302 11269 21366 39816 56005 84500 333 56600 59042 84650=
0154896640876012017070405554-77850+166667FM-15+002499999V0203101N00261021341CN009999199-02701-03701999999ADDGA1071+021341999GE19MSL   +99999+99999GF199999071999021341999999MA1098341999999REMMET063METAR NZCM 040555Z 31005KT 9999 BKN070 M27/M37 A2904 RMK SLPNO=
0114896640876012017070411554-77850+166667FM-15+002499999V0203501N007712200019N009999199-02301-03301098251ADDGF100991999999999999999999MA1098171097815REMMET061METAR NZCM 041155Z 35015KT 9999 SKC M23/M33 A2899 RMK SLP825=
0137896640876012017070412004-77850+166667FM-12+002499999V0203501N007719999999N011000199-02311-03291098251ADDKA1240M-02311KA2240N-03091MA1098175097801MD1610111-0681REMSYN07089664 32961 03515 11231 21329 39780 49825 56011 333 11231 21309 59068=
0155896640876012017070417554-77850+166667FM-15+002499999V0209999C00001024381CN009999199-02601-03301098261ADDGA1081+024381999GE19MSL   +99999+99999GF199999081999024381999999MA1098201097815REMMET064METAR NZCM 041755Z 00000KT 9999 OVC080 M26/M33 A2900 RMK SLP826=
0175896640876012017070418004-77850+166667FM-12+002499999V0209999C00001024001CN011000199-02581-03351098261ADDGA1081+024001041GE19MSL   +99999+99999GF108991081999024001999999MA1098175097801MD1110041+9999REMSYN07089664 32861 80000 11258 21335 39780 49826 51004 8802/ 333 56039 88458=
0155896640876012017070423554-77850+166667FM-15+002499999V0201801N00261024381CN009999199-02601-03301098351ADDGA1071+024381999GE19MSL   +99999+99999GF199999071999024381999999MA1098271097905REMMET064METAR NZCM 042355Z 18005KT 9999 BKN080 M26/M33 A2902 RMK SLP835=
0219896640876012017070500004-77850+166667FM-12+002499999V0201801N00261024001CN011000199-02651-03341098351ADDGA1071+024001031GE19MSL   +99999+99999GF107991071999024001999999KA1120M-02291KA2120N-02781MA1098275097901MD1310101+9999REMSYN08889664 32861 71805 11265 21334 39790 49835 53010 87030 333 11229 21278 56030 59026 87358=
0209896640876012017070505554-77850+166667FM-15+002499999V0200701N01081000911WN000300199-03201-03601999999ADDGA1091+000911999GE19MSL   +99999+99999GF109991091999000911999999MA1098271999999MW1381MW2711OC101491REMMET098METAR NZCM 050555Z 07021G29KT 0300 -SN BLSN VV003 M32/M36 A2902 RMK PK WND 07035/20 SNB0030 SLPNO=
0196896640876012017070511554-77850+166667FM-15+002499999V0203601N00151012191CN009000199-02901-03401999999ADDGA1071+012191999GE19MSL   +99999+99999GF199999071999012191999999MA1098141999999MW1711OD149901591070REMMET085METAR NZCM 051155Z 36003KT 9000 -SN BKN040 M29/M34 A2898 RMK PK WND 07031/0707 SLPNO=
0162896640876012017070517554-77850+166667FM-15+002499999V0209999C00001024381CN009999199-03101-03501999999ADDGA1081+024381999GE19MSL   +99999+99999GF199999081999024381999999MA1097871999999REMMET071METAR NZCM 051755Z 00000KT 9999 OVC080 M31/M35 A2890 RMK SNE1400 SLPNO=
0236896640876012017070518004-77850+166667FM-12+002499999V0209999C00001024001CN011000199-03151-03461097935ADDAA112000021AL19900031AY171021AY221021GA1081+024001041GE19MSL   +99999+99999GF108991081999024001999999MA1097855097481MD1610181+9999MW1011REMSYN08889664 32861 80000 11315 21346 39748 56018 69902 70172 8801/ 333 56039 88458 90953 93197=
0154896640876012017070523554-77850+166667FM-15+002499999V0209999C00001018291CN009999199-02901-03201999999ADDGA1081+018291999GE19MSL   +99999+99999GF199999081999018291999999MA1097631999999REMMET063METAR NZCM 052355Z 00000KT 9999 OVC060 M29/M32 A2883 RMK SLPNO=
0214896640876012017070600004-77850+166667FM-12+002499999V0209999C00001018001CN011000199-02901-03221097715ADDAA124000021AL19900031GA1081+018001061GE19MSL   +99999+99999GF108991081999018001999999MA1097635097261MD1710131+9999REMSYN08889664 12761 80000 11290 21322 39726 57013 69904 885// 333 56399 59064 88656 90973 93197=
0154896640876012017070605554-77850+166667FM-15+002499999V0209999C000019999999N009999199-02901-03201999999ADDGA1041+024381999GE19MSL   +99999+99999GF199999041999024381999999MA1097531999999REMMET063METAR NZCM 060555Z 00000KT 9999 SCT080 M29/M32 A2880 RMK SLPNO=
0169896640876012017070606004-77850+166667FM-12+002499999V0209999C000012200019N011000199-02891-03201097625ADDGA1031+024001041GE19MSL   +99999+99999GF103991031999024001999999MA1097545097171MD1810081+9999REMSYN06489664 32861 30000 11289 21320 39717 58008 83010 333 56030 83458=
0175896640876012017070612004-77850+166667FM-12+002499999V0209999C000012200019N011000199-02761-03291097725ADDGA1041+024001031GE19MSL   +99999+99999GF104991041999024001999999MA1097645097271MD1710071+9999REMSYN07089664 32861 40000 11276 21329 39727 57007 84070 333 56030 59049 84358=
0146896640876012017070617554-77850+166667FM-15+002499999V0209999C000019999999N009999199+99999+99999999999ADDGA1021+024381999GE19MSL   +99999+99999GF199999021999024381999999MA1097601999999REMMET055METAR NZCM 061755Z 00000KT 9999 FEW080 A2882 RMK SLPNO=
0157896640876012017070618004-77850+166667FM-12+002499999V0209999C000012200019N011000199+99999+99999999999ADDGA1021+024001041GE19MSL   +99999+99999GF102991021999024001999999MA1097595097221MD1810051+9999REMSYN05289664 32861 20000 39722 58005 82010 333 56030 82458=
0172896640876012017070623554-77850+166667FM-15+002499999V0209999C00001018291CN009999199-02301-02601999999ADDGA1081+018291999GE19MSL   +99999+99999GF199999081999018291999999MA1097391999999MW1711REMMET075METAR NZCM 062355Z 00000KT 9999 -SN OVC060 M23/M26 A2876 RMK SNB2200 SLPNO=
0242896640876012017070700004-77850+166667FM-12+002499999V0209999C00001018001CN011000199-02281-02621097485ADDAA106000021AL19900031AY171021AY211021GA1081+018001061GE19MSL   +99999+99999GF108991081999018001999999MA1097415097041MD1810141+9999MW1711REMSYN09489664 11761 80000 11228 21262 39704 58014 69901 77171 885// 333 56399 59022 88656 90921 93197=
0164896640876012017070705554-77850+166667FM-15+002499999V0201201N00261006101CN003200199-01701-02101999999ADDGA1081+006101999GE19MSL   +99999+99999GF199999081999006101999999MA1097321999999MW1711REMMET067METAR NZCM 070555Z 12005KT 3200 -SN OVC020 M17/M21 A2874 RMK SLPNO=
0236896640876012017070706004-77850+166667FM-12+002499999V0201201N00261006001CN003200199-01731-02091097395ADDAA106000021AL19900031AY171021AY271021GA1081+006001061GE19MSL   +99999+99999GF108991081999006001999999MA1097335096961MD1510071+9999MW1711REMSYN08889664 11532 81205 11173 21209 39696 55007 69901 77177 885// 333 56399 88620 90973 93197=
0220896640876012017070711554-77850+166667FM-15+002499999V0200601N007710243819N009999199-01901-02301097621ADDGA1041+006101999GA2081+024381999GE19MSL   +99999+99999GF199999041999006101999999MA1097601097195MW1711OD149901541160REMMET093METAR NZCM 071155Z 06015KT 9999 -SN SCT020 OVC080 M19/M23 A2882 RMK PK WND 16030/0819 SLP762=
0235896640876012017070717554-77850+166667FM-15+002499999V0200601N00101009141CN009000199-01701-02201999999ADDGA1071+009141999GA2081+018291999GE19MSL   +99999+99999GF199999071999009141999999MA1097631999999MW1711OD149901331070REMMET108METAR NZCM 071755Z 06002KT 9000 -SN BKN030 OVC060 M17/M22 A2883 RMK PK WND 07026/1430 SLPNO WND/ALSTG ESTMD=
0216896640876012017070718004-77850+166667FM-12+002499999V0200601N00101009001CN009000199-01751-02221097925ADDAA118001031AL19900731AY171021AY231021GA1061+009001061GE19MSL   +99999+99999GF108991061999009001999999MA1097865097491MW1711REMSYN08289664 32559 80602 11175 21222 39749 60013 77173 885// 333 56399 86630 90983 93107=
0230896640876012017070723554-77850+166667FM-15+002499999V0201401N00881009141CN009999199-01901-02401999999ADDGA1071+009141999GA2071+021341999GE19MSL   +99999+99999GF199999071999009141999999MA1098001999999MW1711OC101181OD149901391140REMMET095METAR NZCM 072355Z 14017G23KT 9999 -SN BKN030 BKN070 M19/M24 A2894 RMK PK WND 14027/2258 SLPNO=
0162896640876012017070805554-77850+166667FM-15+002499999V0200701N00461024381CN009999199-01801-02701999999ADDGA1081+024381999GE19MSL   +99999+99999GF199999081999024381999999MA1097931999999REMMET071METAR NZCM 080555Z 07009KT 9999 OVC080 M18/M27 A2892 RMK SNE0400 SLPNO=
0155896640876012017070811554-77850+166667FM-15+002499999V0200601N005119999999N009999199-02201-03101097521ADDGA1041+030481999GE19MSL   +99999+99999GF199999041999030481999999MA1097871097095REMMET064METAR NZCM 081155Z 06010KT 9999 SCT100 M22/M31 A2890 RMK SLP752=
0277896640876012017070812004-77850+166667FM-12+002499999V0200601N005112200019N011000199-02251-03101097521ADDAA112000091AL19900031GA1041+030001041GE19MSL   +99999+99999GF104991041999030001999999KA1240M-01751KA2240N-02571MA1097845097471MD1810031+9999REMSYN10689664 12961 40610 11225 21310 39747 49752 58003 69902 84010 333 11175 21257 56030 58026 84460 90973 93197=EQDQ01  00002PRCP12
0114896640876012017070817554-77850+166667FM-15+002499999V0200401N004612200019N009999199-02101-03201097461ADDGF100991999999999999999999MA1097801097035REMMET061METAR NZCM 081755Z 04009KT 9999 SKC M21/M32 A2888 RMK SLP746=
0151896640876012017070818004-77850+166667FM-12+002499999V0200401N004619999999N011000199-02071-03191097461ADDAA118000091AL19900031MA1097785097411MD1610051+9999REMSYN07089664 32961 00409 11207 21319 39741 49746 56005 69903 333 90983 93197=EQDQ01  00002PRCP18
0155896640876012017070823554-77850+166667FM-15+002499999V0203401N003619999999N009999199-02501-03101097581ADDGA1021+009141999GE19MSL   +99999+99999GF199999021999009141999999MA1097931097145REMMET064METAR NZCM 082355Z 34007KT 9999 FEW030 M25/M31 A2892 RMK SLP758=
0155896640876012017070905554-77850+166667FM-15+002499999V0200801N00151003661CN009999199-02301-02801097661ADDGA1081+003661999GE19MSL   +99999+99999GF199999081999003661999999MA1098001097225REMMET064METAR NZCM 090555Z 08003KT 9999 OVC012 M23/M28 A2894 RMK SLP766=
0155896640876012017070911554-77850+166667FM-15+002499999V0200301N00571005791CN009999199-02301-03001097921ADDGA1081+005791999GE19MSL   +99999+99999GF199999081999005791999999MA1098201097485REMMET064METAR NZCM 091155Z 03011KT 9999 OVC019 M23/M30 A2900 RMK SLP792=
0178896640876012017070917554-77850+166667FM-15+002499999V0200501N003110137219N009999199-02401-02801098261ADDGA1041+002741999GA2081+013721999GE19MSL   +99999+99999GF199999041999002741999999MA1098611097825REMMET071METAR NZCM 091755Z 05006KT 9999 SCT009 OVC045 M24/M28 A2912 RMK SLP826=
0200896640876012017070923554-77850+166667FM-15+002499999V0200701N00361007621CN008000199-02501-03101098661ADDGA1071+007621999GA2081+015241999GE19MSL   +99999+99999GF199999071999007621999999MA1098981098215MW1711REMMET087METAR NZCM 092355Z COR 07007KT 8000 -SN BKN025 OVC050 M25/M31 A2923 RMK SNB2200 SLP866=
0308896640876012017071000004-77850+166667FM-12+002499999V0200701N00361007501CN008000199-02541-03091098661ADDAA106000021AL19900031AY171021AY221021GA1051+007501061GA2081+015001061GE19MSL   +99999+99999GF108991051999007501999999KA1120M-02301KA2120N-03001MA1099005098621MD1210221+9999MW1711REMSYN11889664 11558 80707 11254 21309 39862 49866 52022 69901 77172 885// 333 11230 21300 56799 58109 85625 88650 90921 93197=
0165896640876012017071005554-77850+166667FM-15+002499999V0200401N00361015241CN009999199-02701-03301099091ADDGA1081+015241999GE19MSL   +99999+99999GF199999081999015241999999MA1099321098645MW1711REMMET068METAR NZCM 100555Z 04007KT 9999 -SN OVC050 M27/M33 A2933 RMK SLP909=
0242896640876012017071006004-77850+166667FM-12+002499999V0200401N00361015001CN011000199-02721-03321099091ADDAA106000021AL19900031AY171021AY231021GA1081+015001061GE19MSL   +99999+99999GF108991081999015001999999MA1099425099041MD1210221+9999MW1711REMSYN09489664 11761 80407 11272 21332 39904 49909 52022 69901 77173 885// 333 56799 88650 90973 93197=
0163896640876012017071011554-77850+166667FM-15+002499999V0209999C000019999999N009999199-03201-03601099541ADDGA1041+006101999GE19MSL   +99999+99999GF199999041999006101999999MA1099801099085REMMET072METAR NZCM 101155Z 00000KT 9999 SCT020 M32/M36 A2947 RMK SNE1000 SLP954=
0286896640876012017071012004-77850+166667FM-12+002499999V0209999C000012200019N011000199-03181-03651099541ADDAA112000021AL19900031AY171021AY211021GA1041+006001061GE19MSL   +99999+99999GF104991041999006001999999KA1240M-02411KA2240N-03231MA1099885099502MD1210191+9999MW1011REMSYN11289664 11561 40000 11318 21365 39950 49954 52019 69902 70171 84500 333 11241 21323 56700 58162 84620 90923 93197=
0155896640876012017071017554-77850+166667FM-15+002499999V0201001N00261073151CN009999199-02901-03401099851ADDGA1081+073151999GE19MSL   +99999+99999GF199999081999073151999999MA1100201099395REMMET064METAR NZCM 101755Z 10005KT 9999 OVC240 M29/M34 A2959 RMK SLP985=
0214896640876012017071018004-77850+166667FM-12+002499999V0201001N002610720019N011000199-02931-03361099851ADDAA118000021AL19900031GA1081+072001021GE19MSL   +99999+99999GF108991081999072001999999MA1100185099802MD1110111+9999REMSYN08889664 12961 81005 11293 21336 39980 49985 51011 69903 80007 333 56007 88274 90973 93197=
0177896640876012017071023554-77850+166667FM-15+002499999V0200901N01241014631CN002400199-03201-03701099981ADDGA1081+014631999GE19MSL   +99999+99999GF199999081999014631999999MA1100301099525MW1381OC101601REMMET072METAR NZCM 102355Z 09024G31KT 2400 BLSN OVC048 M32/M37 A2962 RMK SLP998=
0286896640876012017071100004-77850+166667FM-12+002499999V0200901N01241014401CN002400199-03191-03711099981ADDAA124000021AL19900031AY131021AY221021GA1081+014401061GE19MSL   +99999+99999GF108991081999014401999999KA1120M-02681KA2120N-03331MA1100315099932MD1110041+9999MW1381REMSYN11289664 12624 80924 11319 21371 39993 49998 51004 69904 73832 885// 333 11268 21333 56799 58131 88648 90983 93197=
0177896640876012017071105554-77850+166667FM-15+002499999V0200801N00621006101CN003200199-03101-03601100031ADDGA1081+006101999GE19MSL   +99999+99999GF199999081999006101999999MA1100371099575MW1381OC100931REMMET072METAR NZCM 110555Z 08012G18KT 3200 BLSN OVC020 M31/M36 A2964 RMK SLP003=
0203896640876012017071106004-77850+166667FM-12+002499999V0200801N00621006001CN003200199-03111-03581100031ADDAY131021AY231021GA1081+006001061GE19MSL   +99999+99999GF108991081999006001999999MA1100375099992MD1990011+9999MW1381REMSYN07689664 31532 80812 11311 21358 39999 40003 50001 73833 885// 333 56799 88620=
0227896640876012017071111554-77850+166667FM-15+002499999V0200501N00931004571CN000800199-03301-03801099771ADDGA1081+004571999GE19MSL   +99999+99999GF199999081999004571999999MA1100101099305MW1381MW2711OC101181OD149901541060REMMET102METAR NZCM 111155Z 05018G23KT 0800 -SN BLSN OVC015 M33/M38 A2956 RMK PK WND 06030/0903 SNB0700 SLP977=
0292896640876012017071112004-77850+166667FM-12+002499999V0200501N00931004501CN000800199-03311-03801099771ADDAA112000531AL19900531AY171021AY231021GA1081+004501071GE19MSL   +99999+99999GF108991081999004501999999KA1240M-03101KA2240N-03401MA1100115099732MD1610181+9999MW1711REMSYN11889664 11408 80518 11331 21380 39973 49977 56018 69952 77173 887// 333 11310 21340 56199 58023 88715 90963 93105 96038=
0202896640876012017071117554-77850+166667FM-15+002499999V0201401N01341001521WN000400199-03301-03801099361ADDGA1091+001521999GE19MSL   +99999+99999GF109991091999001521999999MA1099691098905MW1381MW2711OC102011REMMET091METAR NZCM 111755Z 14026G39KT 0400 -SN BLSN VV005 M33/M38 A2944 RMK PK WND 12040/41 SLP936=
0218896640876012017071123554-77850+166667FM-15+002499999V0201301N00881002741WN000400199-03301-03901099011ADDGA1091+002741999GE19MSL   +99999+99999GF109991091999002741999999MA1099361098555MW1381MW2711OC101651OD149903081140REMMET093METAR NZCM 112355Z 13017G32KT 0400 -SN BLSN VV009 M33/M39 A2934 RMK PK WND 14060/2147 SLP901=
0286896640876012017071200004-77850+166667FM-12+002499999V0201301N00881002701WN000400199-03331-03831099011ADDAA124051031AL19900531AY171021AY231021GA1091+002701999GE19MSL   +99999+99999GF109991091999002701999999KA1120M-03041KA2120N-03571MA1099345098962MD1610201+9999MW1711REMSYN11289664 11/04 91317 11333 21383 39896 49901 56020 60514 77173 333 01460 11304 21357 59097 89/09 90983 93105 96038=
0195896640876012017071205554-77850+166667FM-15+002499999V0209999V001519999999N009999199-03201-03701098531ADDGA1041+027431999GE19MSL   +99999+99999GF199999041999027431999999MA1098881098075OD149902411130REMMET090METAR NZCM 120555Z VRB03KT 9999 SCT090 M32/M37 A2920 RMK PK WND 13047/0107 SNE0230 SLP853=
0248896640876012017071206004-77850+166667FM-12+002499999V0209999V001512200019N011000199-03251-03741098531ADDAA106000021AL19900031AY171021AY231021GA1041+027001041GE19MSL   +99999+99999GF104991041999027001999999MA1098875098492MD1810151+9999MW1021REMSYN10089664 11961 49903 11325 21374 39849 49853 58015 69901 70273 84010 333 01347 56070 84459 90943 93197=
0173896640876012017071211554-77850+166667FM-15+002499999V0200401N00311007321CN006000199-03001-03401097961ADDGA1081+007321999GE19MSL   +99999+99999GF199999081999007321999999MA1098311097515MW1711REMMET076METAR NZCM 121155Z 04006KT 6000 -SN OVC024 M30/M34 A2903 RMK SNB0830 SLP796=
0286896640876012017071212004-77850+166667FM-12+002499999V0200401N00311007201CN006000199-02971-03421097961ADDAA112000021AL19900031AY171021AY211021GA1081+007201071GE19MSL   +99999+99999GF108991081999007201999999KA1240M-03001KA2240N-03301MA1098285097912MD1810371+9999MW1711REMSYN11289664 11556 80406 11297 21342 39791 49796 58037 69902 77171 887// 333 11300 21330 56799 59182 88724 90921 93197=
0155896640876012017071217554-77850+166667FM-15+002499999V0201001N00151006101CN009999199-03001-03401097581ADDGA1081+006101999GE19MSL   +99999+99999GF199999081999006101999999MA1097971097135REMMET064METAR NZCM 121755Z 10003KT 9999 OVC020 M30/M34 A2893 RMK SLP758=
0154896640876012017071223554-77850+166667FM-15+002499999V0201001N004619999999N009999199-03101-03501999999ADDGA1041+021341999GE19MSL   +99999+99999GF199999041999021341999999MA1097531999999REMMET063METAR NZCM 122355Z 10009KT 9999 SCT070 M31/M35 A2880 RMK SLPNO=
0252896640876012017071300004-77850+166667FM-12+002499999V0201001N004612200019N011000199-03081-03551097605ADDAA124000021AL19900031GA1041+021001031GE19MSL   +99999+99999GF104991041999021001999999KA1120M-02941KA2120N-03701MA1097525097151MD1810051+9999REMSYN10089664 12861 41009 11308 21355 39715 58005 69904 84030 333 11294 21370 56070 59181 84357 90973 93197=
0155896640876012017071305554-77850+166667FM-15+002499999V0200801N002619999999N009999199-03501-04001097491ADDGA1041+021341999GE19MSL   +99999+99999GF199999041999021341999999MA1097431097035REMMET064METAR NZCM 130555Z 08005KT 9999 SCT070 M35/M40 A2877 RMK SLP749=
0175896640876012017071306004-77850+166667FM-12+002499999V0200801N002612200019N011000199-03471-03991097491ADDGA1031+021001031GE19MSL   +99999+99999GF103991031999021001999999MA1097415097041MD1110051+9999REMSYN07089664 32861 30805 11347 21399 39704 49749 51005 83030 333 56070 83357=
0155896640876012017071311554-77850+166667FM-15+002499999V0209999C00001021341CN009999199-03401-04001097411ADDGA1071+021341999GE19MSL   +99999+99999GF199999071999021341999999MA1097321096955REMMET064METAR NZCM 131155Z 00000KT 9999 BKN070 M34/M40 A2874 RMK SLP741=
0213896640876012017071312004-77850+166667FM-12+002499999V0209999C00001021001CN011000199-03441-03971097411ADDGA1051+021001041GE19MSL   +99999+99999GF105991051999021001999999KA1240M-03331KA2240N-03781MA1097345096971MD1810011+9999REMSYN08289664 32861 50000 11344 21397 39697 49741 58001 85010 333 11333 21378 56030 85457=
0114896640876012017071317554-77850+166667FM-15+002499999V0209999C000012200019N009999199-03101-03501097311ADDGF100991999999999999999999MA1097221096865REMMET061METAR NZCM 131755Z 00000KT 9999 SKC M31/M35 A2871 RMK SLP731=
0089896640876012017071318004-77850+166667FM-12+002499999V0209999C000019999999N011000199-03101-03551097311ADDMA1097245096871MD1510041+9999REMSYN04889664 32961 00000 11310 21355 39687 49731 55004=
0155896640876012017071323554-77850+166667FM-15+002499999V0200701N001019999999N009999199-02901-03301097301ADDGA1021+024381999GE19MSL   +99999+99999GF199999021999024381999999MA1097221096855REMMET064METAR NZCM 132355Z 07002KT 9999 FEW080 M29/M33 A2871 RMK SLP730=
0219896640876012017071400004-77850+166667FM-12+002499999V0200701N001012200019N011000199-02911-03311097301ADDGA1021+024001031GE19MSL   +99999+99999GF102991021999024001999999KA1120M-02661KA2120N-03651MA1097235096861MD1310111+9999REMSYN08889664 32861 20702 11291 21331 39686 49730 53011 82030 333 11266 21365 56070 59029 82358=
0114896640876012017071405554-77850+166667FM-15+002499999V0200701N003612200019N009999199-02801-03301097701ADDGF100991999999999999999999MA1097631097255REMMET061METAR NZCM 140555Z 07007KT 9999 SKC M28/M33 A2883 RMK SLP770=
0089896640876012017071406004-77850+166667FM-12+002499999V0200701N003619999999N011000199-02841-03261097701ADDMA1097635097261MD1110261+9999REMSYN04889664 32961 00707 11284 21326 39726 49770 51026=
0114896640876012017071411554-77850+166667FM-15+002499999V0200401N001512200019N009999199-03001-03501098181ADDGF100991999999999999999999MA1098101097735REMMET061METAR NZCM 141155Z 04003KT 9999 SKC M30/M35 A2897 RMK SLP818=
0137896640876012017071412004-77850+166667FM-12+002499999V0200401N001519999999N011000199-03051-03511098181ADDKA1240M-02801KA2240N-03531MA1098105097731MD1110241+0761REMSYN07089664 32961 00403 11305 21351 39773 49818 51024 333 11280 21353 58076=
0114896640876012017071417554-77850+166667FM-15+002499999V0200501N006712200019N009999199-03201-03701098471ADDGF100991999999999999999999MA1098371098015REMMET061METAR NZCM 141755Z 05013KT 9999 SKC M32/M37 A2905 RMK SLP847=
0155896640876012017071423554-77850+166667FM-15+002499999V0200801N006219999999N009999199-03101-03601098661ADDGA1021+024381999GE19MSL   +99999+99999GF199999021999024381999999MA1098581098205REMMET064METAR NZCM 142355Z 08012KT 9999 FEW080 M31/M36 A2911 RMK SLP866=
0219896640876012017071500004-77850+166667FM-12+002499999V0200801N006212200019N011000199-03121-03601098661ADDGA1021+024001031GE19MSL   +99999+99999GF102991021999024001999999KA1120M-02831KA2120N-03511MA1098595098211MD1310131+9999REMSYN08889664 32861 20812 11312 21360 39821 49866 53013 82030 333 11283 21351 56070 58135 82358=
0122896640876012017071505554-77850+166667FM-15+002499999V0209999C000012200019N009999199-03701-04201098901ADDGF100991999999999999999999MA1098811098435REMMET069METAR NZCM 150555Z 00000KT 9999 SKC M37/M42 A2918 RMK ICB0430 SLP890=
0242896640876012017071506004-77850+166667FM-12+002499999V0209999C000012200019N011000199-03671-04201098901ADDAA106000021AL19900031AY171021AY201021GA1031+027001031GE19MSL   +99999+99999GF103991031999027001999999MA1098835098451MD1210241+9999MW1761REMSYN09489664 11961 30000 11367 21420 39845 49890 52024 69901 77670 83030 333 56070 83359 90921 93197=
0168896640876012017071511554-77850+166667FM-15+002499999V0209999C00001021341CN009999199-03101-03601099001ADDGA1081+021341999GE19MSL   +99999+99999GF199999081999021341999999MA1098921098545MW1761REMMET071METAR NZCM 151155Z COR 00000KT 9999 IC OVC070 M31/M36 A2921 RMK SLP900=
0286896640876012017071512004-77850+166667FM-12+002499999V0209999C00001021001CN011000199-03121-03601099001ADDAA112000021AL19900031AY171021AY271021GA1081+021001041GE19MSL   +99999+99999GF108991081999021001999999KA1240M-02831KA2240N-03471MA1098925098541MD1210071+9999MW1761REMSYN11289664 11861 80000 11312 21360 39854 49900 52007 69902 77677 8801/ 333 11283 21347 56039 58081 88457 90973 93197=
0168896640876012017071517554-77850+166667FM-15+002499999V0201001N00361021341CN009999199-03101-03501099131ADDGA1081+021341999GE19MSL   +99999+99999GF199999081999021341999999MA1099051098675MW1761REMMET071METAR NZCM 151755Z COR 10007KT 9999 IC OVC070 M31/M35 A2925 RMK SLP913=
0242896640876012017071518004-77850+166667FM-12+002499999V0201001N00361021001CN011000199-03081-03541099131ADDAA118000021AL19900031AY171021AY271021GA1081+021001041GE19MSL   +99999+99999GF108991081999021001999999MA1099055098671MD1310111+9999MW1761REMSYN09489664 11861 81007 11308 21354 39867 49913 53011 69903 77677 8801/ 333 56039 88457 90983 93197=
0186896640876012017071523554-77850+166667FM-15+002499999V0200301N005710365819N009999199-02401-02801099201ADDGA1021+021341999GA2071+036581999GE19MSL   +99999+99999GF199999021999021341999999MA1099121098755REMMET079METAR NZCM 152355Z 03011KT 9999 FEW070 BKN120 M24/M28 A2927 RMK ICE2100 SLP920=
0155896640876012017071605554-77850+166667FM-15+002499999V0209999V002119999999N009999199-02701-03101098961ADDGA1041+030481999GE19MSL   +99999+99999GF199999041999030481999999MA1099321098515REMMET064METAR NZCM 160555Z VRB04KT 9999 SCT100 M27/M31 A2933 RMK SLP896=
0175896640876012017071606004-77850+166667FM-12+002499999V0209999V002112200019N011000199-02701-03101098961ADDGA1041+090001041GE19MSL   +99999+99999GF104991041999090001999999MA1099792099412MD1990061+9999REMSYN07089664 32961 49904 11270 21310 39941 49896 50006 84010 333 56030 84480=
0114896640876012017071611554-77850+166667FM-15+002499999V0209999V002612200019N009999199-02801-03301099431ADDGF100991999999999999999999MA1099361098985REMMET061METAR NZCM 161155Z VRB05KT 9999 SKC M28/M33 A2934 RMK SLP943=
0099896640876012017071612004-77850+166667FM-12+002499999V0209999V002619999999N011000199-02841+99999999999REMSYN07189664 32961 09905 11284 211327 39897 49943 55001 333 11236 21290 58043=EQDQ01-13.2 2ATOD  
0114896640876012017071617554-77850+166667FM-15+002499999V0200201N001512200019N009999199-02901-03301099211ADDGF100991999999999999999999MA1099121098755REMMET061METAR NZCM 161755Z 02003KT 9999 SKC M29/M33 A2927 RMK SLP921=
0089896640876012017071618004-77850+166667FM-12+002499999V0200201N001519999999N011000199-02921-03351099211ADDMA1099145098761MD1710111+9999REMSYN04889664 32961 00203 11292 21335 39876 49921 57011=
0114896640876012017071623554-77850+166667FM-15+002499999V0209999C000012200019N009999199-03101-03501098991ADDGF100991999999999999999999MA1098921098535REMMET061METAR NZCM 162355Z 00000KT 9999 SKC M31/M35 A2921 RMK SLP899=
0137896640876012017071700004-77850+166667FM-12+002499999V0209999C000019999999N011000199-03061-03501098991ADDKA1120M-02821KA2120N-03141MA1098925098541MD1810111-0201REMSYN07089664 32961 00000 11306 21350 39854 49899 58011 333 11282 21314 59020=
0137896640876012017071705554-77850+166667FM-15+002499999V0200801N001012200019N009999199-02901-03301098881ADDGF100991999999999999999999MA1098811098435MW1761REMMET078METAR NZCM 170555Z 08002KT 9999 IC SKC M29/M33 A2918 RMK ICB0020 SLP888 AURBO=
0160896640876012017071706004-77850+166667FM-12+002499999V0200801N001019999999N011000199-02891-03331098881ADDAA106000021AL19900031AY171021AY201021MA1098805098421MD1610061+9999MW1761REMSYN07689664 11961 00802 11289 21333 39842 49888 56006 69901 77670 333 90962 93197=
0186896640876012017071711554-77850+166667FM-15+002499999V0200701N007219999999N009999199-02501-03001098831ADDGA1021+051821999GE19MSL   +99999+99999GF199999021999051821999999MA1098751098385MW1361MW2761OC101081REMMET075METAR NZCM 171155Z 07014G21KT 9999 IC DRSN FEW170 M25/M30 A2916 RMK SLP883=
0280896640876012017071712004-77850+166667FM-12+002499999V0200701N007212200019N011000199+99999+99999098831ADDAA112000021AL19900031AY171021AY271021GA1021+051001001GE19MSL   +99999+99999GF102991021999051001999999KA1240M-02541KA2240N-03281MA1098765098381MD1610081+9999MW1761REMSYN10689664 11961 20714 39838 49883 56008 69902 77677 80002 333 11254 21328 56007 59059 82067 90973 93197 96036=
0163896640876012017071717554-77850+166667FM-15+002499999V0209999V001519999999N009999199-02601-03001098731ADDGA1041+036581999GE19MSL   +99999+99999GF199999041999036581999999MA1098651098285REMMET072METAR NZCM 171755Z VRB03KT 9999 SCT120 M26/M30 A2913 RMK ICE1500 SLP873=
0242896640876012017071718004-77850+166667FM-12+002499999V0209999V001512200019N011000199-02651-03051098731ADDAA118000021AL19900031AY171021AY201021GA1041+036001041GE19MSL   +99999+99999GF104991041999036001999999MA1098665098281MD1610041+9999MW1021REMSYN09489664 11961 49903 11265 21305 39828 49873 56004 69903 70270 84010 333 56030 84462 90943 93197=
0161896640876012017071723554-77850+166667FM-15+002499999V0209999V002119999999N009999199-02801-03201098481ADDGA1021+036581999GE19MSL   +99999+99999GF199999021999036581999999MA1098411098035REMMET070METAR NZCM 172355Z VRB04KT 9999 FEW120 M28/M32 A2906 RMK SLP848 AURBO=
0258896640876012017071800004-77850+166667FM-12+002499999V0209999V002112200019N011000199-02801-03241098481ADDAA124000021AL19900031GA1011+036001031GE19MSL   +99999+99999GF101991011999036001999999KA1120M-02441KA2120N-03171MA1098405098031MD1810211+9999REMSYN10689664 12961 19904 11280 21324 39803 49848 58021 69904 81070 333 11244 21317 56030 59051 81362 90973 93197=
0114896640876012017071805554-77850+166667FM-15+002499999V0209999C000012200019N009999199-02901-03301097971ADDGF100991999999999999999999MA1097901097525REMMET061METAR NZCM 180555Z 00000KT 9999 SKC M29/M33 A2891 RMK SLP797=
0089896640876012017071806004-77850+166667FM-12+002499999V0209999C000019999999N011000199-02921-03341097971ADDMA1097905097531MD1710201+9999REMSYN04889664 32961 00000 11292 21334 39753 49797 57020=
0114896640876012017071811554-77850+166667FM-15+002499999V0209999C000012200019N009999199-02801-03201097601ADDGF100991999999999999999999MA1097531097155REMMET061METAR NZCM 181155Z 00000KT 9999 SKC M28/M32 A2880 RMK SLP760=
0137896640876012017071812004-77850+166667FM-12+002499999V0209999C000019999999N011000199-02781-03221097601ADDKA1240M-02491KA2240N-02971MA1097525097151MD1610221+9999REMSYN07089664 32961 00000 11278 21322 39715 49760 56022 333 11249 21297 59123=
0114896640876012017071817554-77850+166667FM-15+002499999V0209999C000012200019N009999199-02701-03101097291ADDGF100991999999999999999999MA1097221096855REMMET061METAR NZCM 181755Z 00000KT 9999 SKC M27/M31 A2871 RMK SLP729=
0089896640876012017071818004-77850+166667FM-12+002499999V0209999C000019999999N011000199-02661-03101097291ADDMA1097225096851MD1810101+9999REMSYN04889664 32961 00000 11266 21310 39685 49729 58010=
0114896640876012017071823554-77850+166667FM-15+002499999V0209999C000012200019N009999199-03001-03501097251ADDGF100991999999999999999999MA1097191096805REMMET061METAR NZCM 182355Z 00000KT 9999 SKC M30/M35 A2870 RMK SLP725=
0137896640876012017071900004-77850+166667FM-12+002499999V0209999C000019999999N011000199-02981-03461097251ADDKA1120M-02411KA2120N-03051MA1097185096811MD1110011+9999REMSYN07089664 32961 00000 11298 21346 39681 49725 51001 333 11241 21305 59122=
0125896640876012017071905554-77850+166667FM-15+002499999V0200901N006212200019N009999199-02301-02901097261ADDGF100991999999999999999999MA1097191096825OC101081REMMET064METAR NZCM 190555Z 09012G21KT 9999 SKC M23/M29 A2870 RMK SLP726=
0089896640876012017071906004-77850+166667FM-12+002499999V0200901N006219999999N011000199-02311-02901097261ADDMA1097205096831MD1310041+9999REMSYN04889664 32961 00912 11231 21290 39683 49726 53004=
0114896640876012017071911554-77850+166667FM-15+002499999V0200801N005712200019N009999199-02401-03201097381ADDGF100991999999999999999999MA1097291096945REMMET061METAR NZCM 191155Z 08011KT 9999 SKC M24/M32 A2873 RMK SLP738=
0137896640876012017071912004-77850+166667FM-12+002499999V0200801N005719999999N011000199-02361-03251097381ADDKA1240M-02301KA2240N-03071MA1097305096931MD1210021-0221REMSYN07089664 32961 00811 11236 21325 39693 49738 52002 333 11230 21307 59022=
0114896640876012017071917554-77850+166667FM-15+002499999V0209999C000012200019N009999199-02401-03201097321ADDGF100991999999999999999999MA1097261096885REMMET061METAR NZCM 191755Z 00000KT 9999 SKC M24/M32 A2872 RMK SLP732=
0089896640876012017071918004-77850+166667FM-12+002499999V0209999C000019999999N011000199-02391-03231097321ADDMA1097265096891MD1810081+9999REMSYN04889664 32961 00000 11239 21323 39689 49732 58008=
0166896640876012017071923554-77850+166667FM-15+002499999V0201301N00571030481CN009999199-02201-03201097651ADDGA1071+030481999GE19MSL   +99999+99999GF199999071999030481999999MA1097561097215OC100881REMMET067METAR NZCM 192355Z 13011G17KT 9999 BKN100 M22/M32 A2881 RMK SLP765=
0219896640876012017072000004-77850+166667FM-12+002499999V0201301N00571030001CN011000199-02201-03171097651ADDGA1071+030001031GE19MSL   +99999+99999GF107991071999030001999999KA1120M-02091KA2120N-02761MA1097585097211MD1310231+9999REMSYN08889664 32961 71311 11220 21317 39721 49765 53023 87070 333 11209 21276 56030 58040 87360=
0166896640876012017072005554-77850+166667FM-15+002499999V0200701N00511030481CN009999199-02101-03001097881ADDGA1081+030481999GE19MSL   +99999+99999GF199999081999030481999999MA1097801097455OC100821REMMET067METAR NZCM 200555Z 07010G16KT 9999 OVC100 M21/M30 A2888 RMK SLP788=
0199896640876012017072011554-77850+166667FM-15+002499999V0201401N01291011581CN004800199-01901-02401098261ADDGA1081+011581999GE19MSL   +99999+99999GF199999081999011581999999MA1098201097835MW1381MW2711OC101701REMMET088METAR NZCM 201155Z COR 14025G33KT 4800 -SN BLSN OVC038 M19/M24 A2900 RMK SNB0910 SLP826=
0219896640876012017072017554-77850+166667FM-15+002499999V0201601N01601001221CN000200199-02501-02901098651ADDGA1081+001221999GE19MSL   +99999+99999GF199999081999001221999999MA1098581098205MW1381MW2711OC101801OD149902471130REMMET094METAR NZCM 201755Z 16031G35KT 0200 -SN BLSN OVC004 M25/M29 A2911 RMK PK WND 13048/1628 SLP865=
0254896640876012017072018004-77850+166667FM-12+002499999V0201601N01601001201CN000200199-02521-02871098651ADDAA112000831AL19900231AY171021AY231021GA1081+001201071GE19MSL   +99999+99999GF108991081999001201999999MA1098595098211MD1990091+9999MW1711REMSYN10689664 11202 81631 11252 21287 39821 49865 50009 69982 77173 887// 333 01348 56299 88704 90973 93102 96038=
0219896640876012017072023554-77850+166667FM-15+002499999V0201701N00821002741CN000800199-01901-01901098571ADDGA1081+002741999GE19MSL   +99999+99999GF199999081999002741999999MA1098511098145MW1381MW2711OC101341OD149903031190REMMET094METAR NZCM 202355Z 17016G26KT 0800 -SN BLSN OVC009 M19/M19 A2909 RMK PK WND 19059/2102 SLP857=
0298896640876012017072100004-77850+166667FM-12+002499999V0201701N00821002701CN000800199-01901-01921098571ADDAA118001031AL19900631AY171021AY231021GA1081+002701061GE19MSL   +99999+99999GF108991081999002701999999KA1120M-01881KA2120N-02671MA1098515098131MD1990151+9999MW1711REMSYN12489664 11308 81716 11190 21192 39813 49857 50015 60013 77173 885// 333 01959 11188 21267 56299 58092 88609 90983 93106 96038=
0206896640876012017072105554-77850+166667FM-15+002499999V0201101N00771064011CN009999199-01501-01501097951ADDGA1071+064011999GE19MSL   +99999+99999GF199999071999064011999999MA1097901097525OC101391OD149901851160REMMET093METAR NZCM 210555Z 11015G27KT 9999 BKN210 M15/M15 A2891 RMK PK WND 16036/0204 SNE0050 SLP795=
0177896640876012017072111554-77850+166667FM-15+002499999V0201801N01291064011CN009999199-01701-02501097661ADDGA1081+064011999GE19MSL   +99999+99999GF199999081999064011999999MA1097601097235OC101851REMMET078METAR NZCM 211155Z 18025G36KT 9999 OVC210 M17/M25 A2882 RMK WSHFT 0935 SLP766=
0187896640876012017072117554-77850+166667FM-15+002499999V0201701N01241021341CN009999199-01401-01901097431ADDGA1081+021341999GE19MSL   +99999+99999GF199999081999021341999999MA1097391097015OD149902161190REMMET082METAR NZCM 211755Z 17024KT 9999 OVC070 M14/M19 A2876 RMK PK WND 19042/1429 SLP743=
0220896640876012017072118004-77850+166667FM-12+002499999V0201701N01241021001CN011000199-01391-01911097431ADDAA118000021AL19900031GA1081+021001041GE19MSL   +99999+99999GF108991081999021001999999MA1097375097001MD1610251+9999REMSYN09489664 12861 81724 11139 21191 39700 49743 56025 69903 8802/ 333 01942 56039 88457 90983 93197=
0226896640876012017072123554-77850+166667FM-15+002499999V0201401N01441002131WN000200199-02401-02401098011ADDGA1091+002131999GE19MSL   +99999+99999GF109991091999002131999999MA1097901097575MW1381MW2711OC101801OD149903031180REMMET101METAR NZCM 212355Z 14028G35KT 0200 -SN BLSN VV007 M24/M24 A2891 RMK PK WND 18059/2214 SNB1900 SLP801=
0286896640876012017072200004-77850+166667FM-12+002499999V0201401N01441002101WN000700199-02451-02451098011ADDAA124000331AL19900131AY171021AY231021GA1091+002101999GE19MSL   +99999+99999GF109991091999002101999999KA1120M-01361KA2120N-02511MA1097945097571MD1310551-0561MW1711REMSYN11289664 11/07 91428 11245 21245 39757 49801 53055 69934 77173 333 01859 11136 21251 59056 89/07 90962 93101 96038=
0229896640876012017072205554-77850+166667FM-15+002499999V0200701N00931006101WN000200199-03101-03601098901ADDGA1091+006101999GE19MSL   +99999+99999GF109991091999006101999999MA1098852098445MW1381MW2711OC101651OD149902311170REMMET104METAR NZCM 220555Z 07018G32KT 0200 -SN BLSN VV020 M31/M36 A2919 RMK PK WND 17045/0152 WSHFT 0450 SLP890=
0194896640876012017072211554-77850+166667FM-15+002499999V0200401N00771012191CN006000199-02601-03001098831ADDGA1071+012191999GE19MSL   +99999+99999GF199999071999012191999999MA1098751098385MW1711OC101291REMMET089METAR NZCM 221155Z 04015G25KT 6000 -SN BKN040 M26/M30 A2916 RMK PK WND 06034/0813 SLP883=
0292896640876012017072212004-77850+166667FM-12+002499999V0200401N00771012001CN006000199-02601-02981098831ADDAA112000331AL19900231AY171021AY231021GA1071+012001061GE19MSL   +99999+99999GF107991071999012001999999KA1240M-02231KA2240N-03181MA1098755098371MD1110061+9999MW1711REMSYN11889664 11656 70415 11260 21298 39837 49883 51006 69932 77173 87500 333 00634 11223 21318 56300 58115 87640 90983 93102=
0176896640876012017072217554-77850+166667FM-15+002499999V0200601N011812200019N006000199-03101-03601099651ADDGF100991999999999999999999MA1099561099195MW1381OC101441OD149901751050REMMET095METAR NZCM 221755Z 06023G28KT 6000 BLSN SKC M31/M36 A2940 RMK PK WND 05034/1712 SNE1500 SLP965=
0166896640876012017072218004-77850+166667FM-12+002499999V0200601N011819999999N006000199-03111-03561099651ADDAA118000331AL19900231AY171021AY231021MA1099575099191MD1310211+9999MW1381REMSYN08289664 11956 00623 11311 21356 39919 49965 53021 69933 73873 333 00534 90933 93102=
0205896640876012017072223554-77850+166667FM-15+002499999V0209999V003119999999N004000199-02301-02601100201ADDGA1041+004571999GE19MSL   +99999+99999GF199999041999004571999999MA1100141099755MW1711OD149901801050REMMET094METAR NZCM 222355Z VRB06KT 4000 -SN SCT015 M23/M26 A2957 RMK PK WND 05035/1852 SNB2130 SLP020=
0292896640876012017072300004-77850+166667FM-12+002499999V0209999V003112200019N004000199-02331-02611100201ADDAA124000331AL19900231AY171021AY231021GA1041+004501061GE19MSL   +99999+99999GF104991041999004501999999KA1120M-02331KA2120N-03191MA1100135099751MD1110261+9999MW1711REMSYN11889664 11440 49906 11233 21261 39975 40020 51026 69934 77173 84500 333 00535 11233 21319 56300 58218 84615 90931 93102=
0180896640876012017072305554-77850+166667FM-15+002499999V0200801V00411009141CN009999199-01901-01901100281ADDGA1081+009141999GE19MSL   +99999+99999GF199999081999009141999999MA1100201099845MW1711REMMET083METAR NZCM 230555Z 08008KT 040V110 9999 -SN OVC030 M19/M19 A2959 RMK PRESRR SLP028=
0242896640876012017072306004-77850+166667FM-12+002499999V0200801N00411009001CN011000199-01861-01891100281ADDAA106000021AL19900031AY171021AY271021GA1081+009001061GE19MSL   +99999+99999GF108991081999009001999999MA1100205099821MD1310101+9999MW1711REMSYN09489664 11561 80808 11186 21189 39982 40028 53010 69901 77177 885// 333 56399 88630 90973 93197=
0226896640876012017072311554-77850+166667FM-15+002499999V0200601N01291018291CN003200199-03001-03301100921ADDGA1081+018291999GE19MSL   +99999+99999GF199999081999018291999999MA1100881100465MW1381MW2711OC101601OD149902051150REMMET101METAR NZCM 231155Z 06025G31KT 3200 -SN BLSN OVC060 M30/M33 A2979 RMK PK WND 15040/0831 PRESRR SLP092=
0298896640876012017072312004-77850+166667FM-12+002499999V0200601N01291018001CN003200199-02991-03281100921ADDAA112000331AL19900231AY171021AY231021GA1081+018001061GE19MSL   +99999+99999GF108991081999018001999999KA1240M-01791KA2240N-03121MA1100875100491MD1310341+9999MW1711REMSYN12489664 11732 80625 11299 21328 30049 40092 53034 69932 77173 885// 333 01540 11179 21312 56399 58212 88656 90983 93102 96038=
0219896640876012017072317554-77850+166667FM-15+002499999V0200501N01131006101CN000200199-02501-02901100951ADDGA1081+006101999GE19MSL   +99999+99999GF199999081999006101999999MA1100881100495MW1381MW2711OC101491OD149902211060REMMET094METAR NZCM 231755Z 05022G29KT 0200 -SN BLSN OVC020 M25/M29 A2979 RMK PK WND 06043/1327 SLP095=
0254896640876012017072318004-77850+166667FM-12+002499999V0200501N01131006001CN000200199-02551-02911100951ADDAA118000331AL19900231AY171021AY231021GA1081+006001071GE19MSL   +99999+99999GF108991081999006001999999MA1100875100491MD1810031+9999MW1711REMSYN10689664 11502 80522 11255 21291 30049 40095 58003 69933 77173 887// 333 00643 56299 88720 90983 93102 96038=
0219896640876012017072323554-77850+166667FM-15+002499999V0200701N00621011581CN004000199-02201-02301100741ADDGA1081+011581999GE19MSL   +99999+99999GF199999081999011581999999MA1100641100295MW1381MW2711OC100931OD149901691050REMMET094METAR NZCM 232355Z 07012G18KT 4000 -SN BLSN OVC038 M22/M23 A2972 RMK PK WND 05033/1814 SLP074=
0298896640876012017072400004-77850+166667FM-12+002499999V0200701N00621011401CN004000199-02231-02261100741ADDAA124000331AL19900231AY171021AY231021GA1081+011401061GE19MSL   +99999+99999GF108991081999011401999999KA1120M-02101KA2120N-03391MA1100665100281MD1610121+9999MW1711REMSYN12489664 11640 80712 11223 21226 30028 40074 56012 69934 77173 885// 333 00533 11210 21339 56299 58053 88638 90983 93102 96038=
0219896640876012017072405554-77850+166667FM-15+002499999V0200501N00881007921CN000800199-02201-02201100401ADDGA1081+007921999GE19MSL   +99999+99999GF199999081999007921999999MA1100341099955MW1381MW2711OC101291OD149901441030REMMET094METAR NZCM 240555Z 05017G25KT 0800 -SN BLSN OVC026 M22/M22 A2963 RMK PK WND 03028/0421 SLP040=
0248896640876012017072406004-77850+166667FM-12+002499999V0200501N00881007801CN000800199-02221-02221100401ADDAA106000021AL19900031AY171021AY231021GA1081+007801061GE19MSL   +99999+99999GF108991081999007801999999MA1100335099951MD1510071+9999MW1711REMSYN10089664 11508 80517 11222 21222 39995 40040 55007 69901 77173 885// 333 56299 88626 90983 93197 96038=
0174896640876012017072411554-77850+166667FM-15+002499999V0200701N00821018291CN009999199-02101-02101100211ADDGA1071+018291999GE19MSL   +99999+99999GF199999071999018291999999MA1100141099765OC101081REMMET075METAR NZCM 241155Z 07016G21KT 9999 BKN060 M21/M21 A2957 RMK SNE0945 SLP021=
0286896640876012017072412004-77850+166667FM-12+002499999V0200701N00821018001CN011000199-02061-02061100211ADDAA112000021AL19900131AY171021AY231021GA1071+018001061GE19MSL   +99999+99999GF107991071999018001999999KA1240M-01971KA2240N-02361MA1100145099761MD1810071+9999MW1021REMSYN11289664 11761 70716 11206 21206 39976 40021 58007 69902 70273 87500 333 11197 21236 56200 59073 87656 90933 93101=
0155896640876012017072417554-77850+166667FM-15+002499999V0200701N00211022861CN009999199-02201-02201100091ADDGA1081+022861999GE19MSL   +99999+99999GF199999081999022861999999MA1100031099645REMMET064METAR NZCM 241755Z 07004KT 9999 OVC075 M22/M22 A2954 RMK SLP009=
0214896640876012017072418004-77850+166667FM-12+002499999V0200701N00211021001CN011000199-02221-02221100091ADDAA118000021AL19900131GA1081+021001041GE19MSL   +99999+99999GF108991081999021001999999MA1100035099651MD1610091+9999REMSYN08889664 12861 80704 11222 21222 39965 40009 56009 69903 8801/ 333 56039 88457 90973 93101=
0195896640876012017072423554-77850+166667FM-15+002499999V0200701N01031021341CN009999199-02301-02501099831ADDGA1071+021341999GE19MSL   +99999+99999GF199999071999021341999999MA1099761099385MW1361OC101391REMMET090METAR NZCM 242355Z 07020G27KT 9999 DRSN BKN070 M23/M25 A2946 RMK PK WND 06028/2106 SLP983=
0286896640876012017072500004-77850+166667FM-12+002499999V0200701N01031021001CN011000199-02311-02531099831ADDAA124000021AL19900131AY121021AY221021GA1071+021001031GE19MSL   +99999+99999GF107991071999021001999999KA1120M-02061KA2120N-02451MA1099765099381MD1610111+9999MW1361REMSYN11289664 11861 70720 11231 21253 39938 49983 56011 69904 73622 87070 333 11206 21245 56030 59090 87357 90983 93101=
0159896640876012017072505554-77850+166667FM-15+002499999V0200901N007219999999N009999199-02501-02801099671ADDGA1021+018291999GE19MSL   +99999+99999GF199999021999018291999999MA1099591099225REMMET068METAR NZCM 250555Z COR 09014KT 9999 FEW060 M25/M28 A2941 RMK SLP967=
0175896640876012017072506004-77850+166667FM-12+002499999V0200901N007212200019N011000199-02511-02841099671ADDGA1021+018001061GE19MSL   +99999+99999GF102991021999018001999999MA1099605099221MD1810061+9999REMSYN07089664 32761 20914 11251 21284 39922 49967 58006 82500 333 56300 82656=
0198896640876012017072511554-77850+166667FM-15+002499999V0200401N00881016761CN009999199-02501-02901099561ADDGA1081+016761999GE19MSL   +99999+99999GF199999081999016761999999MA1099491099115MW1361OD149901541060REMMET087METAR NZCM 251155Z 04017KT 9999 DRSN OVC055 M25/M29 A2938 RMK PK WND 06030/0920 SLP956=
0238896640876012017072517554-77850+166667FM-15+002499999V0201301N01131012191CN000200199-02501-02901099561ADDGA1081+012191999GE19MSL   +99999+99999GF199999081999012191999999MA1099491099115MW1381MW2711OC101651OD149902111140REMMET113METAR NZCM 251755Z 13022G32KT 0200 -SN BLSN OVC040 M25/M29 A2938 RMK PK WND 14041/1651 WSHFT 1300 SNB1430 SLP956=
0218896640876012017072523554-77850+166667FM-15+002499999V0201301N01081000911WN000200199-02501-02801099521ADDGA1091+000911999GE19MSL   +99999+99999GF109991091999000911999999MA1099461099075MW1381MW2711OC101851OD149901951150REMMET093METAR NZCM 252355Z 13021G36KT 0200 -SN BLSN VV003 M25/M28 A2937 RMK PK WND 15038/2239 SLP952=
0286896640876012017072600004-77850+166667FM-12+002499999V0201301N01081000901WN000200199-02461-02811099521ADDAA112000021AL19900031AY171021AY231021GA1091+000901999GE19MSL   +99999+99999GF109991091999000901999999KA1120M-02401KA2120N-02701MA1099445099061MD1810051-0321MW1711REMSYN11289664 11/02 91321 11246 21281 39906 49952 58005 69902 77173 333 01538 11240 21270 59032 89/03 90973 93197 96038=
0194896640876012017072605554-77850+166667FM-15+002499999V0201101N00511019811CN009999199-02301-02601099341ADDGA1081+019811999GE19MSL   +99999+99999GF199999081999019811999999MA1099291098905MW1711OC101341REMMET089METAR NZCM 260555Z 11010G26KT 9999 -SN OVC065 M23/M26 A2932 RMK PK WND 14045/0140 SLP934=
0248896640876012017072606004-77850+166667FM-12+002499999V0201101N00511018001CN011000199-02311-02611099341ADDAA106000021AL19900131AY171021AY231021GA1081+018001061GE19MSL   +99999+99999GF108991081999018001999999MA1099275098891MD1610211+9999MW1711REMSYN10089664 11761 81110 11231 21261 39889 49934 56021 69901 77173 885// 333 01445 56199 88656 90983 93101=
0192896640876012017072611554-77850+166667FM-15+002499999V0201601N01651027431CN001600199-01901-01901098661ADDGA1081+027431999GE19MSL   +99999+99999GF199999081999027431999999MA1098611098235MW1381OC102011REMMET087METAR NZCM 261155Z 16032G39KT 1600 BLSN OVC090 M19/M19 A2912 RMK SNE0615 PRESFR SLP866=
0220896640876012017072617554-77850+166667FM-15+002499999V0201701N016010274319N000200199-01801-02101098121ADDGA1041+004571999GA2081+027431999GE19MSL   +99999+99999GF199999041999004571999999MA1098071097695MW1381MW2711OC102211REMMET093METAR NZCM 261755Z COR 17031G43KT 0200 -SN BLSN SCT015 OVC090 M18/M21 A2896 RMK SNB55 SLP812=
0276896640876012017072618004-77850+166667FM-12+002499999V0201701N016010270019N000200199-01781-02131098121ADDAA118000021AL19900131AY131021AY221021GA1041+004501071GA2081+027001041GE19MSL   +99999+99999GF108991041999004501999999MA1098055097681MD1810381+9999MW1711REMSYN11289664 11402 81731 11178 21213 39768 49812 58038 69903 77132 8472/ 333 01743 56229 84715 88459 90910 93101 96038=
0228896640876012017072623554-77850+166667FM-15+002499999V0200901N00621003051CN000800199-01901-01901098351ADDGA1081+003051999GE19MSL   +99999+99999GF199999081999003051999999MA1098311097925MW1381MW2711OC101601OD149902621170REMMET103METAR NZCM 262355Z 09012G31KT 0800 -SN BLSN OVC010 M19/M19 A2903 RMK PK WND 17051/1823 WSHFT 07 SLP835=
0206896640876012017072705554-77850+166667FM-15+002499999V0201201N00461057911CN009999199-01601-01601097941ADDGA1071+057911999GE19MSL   +99999+99999GF199999071999057911999999MA1097871097515OC100821OD149901331060REMMET093METAR NZCM 270555Z 12009G16KT 9999 BKN190 M16/M16 A2890 RMK PK WND 06026/0140 SNE0230 SLP794=
0261896640876012017072706004-77850+166667FM-12+002499999V0201201N004610570019N011000199-01641-01651097941ADDAA106000091AL19900031AY171021AY231021GA1071+057001021GE19MSL   +99999+99999GF107991071999057001999999MA1097875097501MD1610211+9999MW1021REMSYN09489664 11961 71209 11164 21165 39750 49794 56021 69901 70273 80008 333 56002 87269 90943 93197=EQDQ01  00002PRCP06
0155896640876012017072711554-77850+166667FM-15+002499999V0209999C000019999999N009999199-01701-01701097561ADDGA1041+048771999GE19MSL   +99999+99999GF199999041999048771999999MA1097491097135REMMET064METAR NZCM 271155Z 00000KT 9999 SCT160 M17/M17 A2879 RMK SLP756=
0277896640876012017072712004-77850+166667FM-12+002499999V0209999C000012200019N011000199-01691-01711097561ADDAA112000091AL19900031GA1031+048001021GE19MSL   +99999+99999GF103991031999048001999999KA1240M-01461KA2240N-01961MA1097495097121MD1610141+9999REMSYN10689664 12961 30000 11169 21171 39712 49756 56014 69902 80008 333 11146 21196 56002 59110 83266 90973 93197=EQDQ01  00002PRCP12
0155896640876012017072717554-77850+166667FM-15+002499999V0200501N00511030481CN009999199-01401-01401097461ADDGA1081+030481999GE19MSL   +99999+99999GF199999081999030481999999MA1097391097045REMMET064METAR NZCM 271755Z 05010KT 9999 OVC100 M14/M14 A2876 RMK SLP746=
0233896640876012017072718004-77850+166667FM-12+002499999V0200501N00511030001CN011000199-01451-01451097461ADDAA118000091AL19900031GA1081+030001041GE19MSL   +99999+99999GF108991081999030001999999MA1097405097031MD1810171+9999REMSYN08889664 12961 80510 11145 21145 39703 49746 58017 69903 8802/ 333 56029 88460 90983 93197=EQDQ01  00002PRCP18
0173896640876012017072723554-77850+166667FM-15+002499999V0200901N00361009141CN009999199-01401-01401097731ADDGA1081+009141999GE19MSL   +99999+99999GF199999081999009141999999MA1097701097315MW1711REMMET076METAR NZCM 272355Z 09007KT 9999 -SN OVC030 M14/M14 A2885 RMK SNB2130 SLP773=
0286896640876012017072800004-77850+166667FM-12+002499999V0200901N00361009001CN011000199-01411-01411097731ADDAA124000531AL19900231AY171021AY221021GA1081+009001061GE19MSL   +99999+99999GF108991081999009001999999KA1120M-01351KA2120N-01811MA1097685097311MD1310061+9999MW1711REMSYN11289664 11561 80907 11141 21141 39731 49773 53006 69954 77172 885// 333 11135 21181 56299 59060 88630 90931 93102=
0206896640876012017072805554-77850+166667FM-15+002499999V0200301N00671030481CN009999199-01601-01901097831ADDGA1071+030481999GE19MSL   +99999+99999GF199999071999030481999999MA1097761097405OC100881OD149901331160REMMET093METAR NZCM 280555Z 03013G17KT 9999 BKN100 M16/M19 A2887 RMK PK WND 16026/0329 SNE0300 SLP783=
0173896640876012017072811554-77850+166667FM-15+002499999V0201101N00361016761CN008000199-01401-01401097821ADDGA1081+016761999GE19MSL   +99999+99999GF199999081999016761999999MA1097761097405MW1711REMMET076METAR NZCM 281155Z 11007KT 8000 -SN OVC055 M14/M14 A2887 RMK SNB0845 SLP782=
0165896640876012017072817554-77850+166667FM-15+002499999V0201601N006212200019N009999199-01701-01701097851ADDGF100991999999999999999999MA1097801097425OC100771OD149901491190REMMET090METAR NZCM 281755Z 16012G15KT 9999 SKC M17/M17 A2888 RMK PK WND 19029/1400 SNE1430 SLP785=
0155896640876012017072823554-77850+166667FM-15+002499999V0209999V00151009751CN009999199-02001-02001097681ADDGA1071+009751999GE19MSL   +99999+99999GF199999071999009751999999MA1097631097255REMMET064METAR NZCM 282355Z VRB03KT 9999 BKN032 M20/M20 A2883 RMK SLP768=
0258896640876012017072900004-77850+166667FM-12+002499999V0209999V00151009601CN011000199-02021-02021097681ADDAA124000331AL19900231GA1061+009601061GE19MSL   +99999+99999GF106991061999009601999999KA1120M-01421KA2120N-02131MA1097615097241MD1810091+9999REMSYN10689664 12561 69903 11202 21202 39724 49768 58009 69934 86500 333 11142 21213 56200 59007 86632 90972 93102=
0177896640876012017072905554-77850+166667FM-15+002499999V0200701N00881005791CN009999199-02101-02601097421ADDGA1081+005791999GE19MSL   +99999+99999GF199999081999005791999999MA1097361096995MW1361OC101131REMMET072METAR NZCM 290555Z 07017G22KT 9999 DRSN OVC019 M21/M26 A2875 RMK SLP742=
0203896640876012017072906004-77850+166667FM-12+002499999V0200701N00881005701CN011000199-02131-02581097421ADDAY121021AY221021GA1081+005701061GE19MSL   +99999+99999GF108991081999005701999999MA1097365096991MD1610091+9999MW1361REMSYN07689664 31461 80717 11213 21258 39699 49742 56009 73622 885// 333 56799 88619=
0195896640876012017072911554-77850+166667FM-15+002499999V0200901N01081007011CN009999199-02501-02901097361ADDGA1081+007011999GE19MSL   +99999+99999GF199999081999007011999999MA1097291096925MW1361OC101341REMMET090METAR NZCM 291155Z 09021G26KT 9999 DRSN OVC023 M25/M29 A2873 RMK PK WND 10027/1014 SLP736=
0247896640876012017072912004-77850+166667FM-12+002499999V0200901N01081009601CN011000199-02471-02951097361ADDAY121021AY221021GA1081+009601061GE19MSL   +99999+99999GF108991081999009601999999KA1240M-01681KA2240N-02481MA1097295096921MD1310011+9999MW1361REMSYN09489664 31561 80921 11247 21295 39692 49736 53001 73622 885// 333 11168 21248 56799 59048 88632=
0195896640876012017072917554-77850+166667FM-15+002499999V0200901N01131011281CN009999199-02601-03101097351ADDGA1081+011281999GE19MSL   +99999+99999GF199999081999011281999999MA1097291096915MW1361OC101341REMMET090METAR NZCM 291755Z 09022G26KT 9999 DRSN OVC037 M26/M31 A2873 RMK PK WND 08031/1255 SLP735=
0203896640876012017072918004-77850+166667FM-12+002499999V0200901N01131011101CN011000199-02591-03091097351ADDAY121021AY221021GA1081+011101061GE19MSL   +99999+99999GF108991081999011101999999MA1097285096911MD1310071+9999MW1361REMSYN07689664 31661 80922 11259 21309 39691 49735 53007 73622 885// 333 56799 88637=
0227896640876012017072923554-77850+166667FM-15+002499999V0200601N00931009141CN004800199-02701-03101097721ADDGA1071+009141999GE19MSL   +99999+99999GF199999071999009141999999MA1097661097285MW1381MW2711OC101241OD149901541090REMMET102METAR NZCM 292355Z 06018G24KT 4800 -SN BLSN BKN030 M27/M31 A2884 RMK PK WND 09030/1918 SNB1850 SLP772=
0292896640876012017073000004-77850+166667FM-12+002499999V0200601N00931009001CN004800199-02691-03131097721ADDAA106000021AL19900031AY171021AY221021GA1061+009001061GE19MSL   +99999+99999GF106991061999009001999999KA1120M-02481KA2120N-02701MA1097645097271MD1110101+9999MW1711REMSYN11889664 11548 60618 11269 21313 39727 49772 51010 69901 77172 86500 333 11248 21270 56700 58003 86630 90962 93197 96038=
0194896640876012017073005554-77850+166667FM-15+002499999V0200701N007719999999N009999199-02601-03101098011ADDGA1041+015241999GE19MSL   +99999+99999GF199999041999015241999999MA1097931097575MW1361MW2711REMMET091METAR NZCM 300555Z 07015KT 9999 -SN DRSN SCT050 M26/M31 A2892 RMK PK WND 05029/0250 SLP801=
0286896640876012017073006004-77850+166667FM-12+002499999V0201101N004612200019N011000199-02521-03301098381ADDAA112000021AL19900031AY111021AY211021GA1021+015001061GE19MSL   +99999+99999GF102991021999015001999999KA1240M-02451KA2240N-02641MA1098305097931MD1110131+9999MW1021REMSYN11289664 11761 21109 11252 21330 39793 49838 51013 69902 70211 82500 333 11245 21264 56700 58101 82650 90963 93197=
0163896640876012017073011554-77850+166667FM-15+002499999V0201101N004619999999N009999199-02501-03301098381ADDGA1021+016761999GE19MSL   +99999+99999GF199999021999016761999999MA1098311097945REMMET072METAR NZCM 301155Z 11009KT 9999 FEW055 M25/M33 A2903 RMK SNE0630 SLP838=
0168896640876012017073017554-77850+166667FM-15+002499999V0201601N011812200019N003200199-02601-03101098631ADDGF100991999999999999999999MA1098541098185MW1381OC101491OD149901541160REMMET087METAR NZCM 301755Z 16023G29KT 3200 BLSN SKC M26/M31 A2910 RMK PK WND 16030/1703 SLP863=
0160896640876012017073018004-77850+166667FM-12+002499999V0201601N011819999999N003200199-02631-03121098631ADDAA118000021AL19900031AY131021AY201021MA1098565098181MD1310101+9999MW1381REMSYN07689664 11932 01623 11263 21312 39818 49863 53010 69903 73830 333 90973 93197=
0204896640876012017073023554-77850+166667FM-15+002499999V0200701N003619999999N009999199-02601-03201098801ADDGA1021+006101999GE19MSL   +99999+99999GF199999021999006101999999MA1098711098355MW1761OD149901541170REMMET093METAR NZCM 302355Z 07007KT 9999 IC FEW020 M26/M32 A2915 RMK PK WND 17030/1756 ICB2200 SLP880=
0122896640876012017073105554-77850+166667FM-15+002499999V0209999C000012200019N009999199-02901-03401098631ADDGF100991999999999999999999MA1098541098185REMMET069METAR NZCM 310555Z 00000KT 9999 SKC M29/M34 A2910 RMK ICE0115 SLP863=
0179896640876012017073106004-77850+166667FM-12+002499999V0209999C000019999999N011000199-02921-03371098631ADDAA106000091AL19900031AY171021AY201021MA1098565098181MD1610091+9999MW1021REMSYN07689664 11961 00000 11292 21337 39818 49863 56009 69901 70270 333 90952 93197=EQDQ01  00002PRCP06
0114896640876012017073111554-77850+166667FM-15+002499999V0209999C000012200019N009999199-02801-03201098581ADDGF100991999999999999999999MA1098511098135REMMET061METAR NZCM 311155Z 00000KT 9999 SKC M28/M32 A2909 RMK SLP858=
0195896640876012017073112004-77850+166667FM-12+002499999V0209999C000019999999N011000199-02791-03241098581ADDAA112000091AL19900031KA1240M-02641KA2240N-02971MA1098515098131MD1510011+0201REMSYN08889664 12961 00000 11279 21324 39813 49858 55001 69902 333 11264 21297 58020 90972 93197=EQDQ01  00002PRCP12
0114896640876012017073117554-77850+166667FM-15+002499999V0200401N001512200019N009999199-02901-03401098671ADDGF100991999999999999999999MA1098581098225REMMET061METAR NZCM 311755Z 04003KT 9999 SKC M29/M34 A2911 RMK SLP867=
0151896640876012017073118004-77850+166667FM-12+002499999V0200401N001519999999N011000199-02881-03361098671ADDAA118000091AL19900031MA1098605098221MD1110071+9999REMSYN07089664 12961 00403 11288 21336 39822 49867 51007 69903 333 90982 93197=EQDQ01  00002PRCP18
0114896640876012017073123554-77850+166667FM-15+002499999V0209999C000012200019N009999199-03101-03601098611ADDGF100991999999999999999999MA1098541098155REMMET061METAR NZCM 312355Z 00000KT 9999 SKC M31/M36 A2910 RMK SLP861=
0195896640876012017080100004-77850+166667FM-12+002499999V0209999C000019999999N011000199-03151-03611098611ADDAA124000091AL19900031KA1120M-02851KA2120N-03281MA1098545098161MD1610051-0191REMSYN08889664 12961 00000 11315 21361 39816 49861 56005 69904 333 11285 21328 59019 90982 93197=EQDQ01  00002PRCP24
0114896640876012017080105554-77850+166667FM-15+002499999V0200401N001012200019N009999199-02901-03301098341ADDGF100991999999999999999999MA1098271097895REMMET061METAR NZCM 010555Z 04002KT 9999 SKC M29/M33 A2902 RMK SLP834=
0089896640876012017080106004-77850+166667FM-12+002499999V0200401N001019999999N011000199-02861-03351098341ADDMA1098265097891MD1610151+9999REMSYN04889664 32961 00402 11286 21335 39789 49834 56015=
0114896640876012017080111554-77850+166667FM-15+002499999V0209999C000012200019N009999199-02901-03301098211ADDGF100991999999999999999999MA1098141097765REMMET061METAR NZCM 011155Z 00000KT 9999 SKC M29/M33 A2898 RMK SLP821=
0137896640876012017080112004-77850+166667FM-12+002499999V0209999C000019999999N011000199-02881-03351098211ADDKA1240M-02801KA2240N-03141MA1098145097771MD1710061-0361REMSYN07089664 32961 00000 11288 21335 39777 49821 57006 333 11280 21314 59036=
0114896640876012017080117554-77850+166667FM-15+002499999V0209999C000012200019N009999199-03101-03501098171ADDGF100991999999999999999999MA1098101097725REMMET061METAR NZCM 011755Z 00000KT 9999 SKC M31/M35 A2897 RMK SLP817=
0089896640876012017080118004-77850+166667FM-12+002499999V0209999C000019999999N011000199-03081-03511098171ADDMA1098105097731MD1310011+9999REMSYN04889664 32961 00000 11308 21351 39773 49817 53001=
0131896640876012017080123554-77850+166667FM-15+002499999V0209999C000012200019N009999199-02901-03301098241ADDGF100991999999999999999999MA1098171097795MW1761REMMET072METAR NZCM 012355Z 00000KT 9999 IC SKC M29/M33 A2899 RMK ICB2240 SLP824=
0204896640876012017080200004-77850+166667FM-12+002499999V0209999C000019999999N011000199-02881-03301098241ADDAA106000021AL19900031AY171021AY201021KA1120M-02781KA2120N-03201MA1098165097791MD1410001-0371MW1761REMSYN09489664 11961 00000 11288 21330 39779 49824 54000 69901 77670 333 11278 21320 59037 90921 93197=
0123896640876012017080205554-77850+166667FM-15+002499999V0209999C000012200019N009999199-02901-03301098291ADDGF100991999999999999999999MA1098201097845MW1761REMMET064METAR NZCM 020555Z 00000KT 9999 IC SKC M29/M33 A2900 RMK SLP829=
0160896640876012017080206004-77850+166667FM-12+002499999V0209999C000019999999N011000199-02871-03281098291ADDAA106000021AL19900031AY171021AY271021MA1098215097841MD1810021+9999MW1761REMSYN07689664 11961 00000 11287 21328 39784 49829 58002 69901 77677 333 90973 93197=
0122896640876012017080211554-77850+166667FM-15+002499999V0200801N002612200019N009999199-02801-03201098241ADDGF100991999999999999999999MA1098171097795REMMET069METAR NZCM 021155Z 08005KT 9999 SKC M28/M32 A2899 RMK ICE0800 SLP824=
0204896640876012017080212004-77850+166667FM-12+002499999V0200801N002619999999N011000199-02771-03171098241ADDAA112000021AL19900031AY171021AY201021KA1240M-02651KA2240N-03001MA1098165097791MD1610041+0021MW1021REMSYN09489664 11961 00805 11277 21317 39779 49824 56004 69902 70270 333 11265 21300 58002 90953 93197=
0125896640876012017080217554-77850+166667FM-15+002499999V0200801N003612200019N009999199-02701-03201098231ADDGF100991999999999999999999MA1098171097785MW1401REMMET066METAR NZCM 021755Z 08007KT 9999 VCFG SKC M27/M32 A2899 RMK SLP823=
0160896640876012017080218004-77850+166667FM-12+002499999V0200801N003619999999N011000199-02731-03211098231ADDAA118000021AL19900031AY101021AY201021MA1098155097781MD1110011+9999MW1411REMSYN07689664 11961 00807 11273 21321 39778 49823 51001 69903 74100 333 90973 93197=
0142896640876012017080223554-77850+166667FM-15+002499999V0200501N006712200019N009999199-02601-03201098291ADDGF100991999999999999999999MA1098201097845MW1761OC101181REMMET075METAR NZCM 022355Z 05013G23KT 9999 IC SKC M26/M32 A2900 RMK ICB2050 SLP829=
0204896640876012017080300004-77850+166667FM-12+002499999V0200501N006719999999N011000199-02651-03231098291ADDAA124000021AL19900031AY171021AY201021KA1120M-02551KA2120N-03021MA1098215097841MD1110061+0051MW1761REMSYN09489664 11961 00513 11265 21323 39784 49829 51006 69904 77670 333 11255 21302 58005 90942 93197=
0123896640876012017080305554-77850+166667FM-15+002499999V0200901N007212200019N009999199-03201-04001098361ADDGF100991999999999999999999MA1098271097905MW1761REMMET064METAR NZCM 030555Z 09014KT 9999 IC SKC M32/M40 A2902 RMK SLP836=
0160896640876012017080306004-77850+166667FM-12+002499999V0200901N007219999999N011000199-03191-04001098361ADDAA106000021AL19900031AY171021AY271021MA1098285097911MD1110031+9999MW1761REMSYN07689664 11961 00914 11319 21400 39791 49836 51003 69901 77677 333 90973 93197=
0122896640876012017080311554-77850+166667FM-15+002499999V0209999C000012200019N009999199-02801-03501098351ADDGF100991999999999999999999MA1098271097905REMMET069METAR NZCM 031155Z 00000KT 9999 SKC M28/M35 A2902 RMK ICE0645 SLP835=
0204896640876012017080312004-77850+166667FM-12+002499999V0209999C000019999999N011000199-02821-03521098351ADDAA112000021AL19900031AY101021AY201021KA1240M-02561KA2240N-03261MA1098275097901MD1810021+0111MW1021REMSYN09489664 11961 00000 11282 21352 39790 49835 58002 69902 70200 333 11256 21326 58011 90963 93197=
0114896640876012017080317554-77850+166667FM-15+002499999V0209999C000012200019N009999199-03101-03701098281ADDGF100991999999999999999999MA1098201097835REMMET061METAR NZCM 031755Z 00000KT 9999 SKC M31/M37 A2900 RMK SLP828=
0132896640876012017080318004-77850+166667FM-12+002499999V0209999C000019999999N011000199-03081-03711098281ADDAA118000021AL19900031MA1098205097831MD1610031+9999REMSYN07089664 12961 00000 11308 21371 39783 49828 56003 69903 333 90973 93197=
0155896640876012017080323554-77850+166667FM-15+002499999V0209999V002619999999N009999199-02901-03501098451ADDGA1021+045721999GE19MSL   +99999+99999GF199999021999045721999999MA1098371098005REMMET064METAR NZCM 032355Z VRB05KT 9999 FEW150 M29/M35 A2905 RMK SLP845=
0258896640876012017080400004-77850+166667FM-12+002499999V0209999V002612200019N011000199-02901-03511098451ADDAA124000021AL19900031GA1011+045001001GE19MSL   +99999+99999GF101991011999045001999999KA1120M-02801KA2120N-03531MA1098375098001MD1310161+9999REMSYN10689664 12961 19905 11290 21351 39800 49845 53016 69904 80001 333 11280 21353 56002 58016 81065 90983 93197=
0155896640876012017080405554-77850+166667FM-15+002499999V0200601N00461045721CN009999199-02301-03301098671ADDGA1071+045721999GE19MSL   +99999+99999GF199999071999045721999999MA1098611098235REMMET064METAR NZCM 040555Z 06009KT 9999 BKN150 M23/M33 A2912 RMK SLP867=
0175896640876012017080406004-77850+166667FM-12+002499999V0200601N004610450019N011000199-02351-03351098671ADDGA1051+045001001GE19MSL   +99999+99999GF105991051999045001999999MA1098605098221MD1310081+9999REMSYN07089664 32961 50609 11235 21335 39822 49867 53008 80004 333 56002 85065=
0155896640876012017080411554-77850+166667FM-15+002499999V0209999C000019999999N009999199-02601-03101098701ADDGA1021+028961999GE19MSL   +99999+99999GF199999021999028961999999MA1098851098255REMMET064METAR NZCM 041155Z 00000KT 9999 FEW095 M26/M31 A2919 RMK SLP870=
0219896640876012017080412004-77850+166667FM-12+002499999V0209999C000012200019N011000199-02581-03101098701ADDGA1021+027001031GE19MSL   +99999+99999GF102991021999027001999999KA1240M-02331KA2240N-03351MA1098625098241MD1810051+9999REMSYN08889664 32961 20000 11258 21310 39824 49870 58005 82030 333 11233 21335 56020 58034 82359=
0155896640876012017080417554-77850+166667FM-15+002499999V0209999C00001016761CN009999199-02601-03201098701ADDGA1081+016761999GE19MSL   +99999+99999GF199999081999016761999999MA1098611098255REMMET064METAR NZCM 041755Z 00000KT 9999 OVC055 M26/M32 A2912 RMK SLP870=
0175896640876012017080418004-77850+166667FM-12+002499999V0209999C00001015001CN011000199-02591-03171098701ADDGA1081+015001061GE19MSL   +99999+99999GF108991081999015001999999MA1098625098241MD1210061+9999REMSYN07089664 32761 80000 11259 21317 39824 49870 52006 885// 333 56399 88650=
0189896640876012017080423554-77850+166667FM-15+002499999V0201101N005110304819N009999199-02101-02801098821ADDGA1021+015241999GA2071+030481999GE19MSL   +99999+99999GF199999021999015241999999MA1098751098385OC101031REMMET074METAR NZCM 042355Z 11010G20KT 9999 FEW050 BKN100 M21/M28 A2916 RMK SLP882=
0241896640876012017080500004-77850+166667FM-12+002499999V0201101N00511030001CN011000199-02101-02841098821ADDGA1021+015001061GA2041+030001041GE19MSL   +99999+99999GF106991021999015001999999KA1120M-02101KA2120N-02751MA1098755098371MD1310151+9999REMSYN09489664 32761 61110 11210 21284 39837 49882 53015 82530 333 11210 21275 56339 58037 82650 84460=
0166896640876012017080505554-77850+166667FM-15+002499999V0200901N00621048771CN009999199-02301-03101098771ADDGA1071+048771999GE19MSL   +99999+99999GF199999071999048771999999MA1098681098335OC101081REMMET067METAR NZCM 050555Z 09012G21KT 9999 BKN160 M23/M31 A2914 RMK SLP877=
0175896640876012017080506004-77850+166667FM-12+002499999V0200901N006210480019N011000199-02271-03121098771ADDGA1071+048001001GE19MSL   +99999+99999GF107991071999048001999999MA1098695098311MD1110091+9999REMSYN07089664 32961 70912 11227 21312 39831 49877 51009 80002 333 56003 87066=
0155896640876012017080511554-77850+166667FM-15+002499999V0201101N007219999999N009999199-02401-03101098981ADDGA1041+048771999GE19MSL   +99999+99999GF199999041999048771999999MA1098921098545REMMET064METAR NZCM 051155Z 11014KT 9999 SCT160 M24/M31 A2921 RMK SLP898=
0219896640876012017080512004-77850+166667FM-12+002499999V0201101N007212200019N011000199-02371-03101098981ADDGA1031+048001001GE19MSL   +99999+99999GF103991031999048001999999KA1240M-01691KA2240N-02461MA1098915098531MD1310111+9999REMSYN08889664 32961 31114 11237 21310 39853 49898 53011 80002 333 11169 21246 56003 58029 83066=
0155896640876012017080517554-77850+166667FM-15+002499999V0200801N00311060961CN009999199-01901-03001098891ADDGA1071+060961999GE19MSL   +99999+99999GF199999071999060961999999MA1098811098455REMMET064METAR NZCM 051755Z 08006KT 9999 BKN200 M19/M30 A2918 RMK SLP889=
0175896640876012017080518004-77850+166667FM-12+002499999V0200801N003110600019N011000199-01891-02961098891ADDGA1061+060001021GE19MSL   +99999+99999GF106991061999060001999999MA1098835098451MD1990011+9999REMSYN07089664 32961 60806 11189 21296 39845 49889 50001 80006 333 56003 86270=
0155896640876012017080523554-77850+166667FM-15+002499999V0209999V00151060961CN009999199-02201-03201098941ADDGA1071+060961999GE19MSL   +99999+99999GF199999071999060961999999MA1098881098505REMMET064METAR NZCM 052355Z VRB03KT 9999 BKN200 M22/M32 A2920 RMK SLP894=
0219896640876012017080600004-77850+166667FM-12+002499999V0209999V001510600019N011000199-02221-03161098941ADDGA1051+060001001GE19MSL   +99999+99999GF105991051999060001999999KA1120M-01881KA2120N-02381MA1098875098491MD1810041+9999REMSYN08889664 32961 59903 11222 21316 39849 49894 58004 80002 333 11188 21238 56003 58012 85070=
0166896640876012017080605554-77850+166667FM-15+002499999V0200601N007219999999N009999199-02601-03301098971ADDGA1021+060961999GE19MSL   +99999+99999GF199999021999060961999999MA1098921098525OC101081REMMET067METAR NZCM 060555Z 06014G21KT 9999 FEW200 M26/M33 A2921 RMK SLP897=
0175896640876012017080606004-77850+166667FM-12+002499999V0200601N007212200019N011000199-02591-03301098971ADDGA1021+060001021GE19MSL   +99999+99999GF102991021999060001999999MA1098905098521MD1990021+9999REMSYN07089664 32961 20614 11259 21330 39852 49897 50002 80008 333 56003 82270=
0157896640876012017080611554-77850+166667FM-15+002499999V0200301N005712200019N009999199-02601-03601098971ADDGF100991999999999999999999MA1098921098525OC100981OD149901331040REMMET082METAR NZCM 061155Z 03011G19KT 9999 SKC M26/M36 A2921 RMK PK WND 04026/0846 SLP897=
0137896640876012017080612004-77850+166667FM-12+002499999V0200301N005719999999N011000199-02571-03561098971ADDKA1240M-02101KA2240N-02821MA1098915098531MD1110081+0001REMSYN07089664 32961 00311 11257 21356 39853 49897 51008 333 11210 21282 58000=
0166896640876012017080617554-77850+166667FM-15+002499999V0209999C000019999999N009999199-02701-03201098981ADDGA1041+004271999GE19MSL   +99999+99999GF199999041999004271999999MA1098921098535REMMET075METAR NZCM 061755Z 00000KT 9999 SCT014 M27/M32 A2921 RMK SNE1500E00 SLP898=
0261896640876012017080618004-77850+166667FM-12+002499999V0209999C000012200019N011000199-02751-03231098981ADDAA106000091AL19900131AY171021AY211021GA1041+004201071GE19MSL   +99999+99999GF104991041999004201999999MA1098915098531MD1810021+9999MW1011REMSYN09489664 11461 40000 11275 21323 39853 49898 58002 69901 70171 84600 333 56700 84714 90921 93101=EQDQ01  00002PRCP06
0155896640876012017080623554-77850+166667FM-15+002499999V0200501N002619999999N009999199-02601-03001099151ADDGA1021+004271999GE19MSL   +99999+99999GF199999021999004271999999MA1099091098705REMMET064METAR NZCM 062355Z 05005KT 9999 FEW014 M26/M30 A2926 RMK SLP915=
0277896640876012017080700004-77850+166667FM-12+002499999V0200501N002612200019N011000199-02601-02991099151ADDAA112000091AL19900131GA1021+004201071GE19MSL   +99999+99999GF102991021999004201999999KA1120M-02461KA2120N-03051MA1099085098701MD1110101+9999REMSYN10689664 12461 20505 11260 21299 39870 49915 51010 69902 82600 333 11246 21305 56700 58021 82714 90971 93101=EQDQ01  00002PRCP12
0155896640876012017080705554-77850+166667FM-15+002499999V0209999C000019999999N009999199-03001-03401099241ADDGA1041+060961999GE19MSL   +99999+99999GF199999041999060961999999MA1099151098785REMMET064METAR NZCM 070555Z 00000KT 9999 SCT200 M30/M34 A2928 RMK SLP924=
0175896640876012017080706004-77850+166667FM-12+002499999V0209999C000012200019N011000199-03011-03371099241ADDGA1031+060001001GE19MSL   +99999+99999GF103991031999060001999999MA1099175098791MD1110081+9999REMSYN07089664 32961 30000 11301 21337 39879 49924 51008 80002 333 56007 83070=
0114896640876012017080711554-77850+166667FM-15+002499999V0209999V002612200019N009999199-02101-03001099351ADDGF100991999999999999999999MA1099291098915REMMET061METAR NZCM 071155Z VRB05KT 9999 SKC M21/M30 A2932 RMK SLP935=
0137896640876012017080712004-77850+166667FM-12+002499999V0209999V002619999999N011000199-02081-03001099351ADDKA1240M-02061KA2240N-03191MA1099285098901MD1310051+0371REMSYN07089664 32961 09905 11208 21300 39890 49935 53005 333 11206 21319 58037=
0114896640876012017080717554-77850+166667FM-15+002499999V0200701N004612200019N009999199-02001-03201099361ADDGF100991999999999999999999MA1099291098925REMMET061METAR NZCM 071755Z 07009KT 9999 SKC M20/M32 A2932 RMK SLP936=
0089896640876012017080718004-77850+166667FM-12+002499999V0200701N004619999999N011000199-02041-03221099361ADDMA1099295098911MD1810021+9999REMSYN04889664 32961 00709 11204 21322 39891 49936 58002=
0155896640876012017080723554-77850+166667FM-15+002499999V0209999V00261039621CN009999199-02301-03301099071ADDGA1071+039621999GE19MSL   +99999+99999GF199999071999039621999999MA1099021098635REMMET064METAR NZCM 072355Z VRB05KT 9999 BKN130 M23/M33 A2924 RMK SLP907=
0219896640876012017080800004-77850+166667FM-12+002499999V0209999V002610390019N011000199-02261-03271099071ADDGA1051+039001001GE19MSL   +99999+99999GF105991051999039001999999KA1120M-01891KA2120N-02381MA1099015098631MD1810181+9999REMSYN08889664 32961 59905 11226 21327 39863 49907 58018 80004 333 11189 21238 56003 59007 85063=
0162896640876012017080805554-77850+166667FM-15+002499999V0202801N003119999999N009999199-02401-02801098401ADDGA1041+060961999GE19MSL   +99999+99999GF199999041999060961999999MA1098341097965REMMET071METAR NZCM 080555Z 28006KT 9999 SCT200 M24/M28 A2904 RMK PRESFR SLP840=
0175896640876012017080806004-77850+166667FM-12+002499999V0202801N003112200019N011000199-02451-02821098401ADDGA1031+060001001GE19MSL   +99999+99999GF103991031999060001999999MA1098335097961MD1810501+9999REMSYN07089664 32961 32806 11245 21282 39796 49840 58050 80002 333 56007 83070=
0155896640876012017080811554-77850+166667FM-15+002499999V0209999V001519999999N009999199-01601-02301097351ADDGA1041+060961999GE19MSL   +99999+99999GF199999041999060961999999MA1097291096935REMMET064METAR NZCM 081155Z VRB03KT 9999 SCT200 M16/M23 A2873 RMK SLP735=
0219896640876012017080812004-77850+166667FM-12+002499999V0209999V001512200019N011000199-01631-02331097351ADDGA1041+060001001GE19MSL   +99999+99999GF104991041999060001999999KA1240M-01591KA2240N-02541MA1097285096911MD1810481+9999REMSYN08889664 32961 49903 11163 21233 39691 49735 58048 80002 333 11159 21254 56003 59199 84070=
0178896640876012017080817554-77850+166667FM-15+002499999V0200401N004110548619N009999199-01301-02501096741ADDGA1041+036581999GA2071+054861999GE19MSL   +99999+99999GF199999041999036581999999MA1096681096325REMMET071METAR NZCM 081755Z 04008KT 9999 SCT120 BKN180 M13/M25 A2855 RMK SLP674=
0197896640876012017080818004-77850+166667FM-12+002499999V0200401N004110540019N011000199-01271-02511096741ADDGA1031+036001041GA2061+054001021GE19MSL   +99999+99999GF106991031999036001999999MA1096685096311MD1610251+9999REMSYN07689664 32961 60408 11127 21251 39631 49674 56025 83026 333 56066 83462 86268=
0192896640876012017080823554-77850+166667FM-15+002499999V0201601N012919999999N009999199-02005-02705097061ADDMA1096995999999MW1361OC101701OD149901801070REMMET118METAR NZCM 082355Z 16025G33KT 9999 DRSN VCBLSN BKN170 M20/M27 A2864 RMK PK WND 07035/2214 PRESFR SLP706 VCBLSN SE-S-W=EQDD01      0ADE693
0214896640876012017080905554-77850+166667FM-15+002499999V0201401N01651000611WN000200199-02701-03101097371ADDGA1091+000611999GE19MSL   +99999+99999GF109991091999000611999999MA1097321096935MW1381MW2711OC102111REMMET103METAR NZCM 090555Z COR 14032G41KT 0200 -SN BLSN VV002 M27/M31 A2874 RMK PK WND 13042/36 SNB0200 SLP737=
0242896640876012017080906004-77850+166667FM-12+002499999V0201401N01651000601WN000200199-02711-03101097371ADDAA106000021AL19900131AY171021AY231021GA1091+000601999GE19MSL   +99999+99999GF109991091999000601999999MA1097305096931MD1990131+9999MW1711REMSYN09489664 11/02 91432 11271 21310 39693 49737 50013 69901 77173 333 01342 89/02 90952 93101 96038=
0226896640876012017080911554-77850+166667FM-15+002499999V0201401N01081024381CN000800199-02501-02801097951ADDGA1071+024381999GE19MSL   +99999+99999GF199999071999024381999999MA1097931097515MW1381MW2711OC101751OD149902211140REMMET101METAR NZCM 091155Z 14021G34KT 0800 -SN BLSN BKN080 M25/M28 A2892 RMK PK WND 14043/0559 PRESFR SLP795=
0298896640876012017080912004-77850+166667FM-12+002499999V0201401N01081024001CN000800199-02471-02811097951ADDAA112000021AL19900131AY171021AY231021GA1071+024001041GE19MSL   +99999+99999GF107991071999024001999999KA1240M-02061KA2240N-02741MA1097935097561MD1310201+9999MW1711REMSYN12489664 11808 71421 11247 21281 39756 49795 53020 69902 77173 87010 333 01443 11206 21274 56060 58065 87458 90973 93101 96038=
0219896640876012017080917554-77850+166667FM-15+002499999V0200901N00931003961CN000200199-02801-03201098291ADDGA1081+003961999GE19MSL   +99999+99999GF199999081999003961999999MA1098201097845MW1381MW2711OC101291OD149902571130REMMET094METAR NZCM 091755Z 09018G25KT 0200 -SN BLSN OVC013 M28/M32 A2900 RMK PK WND 13050/1223 SLP829=
0219896640876012017080923554-77850+166667FM-15+002499999V0200601N01081009141CN002400199-03101-03501098441ADDGA1081+009141999GE19MSL   +99999+99999GF199999081999009141999999MA1098371097985MW1381MW2711OC101541OD149901691050REMMET094METAR NZCM 092355Z 06021G30KT 2400 -SN BLSN OVC030 M31/M35 A2905 RMK PK WND 05033/1955 SLP844=
0298896640876012017081000004-77850+166667FM-12+002499999V0200601N01081009001CN002400199-03071-03541098441ADDAA124000021AL19900531AY171021AY231021GA1081+009001061GE19MSL   +99999+99999GF108991081999009001999999KA1120M-02471KA2120N-03161MA1098365097991MD1990041+9999MW1711REMSYN12489664 11524 80621 11307 21354 39799 49844 50004 69904 77173 885// 333 00533 11247 21316 56399 58137 88630 90983 93105 96038=
0195896640876012017081005554-77850+166667FM-15+002499999V0200801N003619999999N009999199-02901-03301098511ADDGA1021+021341999GE19MSL   +99999+99999GF199999021999021341999999MA1098441098065OD149901441080REMMET090METAR NZCM 100555Z 08007KT 9999 FEW070 M29/M33 A2907 RMK PK WND 08028/0117 SNE0015 SLP851=
0242896640876012017081006004-77850+166667FM-12+002499999V0200801N003612200019N011000199-02891-03331098511ADDAA106000021AL19900031AY131021AY211021GA1011+021001041GE19MSL   +99999+99999GF101991011999021001999999MA1098435098061MD1110071+9999MW1021REMSYN09489664 11861 10807 11289 21333 39806 49851 51007 69901 70231 81010 333 56030 81457 90963 93197=
0114896640876012017081011554-77850+166667FM-15+002499999V0209999C000012200019N009999199-03101-03601098351ADDGF100991999999999999999999MA1098271097905REMMET061METAR NZCM 101155Z 00000KT 9999 SKC M31/M36 A2902 RMK SLP835=
0176896640876012017081012004-77850+166667FM-12+002499999V0209999C000019999999N011000199-03151-03651098351ADDAA112000021AL19900031KA1240M-02731KA2240N-03191MA1098275097901MD1810091+0341REMSYN08889664 12961 00000 11315 21365 39790 49835 58009 69902 333 11273 21319 58034 90973 93197=
0114896640876012017081017554-77850+166667FM-15+002499999V0200601N002112200019N009999199-02801-03201097951ADDGF100991999999999999999999MA1097871097505REMMET061METAR NZCM 101755Z 06004KT 9999 SKC M28/M32 A2890 RMK SLP795=
0132896640876012017081018004-77850+166667FM-12+002499999V0200601N002119999999N011000199-02791-03191097951ADDAA118000021AL19900031MA1097875097501MD1610181+9999REMSYN07089664 12961 00604 11279 21319 39750 49795 56018 69903 333 90983 93197=
0155896640876012017081023554-77850+166667FM-15+002499999V0200401N001519999999N009999199-02801-03301097781ADDGA1021+006101999GE19MSL   +99999+99999GF199999021999006101999999MA1097701097335REMMET064METAR NZCM 102355Z 04003KT 9999 FEW020 M28/M33 A2885 RMK SLP778=
0258896640876012017081100004-77850+166667FM-12+002499999V0200401N001512200019N011000199-02851-03271097781ADDAA124000021AL19900031GA1011+006001061GE19MSL   +99999+99999GF101991011999006001999999KA1120M-02661KA2120N-03361MA1097715097341MD1610071+9999REMSYN10689664 12561 10403 11285 21327 39734 49778 56007 69904 81500 333 11266 21336 56700 59065 81620 90983 93197=
0172896640876012017081105554-77850+166667FM-15+002499999V0201101N002619999999N009999199-02801-03201097721ADDGA1021+015241999GE19MSL   +99999+99999GF199999021999015241999999MA1097661097275MW1761REMMET075METAR NZCM 110555Z 11005KT 9999 IC FEW050 M28/M32 A2884 RMK ICB0330 SLP772=
0123896640876012017081111554-77850+166667FM-15+002499999V0200701N005712200019N009999199-03001-03401097811ADDGF100991999999999999999999MA1097731097365MW1761REMMET064METAR NZCM 111155Z 07011KT 9999 IC SKC M30/M34 A2886 RMK SLP781=
0204896640876012017081112004-77850+166667FM-12+002499999V0200701N005719999999N011000199-03001-03451097811ADDAA112000021AL19900031AY171021AY271021KA1240M-02701KA2240N-03271MA1097735097361MD1510001-0541MW1761REMSYN09489664 11961 00711 11300 21345 39736 49781 55000 69902 77677 333 11270 21327 59054 90973 93197=
0134896640876012017081117554-77850+166667FM-15+002499999V0200801N007712200019N009999199-03001-03501097931ADDGF100991999999999999999999MA1097871097485MW1761OC101031REMMET067METAR NZCM 111755Z 08015G20KT 9999 IC SKC M30/M35 A2890 RMK SLP793=
0160896640876012017081118004-77850+166667FM-12+002499999V0200801N007719999999N011000199-02991-03461097931ADDAA118000021AL19900031AY171021AY271021MA1097855097481MD1310081+9999MW1761REMSYN07689664 11961 00815 11299 21346 39748 49793 53008 69903 77677 333 90983 93197=
0186896640876012017081123554-77850+166667FM-15+002499999V0209999C000010152419N009999199-02901-03501098181ADDGA1021+010671999GA2071+015241999GE19MSL   +99999+99999GF199999021999010671999999MA1098101097735REMMET079METAR NZCM 112355Z 00000KT 9999 FEW035 BKN050 M29/M35 A2897 RMK ICE1930 SLP818=
0286896640876012017081200004-77850+166667FM-12+002499999V0209999C00001015001CN011000199-02951-03481098181ADDAA124000021AY171021AY211021GA1011+009001061GA2071+015001061GE19MSL   +99999+99999GF107991011999009001999999KA1120M-02631KA2120N-02971MA1098105097731MD1110161+9999MW1021REMSYN10689664 11561 70000 11295 21348 39773 49818 51016 69904 70271 87500 333 11263 21297 56300 81630 87650 90145=
0171896640876012017081205554-77850+166667FM-15+002499999V0209999C00001012191CN009999199-02801-03201098371ADDGA1071+012191999GE19MSL   +99999+99999GF199999071999012191999999MA1098311097925MW1711REMMET074METAR NZCM 120555Z 00000KT 9999 -SN BKN040 M28/M32 A2903 RMK SNB30 SLP837=
0209896640876012017081206004-77850+166667FM-12+002499999V0209999C00001012001CN011000199-02761-03251098371ADDAY121021AY221021GA1061+012001061GE19MSL   +99999+99999GF106991061999012001999999MA1098295097921MD1310101+9999MW1711REMSYN08289664 41661 60000 11276 21325 39792 49837 53010 77122 86500 333 56200 86640 90005=
0176896640876012017081211554-77850+166667FM-15+002499999V0200401N00671009751CN006000199-02801-03201098411ADDGA1081+009751999GE19MSL   +99999+99999GF199999081999009751999999MA1098341097965MW1361MW2711REMMET073METAR NZCM 121155Z 04013KT 6000 -SN DRSN OVC032 M28/M32 A2904 RMK SLP841=
0276896640876012017081212004-77850+166667FM-12+002499999V0200401N00671009601CN006000199-02761-03221098411ADDAA112000331AY171021AY271021GA1081+009601061GE19MSL   +99999+99999GF108991081999009601999999KA1240M-02611KA2240N-02961MA1098335097961MD1810021+9999MW1711REMSYN11289664 11556 80413 11276 21322 39796 49841 58002 69932 77177 885// 333 11261 21296 56299 88632 90061 90220 96036=
0163896640876012017081217554-77850+166667FM-15+002499999V0209999V00261018291CN009999199-02501-02901098351ADDGA1071+018291999GE19MSL   +99999+99999GF199999071999018291999999MA1098271097915REMMET072METAR NZCM 121755Z VRB05KT 9999 BKN060 M25/M29 A2902 RMK SNE1300 SLP835=
0226896640876012017081218004-77850+166667FM-12+002499999V0209999V00261018001CN011000199-02471-02931098351ADDAA118000331AY171021AY221021GA1061+018001061GE19MSL   +99999+99999GF199999061999018001999999MA1098275097901MD1510051+9999MW1011REMSYN08889664 11761 09905 11247 21293 39790 49835 55005 69933 70172 86500 333 56300 86656 90150=
0227896640876012017081223554-77850+166667FM-15+002499999V0201101N00571021341CN004000199-02801-03201098501ADDGA1081+021341999GE19MSL   +99999+99999GF199999081999021341999999MA1098441098055MW1381MW2711OC101081OD149902051150REMMET102METAR NZCM 122355Z 11011G21KT 4000 -SN BLSN OVC070 M28/M32 A2907 RMK PK WND 15040/2142 SNB1900 SLP850=
0265896640876012017081300004-77850+166667FM-12+002499999V0201101N00571021001CN004000199-02821-03251098501ADDAY171021AY231021GA1081+021001041GE19MSL   +99999+99999GF108991081999021001999999KA1120M-02431KA2120N-02931MA1098425098051MD1990191+9999MW1711REMSYN11289664 41840 81111 11282 21325 39805 49850 50019 77173 8802/ 333 01540 11243 21293 56039 88457 90050 90250 96038=
0186896640876012017081305554-77850+166667FM-15+002499999V0201401N01391002131WN000200199-02701-03001098361ADDGA1091+002131999GE19MSL   +99999+99999GF109991091999002131999999MA1098271097915MW1381MW2711OC101901REMMET075METAR NZCM 130555Z 14027G37KT 0200 -SN BLSN VV007 M27/M30 A2902 RMK SLP836=
0215896640876012017081306004-77850+166667FM-12+002499999V0201401N01391002101WN000200199-02661-03051098361ADDAY171021AY231021GA1091+002101999GE19MSL   +99999+99999GF109991091999002101999999MA1098285097911MD1810101+9999MW1711REMSYN08889664 41/02 91427 11266 21305 39791 49836 58010 77173 333 01538 89/07 90066 90266 96038=
0218896640876012017081311554-77850+166667FM-15+002499999V0201501N01441000911WN000100199-02401-02701098051ADDGA1091+000911999GE19MSL   +99999+99999GF109991091999000911999999MA1097901097615MW1381MW2711OC102471OD149902521170REMMET093METAR NZCM 131155Z 15028G48KT 0100 -SN BLSN VV003 M24/M27 A2891 RMK PK WND 17049/1022 SLP805=
0250896640876012017081312004-77850+166667FM-12+002499999V0201501N01441000901WN000100199-02401-02751098051ADDAA124001031AY171021AY231021GA1091+000901999GE19MSL   +99999+99999GF109991091999000901999999KA1240M-02391KA2240N-02781MA1097975097601MW1711REMSYN10089664 11/01 91528 11240 21275 39760 49805 60014 77173 333 01749 11239 21278 89/03 90067 90267 96038=
0218896640876012017081317554-77850+166667FM-15+002499999V0201601N01701000911WN000200199-02101-02201097631ADDGA1091+000911999GE19MSL   +99999+99999GF109991091999000911999999MA1097561097205MW1381MW2711OC102211OD149903141180REMMET093METAR NZCM 131755Z 16033G43KT 0200 -SN BLSN VV003 M21/M22 A2881 RMK PK WND 18061/1322 SLP763=
0215896640876012017081318004-77850+166667FM-12+002499999V0201601N01701000901WN000200199-02151-02201097631ADDAY171021AY231021GA1091+000901999GE19MSL   +99999+99999GF109991091999000901999999MA1097565097191MD1610241+9999MW1711REMSYN08889664 41/02 91633 11215 21220 39719 49763 56024 77173 333 01661 89/03 90068 90268 96038=
0197896640876012017081323554-77850+166667FM-15+002499999V0201501N006719999999N009999199-01705-01705097501ADDMA1097435999999MW1361MW2711OC101391OD149902261160REMMET117METAR NZCM 132355Z 15013G27KT 9999 -SN DRSN VCBLSN FEW030 OVC070 M17/M17 A2877 RMK PK WND 16044/1836 SLP750 VCBLSN S=EQDD01      0ADE693
0293896640876012017081400004-77850+166667FM-12+002499999V0201501N006710210019N011000199-01751-01751097501ADDAY171021AY231021GA1021+009001061GA2071+021001041GE19MSL   +99999+99999GF108991021999009001999999KA1120M-01751KA2120N-02391MA1097445097071MD1610221+9999MW1711REMSYN12489664 41561 81513 11175 21175 39707 49750 56022 77173 8252/ 333 01644 11175 21239 56319 82630 87457 90068 90140 90240 96036=
0194896640876012017081405554-77850+166667FM-15+002499999V0200701N00621019811CN009999199-01701-01701097291ADDGA1081+019811999GE19MSL   +99999+99999GF199999081999019811999999MA1097221096865MW1711OC100981REMMET089METAR NZCM 140555Z 07012G19KT 9999 -SN OVC065 M17/M17 A2871 RMK PK WND 17038/0011 SLP729=
0206896640876012017081411554-77850+166667FM-15+002499999V0201101N00621022861CN009999199-01301-01301096941ADDGA1081+022861999GE19MSL   +99999+99999GF199999081999022861999999MA1096881096525OC100931OD149901491140REMMET093METAR NZCM 141155Z 11012G18KT 9999 OVC075 M13/M13 A2861 RMK PK WND 14029/0955 SNE0930 SLP694=
0264896640876012017081412004-77850+166667FM-12+002499999V0201101N00621021001CN011000199-01301-01301096941ADDAA124001031AY171021AY221021GA1081+021001041GE19MSL   +99999+99999GF108991081999021001999999KA1240M-01301KA2240N-01791MA1096895096521MD1810141+9999MW1021REMSYN10089664 11861 81112 11130 21130 39652 49694 58014 60014 70272 8802/ 333 11130 21179 56019 88457 90125=
0198896640876012017081417554-77850+166667FM-15+002499999V0201201N00771024381CN009999199-01601-01601096911ADDGA1081+024381999GE19MSL   +99999+99999GF199999081999024381999999MA1096851096495OC101541OD149901951160REMMET085METAR NZCM 141755Z 12015G30KT 9999 OVC080 M16/M16 A2860 RMK PK WND 16038/1640 SLP691=
0181896640876012017081418004-77850+166667FM-12+002499999V0201201N00771024001CN011000199-01561-01561096911ADDGA1081+024001041GE19MSL   +99999+99999GF108991081999024001999999MA1096855096481MD1310051+9999REMSYN07689664 42861 81215 11156 21156 39648 49691 53005 8802/ 333 01638 56029 88458=
0215896640876012017081423554-77850+166667FM-15+002499999V0201201N007219999999N009999199-01505-01505097181ADDMA1097125999999MW1711OC101341OD149902311170REMMET141METAR NZCM 142355Z 12014G26KT 9999 -SN VCBLSN FEW045 OVC060 M15/M15 A2868 RMK PK WND 17045/2237 WSHFT 1950 SNB2100 PRESRR SLP718 VCBLSN SE-S=EQDD01      0ADE693
0275896640876012017081500004-77850+166667FM-12+002499999V0201201N00721018001CN011000199-01481-01481097181ADDAY171021AY221021GA1021+013501061GA2061+018001061GE19MSL   +99999+99999GF108991021999013501999999KA1120M-01241KA2120N-01691MA1097125096751MD1310091+9999MW1711REMSYN10689664 41661 81214 11148 21148 39675 49718 53009 77172 885// 333 01745 11124 21169 56299 82645 86656 90030=
0229896640876012017081505554-77850+166667FM-15+002499999V0200601N01181002131WN000400199-01901-01901097721ADDGA1091+002131999GE19MSL   +99999+99999GF109991091999002131999999MA1097631097295MW1381MW2711OC101441OD149902111160REMMET104METAR NZCM 150555Z 06023G28KT 0400 -SN BLSN VV007 M19/M19 A2883 RMK PK WND 16041/0242 WSHFT 0117 SLP772=
0255896640876012017081523554-77850+166667FM-15+002499999V0201601N00821030481CN009999199-01201-01401097821ADDGA1021+003051999GA2041+030481999GA3071+039621999GE19MSL   +99999+99999GF199999021999003051999999MA1097761097405OC101181OD149901801170REMMET110METAR NZCM 152355Z 16016G23KT 9999 FEW010 SCT100 BKN130 M12/M14 A2887 RMK PK WND 17035/2231 SNB1945E15 SLP782=
0303896640876012017081600004-77850+166667FM-12+002499999V0201601N008210390019N011000199-01191-01441097821ADDAY171021AY221021GA1011+003001071GA2031+030001031GA3051+039001031GE19MSL   +99999+99999GF107991011999003001999999KA1120M-01091KA2120N-01481MA1097765097391MD1110121+9999MW1221REMSYN11889664 41461 71616 11119 21144 39739 49782 51012 72272 81670 333 01735 11109 21148 56330 81710 83360 85363 90043 90108=
0189896640876012017081605554-77850+166667FM-15+002499999V0201301N006210304819N009999199-01201-01501098121ADDGA1021+024381999GA2071+030481999GE19MSL   +99999+99999GF199999021999024381999999MA1098071097705OC101031REMMET074METAR NZCM 160555Z 13012G20KT 9999 FEW080 BKN100 M12/M15 A2896 RMK SLP812=
0197896640876012017081606004-77850+166667FM-12+002499999V0201301N00621030001CN011000199-01221-01531098121ADDGA1021+024001031GA2061+030001031GE19MSL   +99999+99999GF107991021999024001999999MA1098065097691MD1310201+9999REMSYN07689664 42861 71312 11122 21153 39769 49812 53020 87070 333 56030 82358 86360=
0155896640876012017081611554-77850+166667FM-15+002499999V0200601N00411018291CN009999199-01301-01701098311ADDGA1081+018291999GE19MSL   +99999+99999GF199999081999018291999999MA1098271097895REMMET064METAR NZCM 161155Z 06008KT 9999 OVC060 M13/M17 A2902 RMK SLP831=
0155896640876012017081617554-77850+166667FM-15+002499999V0201001N002119999999N009999199-01501-02001098611ADDGA1041+054861999GE19MSL   +99999+99999GF199999041999054861999999MA1098541098185REMMET064METAR NZCM 161755Z 10004KT 9999 SCT180 M15/M20 A2910 RMK SLP861=
0189896640876012017081623554-77850+166667FM-15+002499999V0200601N006710198119N009999199-01301-02101098931ADDGA1021+010671999GA2081+019811999GE19MSL   +99999+99999GF199999021999010671999999MA1098881098505OC100931REMMET074METAR NZCM 162355Z 06013G18KT 9999 FEW035 OVC065 M13/M21 A2920 RMK SLP893=
0235896640876012017081700004-77850+166667FM-12+002499999V0200601N006710180019N011000199-01311-02101098931ADDGA1011+010501061GA2081+018001041GE19MSL   +99999+99999GF108991011999010501999999KA1120M-01161KA2120N-01521MA1098875098491MD1110201+9999REMSYN08889664 42661 80613 11131 21210 39849 49893 51020 8152/ 333 11116 21152 56339 81635 88456=
0189896640876012017081705554-77850+166667FM-15+002499999V0200601N00821015241CN009999199-01701-02301099321ADDGA1071+015241999GA2081+022861999GE19MSL   +99999+99999GF199999071999015241999999MA1099251098895OC101131REMMET074METAR NZCM 170555Z 06016G22KT 9999 BKN050 OVC075 M17/M23 A2931 RMK SLP932=
0197896640876012017081706004-77850+166667FM-12+002499999V0200601N00821015001CN011000199-01681-02351099321ADDGA1061+015001061GA2031+021001041GE19MSL   +99999+99999GF108991061999015001999999MA1099265098881MD1310201+9999REMSYN07689664 42761 80616 11168 21235 39888 49932 53020 8652/ 333 56339 86650 83457=
0227896640876012017081711554-77850+166667FM-15+002499999V0200601N01081008531CN009999199-02001-02401099821ADDGA1081+008531999GE19MSL   +99999+99999GF199999081999008531999999MA1099861099385MW1361MW2711OC101391OD149901491070REMMET102METAR NZCM 171155Z 06021G27KT 9999 -SN DRSN OVC028 M20/M24 A2949 RMK PK WND 07029/1023 SNB0845 SLP982=
0276896640876012017081712004-77850+166667FM-12+002499999V0200601N01081008401CN011000199-01961-02381099821ADDAA124000021AY171021AY221021GA1081+008401061GE19MSL   +99999+99999GF108991081999008401999999KA1240M-01301KA2240N-02011MA1099765099381MD1310231+9999MW1711REMSYN11289664 11561 80621 11196 21238 39938 49982 53023 69904 77172 885// 333 11130 21201 56699 88628 90033 90220 96036=
0206896640876012017081717554-77850+166667FM-15+002499999V0200701N01081015241CN009999199-02001-02601100321ADDGA1081+015241999GE19MSL   +99999+99999GF199999081999015241999999MA1100241099885OC101341OD149901491090REMMET093METAR NZCM 171755Z 07021G26KT 9999 OVC050 M20/M26 A2960 RMK PK WND 09029/1534 SNE1415 SLP032=
0209896640876012017081718004-77850+166667FM-12+002499999V0200701N01081015001CN011000199-02051-02601100321ADDAY171021AY221021GA1081+015001061GE19MSL   +99999+99999GF108991081999015001999999MA1100255099871MD1310201+9999MW1021REMSYN08289664 41761 80721 11205 21260 39987 40032 53020 70272 885// 333 56799 88650 90138=
0228896640876012017081723554-77850+166667FM-15+002499999V0200701N010310731519N009999199-02301-02701100641ADDGA1021+015241999GA2081+073151999GE19MSL   +99999+99999GF199999021999015241999999MA1100581100195MW1361OC101291REMMET107METAR NZCM 172355Z 07020G25KT 9999 DRSN FEW050 OVC240 M23/M27 A2970 RMK PK WND 09030/22 SLP064 BLSN DSNT W=
0269896640876012017081800004-77850+166667FM-12+002499999V0200701N010310720019N011000199-02281-02721100641ADDAY121021AY221021GA1011+015001061GA2081+072001021GE19MSL   +99999+99999GF108991011999015001999999KA1120M-01961KA2120N-02301MA1100575100191MD1110171+9999MW1361REMSYN10089664 41761 80720 11228 21272 30019 40064 51017 73622 81507 333 11196 21230 56707 81650 88274 90018=
0203896640876012017081805554-77850+166667FM-15+002499999V0200901N00361021341CN009999199-02401-02801100951ADDGA1081+021341999GE19MSL   +99999+99999GF199999081999021341999999MA1100881100505MW1711OD149901541080REMMET092METAR NZCM 180555Z 09007KT 9999 -SN OVC070 M24/M28 A2979 RMK PK WND 08030/0210 SNB15 SLP095=
0209896640876012017081806004-77850+166667FM-12+002499999V0200901N00361021001CN011000199-02401-02801100951ADDAY121021AY221021GA1081+021001041GE19MSL   +99999+99999GF108991081999021001999999MA1100885100501MD1110121+9999MW1711REMSYN08289664 41861 80907 11240 21280 30050 40095 51012 77122 8802/ 333 56079 88457 90008=
0187896640876012017081811554-77850+166667FM-15+002499999V0200601N00821003961CN000600199-02301-02501100901ADDGA1081+003961999GE19MSL   +99999+99999GF199999081999003961999999MA1100851100455MW1381MW2711OC101081REMMET076METAR NZCM 181155Z 06016G21KT 0600 -SN BLSN OVC013 M23/M25 A2978 RMK SLP090=
0276896640876012017081812004-77850+166667FM-12+002499999V0200601N00821003901CN000600199-02281-02541100901ADDAA124000331AY171021AY231021GA1081+003901061GE19MSL   +99999+99999GF108991081999003901999999KA1240M-02151KA2240N-02561MA1100835100451MD1710081+9999MW1711REMSYN11289664 11406 80616 11228 21254 30045 40090 57008 69934 77173 885// 333 11215 21256 56799 88613 90061 90220 96038=
0198896640876012017081817554-77850+166667FM-15+002499999V0201201N00571005791CN000600199-01801-02101100511ADDGA1081+005791999GE19MSL   +99999+99999GF199999081999005791999999MA1100441100075MW1381MW2711OC101391REMMET087METAR NZCM 181755Z 12011G27KT 0600 -SN BLSN OVC019 M18/M21 A2966 RMK WSHFT 1622 SLP051=
0221896640876012017081818004-77850+166667FM-12+002499999V0201201N00571005701CN000600199-01841-02061100511ADDAY171021AY231021GA1081+005701071GE19MSL   +99999+99999GF108991081999005701999999MA1100445100061MD1710201+9999MW1711REMSYN09489664 41406 81211 11184 21206 30006 40051 57020 77173 887// 333 56799 88719 90067 90262 96038=
0218896640876012017081823554-77850+166667FM-15+002499999V0201301N01181002131WN000800199-01901-02001100021ADDGA1091+002131999GE19MSL   +99999+99999GF109991091999002131999999MA1099971099585MW1381MW2711OC101601OD149902111160REMMET093METAR NZCM 182355Z 13023G31KT 0800 -SN BLSN VV007 M19/M20 A2952 RMK PK WND 16041/2155 SLP002=
0253896640876012017081900004-77850+166667FM-12+002499999V0201301N01181002101WN000800199-01891-02041100021ADDAY171021AY231021GA1091+002101999GE19MSL   +99999+99999GF109991091999002101999999KA1120M-01821KA2120N-02361MA1099965099581MD1610241+9999MW1711REMSYN10089664 41/08 91323 11189 21204 39958 40002 56024 77173 333 01641 11182 21236 89/07 90068 90267 96038=
0218896640876012017081905554-77850+166667FM-15+002499999V0201401N01491000911WN000100199-02001-02101099411ADDGA1091+000911999GE19MSL   +99999+99999GF109991091999000911999999MA1099361098975MW1381MW2711OC102161OD149902571150REMMET093METAR NZCM 190555Z 14029G42KT 0100 -SN BLSN VV003 M20/M21 A2934 RMK PK WND 15050/0336 SLP941=
0215896640876012017081906004-77850+166667FM-12+002499999V0201401N01491000901WN000100199-02001-02091099411ADDAY171021AY231021GA1091+000901999GE19MSL   +99999+99999GF109991091999000901999999MA1099345098961MD1610191+9999MW1711REMSYN08889664 41/01 91429 11200 21209 39896 49941 56019 77173 333 01550 89/03 90068 90268 96038=
0217896640876012017081911554-77850+166667FM-15+002499999V0201301N01131000611WN000200199-02401-02601999999ADDGA1091+000611999GE19MSL   +99999+99999GF109991091999000611999999MA1099461999999MW1381MW2711OC101701OD149902571160REMMET092METAR NZCM 191155Z 13022G33KT 0200 -SN BLSN VV002 M24/M26 A2937 RMK PK WND 16050/0758 SLPNO=
0226896640876012017081912004-77850+166667FM-12+002499999V0201301N01131000601WN000200199-02381-02651099555ADDAA124004031AY171021AY231021GA1091+000601999GE19MSL   +99999+99999GF109991091999000601999999MA1099485099101MD1310251+9999MW1711REMSYN08889664 11/02 91322 11238 21265 39910 53025 60044 77173 333 01650 89/02 90068 90268 96038=
0218896640876012017081917554-77850+166667FM-15+002499999V0201001N00571001221WN000200199-02401-02701099221ADDGA1091+001221999GE19MSL   +99999+99999GF109991091999001221999999MA1099151098775MW1381MW2711OC101441OD149901951100REMMET093METAR NZCM 191755Z 10011G28KT 0200 -SN BLSN VV004 M24/M27 A2928 RMK PK WND 10038/1450 SLP922=
0215896640876012017081918004-77850+166667FM-12+002499999V0201001N00571001201WN000200199-02451-02671099221ADDAY171021AY231021GA1091+001201999GE19MSL   +99999+99999GF109991091999001201999999MA1099165098781MD1810131+9999MW1711REMSYN08889664 41/02 91011 11245 21267 39878 49922 58013 77173 333 01038 89/04 90068 90268 96038=
0238896640876012017081923554-77850+166667FM-15+002499999V0201501N01491002131WN000800199-02401-02601999999ADDGA1091+002131999GE19MSL   +99999+99999GF109991091999002131999999MA1098981999999MW1381MW2711OC102011OD149902311140REMMET113METAR NZCM 192355Z 15029G39KT 0800 -SN BLSN VV007 M24/M26 A2923 RMK PK WND 14045/2020 WSHFT 1849 1828 1807 SLPNO=
0219896640876012017082000044-77850+166667FM-15+002499999V0201301N006219999999N008000199-02401-02601099041ADDGA1041+015241999GE19MSL   +99999+99999GF199999041999015241999999MA1098951098595MW1361MW2711OC101031OD149901751150REMMET094METAR NZCM 200004Z 13012G20KT 8000 -SN DRSN SCT050 M24/M26 A2922 RMK PK WND 15034/0121 SLP904=
0219896640876012017082005554-77850+166667FM-15+002499999V0201301N006219999999N008000199-02401-02601099041ADDGA1041+015241999GE19MSL   +99999+99999GF199999041999015241999999MA1098951098595MW1361MW2711OC101031OD149901751150REMMET094METAR NZCM 200555Z 13012G20KT 8000 -SN DRSN SCT050 M24/M26 A2922 RMK PK WND 15034/0121 SLP904=
0233896640876012017082006004-77850+166667FM-12+002499999V0201301N006212200019N008000199-02421-02581099041ADDAY171021AY231021GA1031+015001061GE19MSL   +99999+99999GF103991031999015001999999MA1098965098581MD1810011+9999MW1711REMSYN10689664 41758 31312 11242 21258 39858 49904 58001 77173 83500 333 01534 56700 83650 90068 90115 90215 96036=
0165896640876012017082011554-77850+166667FM-15+002499999V0201801N00411007321CN001600199-02301-02501098861ADDGA1081+007321999GE19MSL   +99999+99999GF199999081999007321999999MA1098781098425MW1711REMMET068METAR NZCM 201155Z 18008KT 1600 -SN OVC024 M23/M25 A2917 RMK SLP886=
0203896640876012017082017554-77850+166667FM-15+002499999V0201801N01081004881CN000200199-02101-02201098511ADDGA1081+004881999GE19MSL   +99999+99999GF199999081999004881999999MA1098411098075MW1381MW2711OC101751REMMET092METAR NZCM 201755Z 18021G34KT 0200 -SN BLSN OVC016 M21/M22 A2906 RMK PK WND 17035/13 SLP851=
0227896640876012017082018004-77850+166667FM-12+002499999V0201801N01081004801CN000200199-02061-02221098511ADDAY171021AY231021GA1081+004801071GE19MSL   +99999+99999GF108991081999004801999999MA1098435098061MD1610281+9999MW1711REMSYN10089664 41402 81821 11206 21222 39806 49851 56028 77173 887// 333 01735 56399 88716 90068 90228 96038=
0242896640876012017082023554-77850+166667FM-15+002499999V0201101N00621014021CN008000199-01901-02001097981ADDGA1081+014021999GE19MSL   +99999+99999GF199999081999014021999999MA1097931097555MW1381MW2711OC101031OD149901951170REMMET117METAR NZCM 202355Z 11012G20KT 8000 -SN BLSN OVC046 M19/M20 A2892 RMK PK WND 17038/2211 WSHFT 2125 1825 PRESFR SLP798=
0183896640876012017082105554-77850+166667FM-15+002499999V0209999V00261005181CN000800199-01601-01701097261ADDGA1081+005181999GE19MSL   +99999+99999GF199999081999005181999999MA1999995096845MW1731REMMET067METAR NZCM 210555Z VRB05KT 0800 SN OVC017 M16/M17 A2970 RMK SLP726=EQDQ011005.83APOA  
0215896640876012017082106004-77850+166667FM-12+002499999V0209999V00261005101CN000800199-01571-01731097261ADDAY171021AY231021GA1081+005101061GE19MSL   +99999+99999GF108991081999005101999999MA1097205096831MD1610271+9999MW1731REMSYN08889664 41408 89905 11157 21173 39683 49726 56027 77373 885// 333 56399 88617 90068 90150=
0226896640876012017082111554-77850+166667FM-15+002499999V0201501N01131021341CN004800199-01201-01301096301ADDGA1081+021341999GE19MSL   +99999+99999GF199999081999021341999999MA1096271095895MW1381MW2711OC101751OD149902051180REMMET101METAR NZCM 211155Z 15022G34KT 4800 -SN BLSN OVC070 M12/M13 A2843 RMK PK WND 18040/0801 PRESFR SLP630=
0282896640876012017082112004-77850+166667FM-12+002499999V0201501N01131021001CN004800199-01201-01341096301ADDAA124002031AY171021AY231021GA1081+021001041GE19MSL   +99999+99999GF108991081999021001999999KA1240M-01151KA2240N-01911MA1096245095871MD1810471+9999MW1711REMSYN11889664 11848 81522 11120 21134 39587 49630 58047 60024 77173 8802/ 333 01840 11115 21191 56039 88457 90068 90205 96038=
0223896640876012017082117554-77850+166667FM-15+002499999V0203401N00571008531CN003200199-01201-01301105562ADDGA1081+008531999GE19MSL   +99999+99999GF199999081999008531999999MA1095501999999MW1381MW2711OC101081OD149901851150REMMET098METAR NZCM 211755Z COR 34011G21KT 3200 -SN BLSN OVC028 M12/M13 A2820 RMK PK WND 15036/1201 SLP556=
0231896640876012017082118004-77850+166667FM-12+002499999V0203401N00571008401CN003200199-01181-01311999999ADDAY171021AY231021GA1081+008401061GE19MSL   +99999+99999GF108991081999008401999999MD1810361+9999MW1711REMSYN10089664 41532 83411 11118 21131 39814 49556 58036 77173 885// 333 01536 56399 88628 90068 90261 96038=EQDQ01981.4 3APOSP 
0165896640876012017082123554-77850+166667FM-15+002499999V0209999V00261004881CN001600199-01101-01201105282ADDGA1081+004881999GE19MSL   +99999+99999GF199999081999004881999999MA1095222999999MW1711REMMET068METAR NZCM 212355Z VRB05KT 1600 -SN OVC016 M11/M12 A2812 RMK SLP528=
0266896640876012017082200004-77850+166667FM-12+002499999V0209999V00261004801CN001600199-01081-01201999999ADDAY171021AY271021GA1081+004801061GE19MSL   +99999+99999GF108991081999004801999999KA1120M-01081KA2120N-01371MA1999999094861MD1990001+9999MW1711REMSYN09489664 41416 89905 11108 21120 39486 49528 50000 77177 885// 333 11108 21137 56399 88616 90068=EQDQ01952.8 3APOSLP
0165896640876012017082205554-77850+166667FM-15+002499999V0201301N00621008531CN001600199-01201-01301105572ADDGA1081+008531999GE19MSL   +99999+99999GF199999081999008531999999MA1095531999999MW1711REMMET068METAR NZCM 220555Z 13012KT 1600 -SN OVC028 M12/M13 A2821 RMK SLP557=
0209896640876012017082206004-77850+166667FM-12+002499999V0201301N00621008401CN001600199-01241-01321095572ADDAY171021AY271021GA1081+008401061GE19MSL   +99999+99999GF108991081999008401999999MA1095525095151MD1310161+9999MW1711REMSYN08289664 41516 81312 11124 21132 39515 49557 53016 77177 885// 333 56399 88628 90068=
0218896640876012017082211554-77850+166667FM-15+002499999V0201701N01291000611WN000200199-01801-02001096282ADDGA1091+000611999GE19MSL   +99999+99999GF109991091999000611999999MA1096241095865MW1381MW2711OC101851OD149902161180REMMET093METAR NZCM 221155Z 17025G36KT 0200 -SN BLSN VV002 M18/M20 A2842 RMK PK WND 18042/0847 SLP628=
0270896640876012017082212004-77850+166667FM-12+002499999V0201701N01291000601WN000200199-01801-01971096282ADDAA124007031AY171021AY231021GA1091+000601999GE19MSL   +99999+99999GF109991091999000601999999KA1240M-01071KA2240N-01811MA1096235095861MD1110371+9999MW1711REMSYN10689664 11/02 91725 11180 21197 39586 49628 51037 60074 77173 333 01842 11107 21181 89/02 90068 90245 96038=
0218896640876012017082217554-77850+166667FM-15+002499999V0201801N01801000301WN000100199-01801-02001096872ADDGA1091+000301999GE19MSL   +99999+99999GF109991091999000301999999MA1096821096445MW1381MW2711OC102321OD149903241180REMMET093METAR NZCM 221755Z 18035G45KT 0100 -SN BLSN VV001 M18/M20 A2859 RMK PK WND 18063/1553 SLP687=
0215896640876012017082218004-77850+166667FM-12+002499999V0201801N01801000301WN000100199-01841-01991096871ADDAY171021AY231021GA1091+000301999GE19MSL   +99999+99999GF109991091999000301999999MA1096825096451MD1990201+9999MW1711REMSYN08889664 41/01 91835 11184 21199 39645 49687 50020 77173 333 01863 89/01 90068 90265 96038=
0190896640876012017082223554-77850+166667FM-15+002499999V0201901N009819999999N009999199-01605-01805097011ADDMA1096955999999MW1361MW2711OC101291OD149903031190REMMET110METAR NZCM 222355Z 19019G25KT 9999 -SN DRSN VCBLSN OVC075 M16/M18 A2863 RMK PK WND 19059/2131 SLP701 VCBLSN S=EQDD01      0ADE693
0271896640876012017082300004-77850+166667FM-12+002499999V0201901N00981021001CN011000199-01591-01801097011ADDAY171021AY231021GA1081+021001041GE19MSL   +99999+99999GF108991081999021001999999KA1120M-01581KA2120N-01841MA1096955096581MD1990101+9999MW1711REMSYN11889664 41861 81919 11159 21180 39658 49701 50010 77173 8801/ 333 01959 11158 21184 56039 88457 90068 90107 90207 96036=
0165896640876012017082305554-77850+166667FM-15+002499999V0200401N00461010971CN008000199-01401-01601096961ADDGA1081+010971999GE19MSL   +99999+99999GF199999081999010971999999MA1096921096545MW1711REMMET068METAR NZCM 230555Z 04009KT 8000 -SN OVC036 M14/M16 A2862 RMK SLP696=
0183896640876012017082311554-77850+166667FM-15+002499999V0202001N00881015241CN004800199-01301-01401097021ADDGA1081+015241999GE19MSL   +99999+99999GF199999081999015241999999MA1096951096605MW1381OC101291REMMET078METAR NZCM 231155Z 20017G25KT 4800 BLSN OVC050 M13/M14 A2863 RMK SNE15 SLP702=
0193896640876012017082317554-77850+166667FM-15+002499999V0201701N01391030481CN001200199-01401-01501097031ADDGA1081+030481999GE19MSL   +99999+99999GF199999081999030481999999MA1096991096615MW1381OC101701REMMET088METAR NZCM 231755Z 17027G33KT 1200 BLSN OVC100 M14/M15 A2864 RMK PK WND 17037/33 SLP703=
0215896640876012017082318004-77850+166667FM-12+002499999V0201701N01391030001CN001200199-01441-01531097031ADDAY131021AY231021GA1081+030001041GE19MSL   +99999+99999GF108991081999030001999999MA1096975096601MD1110111+9999MW1381REMSYN08889664 41912 81727 11144 21153 39660 49703 51011 73833 8802/ 333 01737 56039 88460 90061=
0281896640876012017082323554-77850+166667FM-15+002499999V0201301N008810213419N003200199-01501-01601097691ADDGA1021+009141999GA2071+021341999GE19MSL   +99999+99999GF199999021999009141999999MA1097631097275MW1381MW2711OC101601OD149902671190REMMET140METAR NZCM 232355Z 13017G31KT 3200 -SN BLSN FEW030 BKN070 M15/M16 A2883 RMK PK WND 19052/2219 WSHFT 50 VIS SW-NW 9999 SNB1820 PRESRR SLP769=
0287896640876012017082400004-77850+166667FM-12+002499999V0201301N00881021001CN003200199-01511-01631097691ADDAY171021AY231021GA1011+009001081GA2071+021001031GE19MSL   +99999+99999GF107991011999009001999999KA1120M-01261KA2120N-01551MA1097635097261MD1310451+9999MW1711REMSYN11889664 41532 71317 11151 21163 39726 49769 53045 77173 81170 333 01952 11126 21155 56330 81830 87357 90057 90267 96038=
0235896640876012017082405554-77850+166667FM-15+002499999V0201701N01441009141CN000800199-01601-01701097911ADDGA1071+009141999GE19MSL   +99999+99999GF199999071999009141999999MA1097871097485MW1381MW2711OC102011OD149902881190REMMET110METAR NZCM 240555Z 17028G39KT 0800 -SN BLSN BKN030 M16/M17 A2890 RMK PK WND 19056/0314 WSHFT 0218 0014 SLP791=
0227896640876012017082406004-77850+166667FM-12+002499999V0201701N01441009001CN000800199-01611-01701097911ADDAY171021AY231021GA1071+009001061GE19MSL   +99999+99999GF107991071999009001999999MA1097855097481MD1310261+9999MW1711REMSYN10089664 41508 71728 11161 21170 39748 49791 53026 77173 87500 333 01956 56300 87630 90066 90268 96038=
0210896640876012017082411554-77850+166667FM-15+002499999V0201801N01081003051CN000800199-01501-01601098151ADDGA1081+003051999GE19MSL   +99999+99999GF199999081999003051999999MA1098101097725MW1381MW2711OC102011REMMET099METAR NZCM 241155Z 18021G39KT 0800 -SN BLSN OVC010 M15/M16 A2897 RMK PK WND 19058/11 PRESRR SLP815=
0282896640876012017082412004-77850+166667FM-12+002499999V0201801N01081003001CN000800199-01521-01641098151ADDAA124001031AY171021AY231021GA1081+003001061GE19MSL   +99999+99999GF108991081999003001999999KA1240M-01401KA2240N-01611MA1098095097721MD1110061+9999MW1711REMSYN11889664 11408 81821 11152 21164 39772 49815 51006 60014 77173 885// 333 01958 11140 21161 56399 88610 90067 90268 96038=
0195896640876012017082417554-77850+166667FM-15+002499999V0200501N00211030481CN009999199-01401-01601098121ADDGA1081+030481999GE19MSL   +99999+99999GF199999081999030481999999MA1098071097705OD149902931190REMMET090METAR NZCM 241755Z 05004KT 9999 OVC100 M14/M16 A2896 RMK PK WND 19057/1223 SNE1330 SLP812=
0178896640876012017082423554-77850+166667FM-15+002499999V0203501N00671039621CN009999199-01401-01601098111ADDGA1041+027431999GA2041+039621999GE19MSL   +99999+99999GF199999041999027431999999MA1098071097695REMMET071METAR NZCM 242355Z 35013KT 9999 SCT090 SCT130 M14/M16 A2896 RMK SLP811=
0166896640876012017082505554-77850+166667FM-15+002499999V0203401N006219999999N009999199-01601-01701097991ADDGA1021+027431999GE19MSL   +99999+99999GF199999021999027431999999MA1097931097565OC100931REMMET067METAR NZCM 250555Z 34012G18KT 9999 FEW090 M16/M17 A2892 RMK SLP799=
0175896640876012017082506004-77850+166667FM-12+002499999V0203401N006212200019N011000199-01561-01741097991ADDGA1011+027001031GE19MSL   +99999+99999GF101991011999027001999999MA1097955097581MD1610051+9999REMSYN07089664 42961 13412 11156 21174 39758 49799 56005 81070 333 56030 81359=
0114896640876012017082511554-77850+166667FM-15+002499999V0200301N002112200019N009999199-01701-01901097761ADDGF100991999999999999999999MA1097701097335REMMET061METAR NZCM 251155Z 03004KT 9999 SKC M17/M19 A2885 RMK SLP776=
0175896640876012017082517554-77850+166667FM-15+002499999V0201001N00931000911CN001600199-02401-02701097591ADDGA1081+000911999GE19MSL   +99999+99999GF199999081999000911999999MA1097531097155MW1101OC101291REMMET070METAR NZCM 251755Z 10018G25KT 1600 BR OVC003 M24/M27 A2880 RMK SLP759=
0223896640876012017082523554-77850+166667FM-15+002499999V0200601N00771002131CN001600199-02501-02701097601ADDGA1081+002131999GE19MSL   +99999+99999GF199999081999002131999999MA1097531097165MW1101MW2711OC101131OD149901541090REMMET098METAR NZCM 252355Z 06015G22KT 1600 -SN BR OVC007 M25/M27 A2880 RMK PK WND 09030/2121 SNB00 SLP760=
0259896640876012017082600004-77850+166667FM-12+002499999V0200601N00771002101CN001600199-02481-02691097601ADDAY171021AY221021GA1081+002101071GE19MSL   +99999+99999GF108991081999002101999999KA1120M-01771KA2120N-02691MA1097635097261MD1110061+9999MW1711REMSYN10689664 41316 80615 11248 21269 39726 49760 51006 77172 887// 333 11177 21269 56299 88707 90010 90210 96010=
0186896640876012017082605554-77850+166667FM-15+002499999V0209999V003110579119N009999199-02401-02801097401ADDGA1021+001521999GA2071+057911999GE19MSL   +99999+99999GF199999021999001521999999MA1097321096965REMMET079METAR NZCM 260555Z VRB06KT 9999 FEW005 BKN190 M24/M28 A2874 RMK SNE0130 SLP740=
0231896640876012017082606004-77850+166667FM-12+002499999V0209999V00311057001CN011000199-02361-02811097401ADDAY171021AY221021GA1011+001501071GA2071+057001021GE19MSL   +99999+99999GF107991011999001501999999MA1097335096961MD1610121+9999MW1021REMSYN08889664 41261 79906 11236 21281 39696 49740 56012 70272 81606 333 56202 81705 87269 90145=
0191896640876012017082611554-77850+166667FM-15+002499999V0201301N00721048771CN009999199-02001-02701097321ADDGA1071+048771999GE19MSL   +99999+99999GF199999071999048771999999MA1097261096895OC101391REMMET092METAR NZCM 261155Z 13014G27KT 9999 BKN160 M20/M27 A2872 RMK PK WND 15034/27 WSHFT 08 SLP732=
0236896640876012017082612004-77850+166667FM-12+002499999V0201301N007210480019N011000199-02001-02691097321ADDAA124000021GA1051+048001021GE19MSL   +99999+99999GF105991051999048001999999KA1240M-01991KA2240N-02681MA1097255096881MD1510011+9999REMSYN09489664 12961 51314 11200 21269 39688 49732 55001 69904 80008 333 01534 11199 21268 56002 85266=
0189896640876012017082617554-77850+166667FM-15+002499999V0200801N006710487719N009999199-02101-02801097371ADDGA1041+016761999GA2071+048771999GE19MSL   +99999+99999GF199999041999016761999999MA1097291096945OC100931REMMET074METAR NZCM 261755Z 08013G18KT 9999 SCT055 BKN160 M21/M28 A2873 RMK SLP737=
0209896640876012017082623554-77850+166667FM-15+002499999V0201501N00261048771CN009999199-02101-02901097401ADDGA1021+016761999GA2021+027431999GA3041+048771999GE19MSL   +99999+99999GF199999021999016761999999MA1097321096975REMMET086METAR NZCM 262355Z 15005KT 9999 FEW055 FEW090 SCT160 M21/M29 A2874 RMK ACSL SW SLP740=
0196896640876012017082705554-77850+166667FM-15+002499999V0200901N00311014331CN009999199-02101-02901097221ADDGA1071+014331999GA2071+048771999GE19MSL   +99999+99999GF199999071999014331999999MA1097161096795MW1711REMMET083METAR NZCM 270555Z 09006KT 9999 -SN BKN047 BKN160 M21/M29 A2869 RMK SNB0430 SLP722=
0219896640876012017082711554-77850+166667FM-15+002499999V0200601N00981013721CN003200199-02501-03201097011ADDGA1081+013721999GE19MSL   +99999+99999GF199999081999013721999999MA1096951096575MW1381MW2711OC101341OD149901541040REMMET094METAR NZCM 271155Z 06019G26KT 3200 -SN BLSN OVC045 M25/M32 A2863 RMK PK WND 04030/1021 SLP701=
0282896640876012017082712004-77850+166667FM-12+002499999V0200601N00981013501CN003200199-02551-03241097011ADDAA124000021AY171021AY231021GA1081+013501061GE19MSL   +99999+99999GF108991081999013501999999KA1240M-02081KA2240N-02571MA1096945096571MD1610101+9999MW1711REMSYN11889664 11632 80619 11255 21324 39657 49701 56010 69904 77173 885// 333 00430 11208 21257 56299 88645 90062 90233 96038=
0219896640876012017082717554-77850+166667FM-15+002499999V0200801N00931012801CN008000199-02801-03401096811ADDGA1081+012801999GE19MSL   +99999+99999GF199999081999012801999999MA1096751096375MW1381MW2711OC101291OD149901541070REMMET094METAR NZCM 271755Z 08018G25KT 8000 -SN BLSN OVC042 M28/M34 A2857 RMK PK WND 07030/1459 SLP681=
0221896640876012017082718004-77850+166667FM-12+002499999V0200801N00931012601CN008000199-02811-03371096811ADDAY171021AY231021GA1081+012601061GE19MSL   +99999+99999GF108991081999012601999999MA1096745096371MD1810091+9999MW1711REMSYN09489664 41658 80818 11281 21337 39637 49681 58009 77173 885// 333 56799 88642 90067 90264 96038=
0242896640876012017082723554-77850+166667FM-15+002499999V0200901N007210548619N006000199-03001-03501096771ADDGA1041+003051999GA2071+054861999GE19MSL   +99999+99999GF199999041999003051999999MA1096711096325MW1381MW2711OC101131OD149901391090REMMET101METAR NZCM 272355Z 09014G22KT 6000 -SN BLSN SCT010 BKN180 M30/M35 A2856 RMK PK WND 09027/1924 SLP677=
0258896640876012017082723584-77850+166667FM-15+002499999V0200801N010810457219N009999199-03101-03701096771ADDGA1041+009141999GA2071+045721999GE19MSL   +99999+99999GF199999041999009141999999MA1096681096325MW1361MW2711OC101441OD149901491080REMMET117METAR NZCM 272358Z 08021G28KT 9999 -SN DRSN SCT030 BKN150 M31/M37 A2855 RMK PK WND 08029/0338 SLP677 BLSN DSNT SE-SW=
0281896640876012017082800004-77850+166667FM-12+002499999V0200901N00721054001CN006000199-02961-03471096771ADDAY171021AY231021GA1041+003001071GA2041+054001001GE19MSL   +99999+99999GF107991041999003001999999KA1120M-02571KA2120N-02961MA1096705096331MD1510001+9999MW1711REMSYN11289664 41456 70914 11296 21347 39633 49677 55000 77173 84602 333 11257 21296 56707 84710 84068 90068 90267 96038=
0258896640876012017082805554-77850+166667FM-15+002499999V0200801N010810457219N009999199-03101-03701096771ADDGA1041+009141999GA2071+045721999GE19MSL   +99999+99999GF199999041999009141999999MA1096681096325MW1361MW2711OC101441OD149901491080REMMET117METAR NZCM 280555Z 08021G28KT 9999 -SN DRSN SCT030 BKN150 M31/M37 A2855 RMK PK WND 08029/0338 SLP677 BLSN DSNT SE-SW=
0243896640876012017082806004-77850+166667FM-12+002499999V0200801N01081045001CN011000199-03131-03691096771ADDAY171021AY231021GA1041+009001061GA2041+045001001GE19MSL   +99999+99999GF107991041999009001999999MA1096695096321MD1210031+9999MW1711REMSYN10089664 41561 70821 11313 21369 39632 49677 52003 77173 84502 333 56707 84630 84065 90068 90110 96036=
0213896640876012017082811554-77850+166667FM-15+002499999V0200701N00931018291CN003200199-03301-03901096981ADDGA1071+018291999GE19MSL   +99999+99999GF199999071999018291999999MA1096905096535MW1381MW2711OC101291OD149901541060REMMET088METAR NZCM 281155Z 07018G25KT 3200 -SN BLSN BKN060 M33/M39 RMK PK WND 06030/0853 SLP698=
0276896640876012017082812004-77850+166667FM-12+002499999V0200701N00931018001CN003200199-03331-03901096981ADDAA124000021AY171021AY231021GA1071+018001061GE19MSL   +99999+99999GF107991071999018001999999KA1240M-02941KA2240N-03341MA1096915096541MD1310141+9999MW1711REMSYN11289664 11732 70718 11333 21390 39654 49698 53014 69904 77173 87500 333 11294 21334 56700 87656 90068 90248 96038=
0187896640876012017082817554-77850+166667FM-15+002499999V0200601N01181016761CN003200199-03501-04001097331ADDGA1081+016761999GE19MSL   +99999+99999GF199999081999016761999999MA1097261096875MW1381MW2711OC101601REMMET076METAR NZCM 281755Z 06023G31KT 3200 -SN BLSN OVC055 M35/M40 A2872 RMK SLP733=
0221896640876012017082818004-77850+166667FM-12+002499999V0200601N01181015001CN003200199-03461-04051097331ADDAY171021AY231021GA1081+015001061GE19MSL   +99999+99999GF108991081999015001999999MA1097255096881MD1110191+9999MW1711REMSYN09489664 41732 80623 11346 21405 39688 49733 51019 77173 885// 333 56799 88650 90068 90265 96038=
0232896640876012017082823554-77850+166667FM-15+002499999V0200501N005710259119N009999199-03101-03601097801ADDGA1021+000001999GA2081+025911999GE19MSL   +99999+99999GF199999021999000001999999MA1097731097355OD149901391060REMMET111METAR NZCM 282355Z COR 05011KT 9999 FEW000 OVC085 M31/M36 A2886 RMK PK WND 06027/1844 SNE2215 SN FEW000 SLP780=
0247896640876012017082900004-77850+166667FM-12+002499999V0200501N00571024001CN011000199-03071-03611097801ADDAY171021AY231021GA1081+024001031GE19MSL   +99999+99999GF108991081999024001999999KA1120M-03061KA2120N-03491MA1097725097351MD1210231+9999MW1021REMSYN09489664 41961 80511 11307 21361 39735 49780 52023 70273 8807/ 333 11306 21349 56079 88358 90118=
0203896640876012017082905554-77850+166667FM-15+002499999V0200401N00771016761CN009999199-02801-03101097901ADDGA1021+001521999GA2021+016761999GE19MSL   +99999+99999GF199999021999001521999999MA1097831097455MW1761REMMET090METAR NZCM 290555Z 04015KT 9999 IC FEW005 FEW055 M28/M31 A2889 RMK SNB0115E00ICB00 SLP790=
0209896640876012017082906004-77850+166667FM-12+002499999V0200401N007712200019N011000199-02811-03101097901ADDAY171021AY211021GA1011+001501071GE19MSL   +99999+99999GF102991011999001501999999MA1097835097461MD1210021+9999MW1761REMSYN08289664 41261 20415 11281 21310 39746 49790 52002 77671 82500 333 56700 81705 90048=
0163896640876012017082911554-77850+166667FM-15+002499999V0209999C000019999999N009999199-03001-03501098021ADDGA1021+016761999GE19MSL   +99999+99999GF199999021999016761999999MA1097931097575REMMET072METAR NZCM 291155Z 00000KT 9999 FEW055 M30/M35 A2892 RMK ICE0730 SLP802=
0264896640876012017082912004-77850+166667FM-12+002499999V0209999C000012200019N011000199-03021-03541098021ADDAA124000021AY171021AY201021GA1011+015001061GE19MSL   +99999+99999GF101991011999015001999999KA1240M-02801KA2240N-03241MA1097955097581MD1990021+9999MW1021REMSYN10089664 11761 10000 11302 21354 39758 49802 50002 69904 70270 81500 333 11280 21324 56700 81650 90145=
0155896640876012017082917554-77850+166667FM-15+002499999V0209999C000019999999N009999199-03101-03601097971ADDGA1021+016761999GE19MSL   +99999+99999GF199999021999016761999999MA1097901097525REMMET064METAR NZCM 291755Z 00000KT 9999 FEW055 M31/M36 A2891 RMK SLP797=
0175896640876012017082918004-77850+166667FM-12+002499999V0209999C000012200019N011000199-03071-03601097971ADDGA1021+015001061GE19MSL   +99999+99999GF102991021999015001999999MA1097905097531MD1710021+9999REMSYN07089664 42761 20000 11307 21360 39753 49797 57002 82500 333 56300 82650=
0178896640876012017082923554-77850+166667FM-15+002499999V0200801N004610182919N009999199-03001-03501098011ADDGA1021+000911999GA2071+018291999GE19MSL   +99999+99999GF199999021999000911999999MA1097931097565REMMET071METAR NZCM 292355Z 08009KT 9999 FEW003 BKN060 M30/M35 A2892 RMK SLP801=
0235896640876012017083000004-77850+166667FM-12+002499999V0200801N00461018001CN011000199-02961-03491098011ADDGA1011+000901071GA2071+018001061GE19MSL   +99999+99999GF107991011999000901999999KA1120M-02861KA2120N-03341MA1097935097561MD1110031+9999REMSYN08889664 42161 70809 11296 21349 39756 49801 51003 87500 333 11286 21334 56300 81703 87656=
0175896640876012017083005554-77850+166667FM-15+002499999V0200601N00881057911CN009000199-03101-03801098021ADDGA1071+057911999GE19MSL   +99999+99999GF199999071999057911999999MA1097931097575MW1101OC101241REMMET070METAR NZCM 300555Z 06017G24KT 9000 BR BKN190 M31/M38 A2892 RMK SLP802=
0209896640876012017083006004-77850+166667FM-12+002499999V0200801N008810540019N009000199-03151-03811098021ADDAY121021AY221021GA1061+054001021GE19MSL   +99999+99999GF106991061999054001999999MA1097945097571MD1310061+9999MW1101REMSYN08289664 41959 60817 11315 21381 39757 49802 53006 71022 80006 333 56007 86268 90030=
0182896640876012017083011554-77850+166667FM-15+002499999V0200601N00931009141CN009999199-03301-04001098181ADDGA1071+009141999GE19MSL   +99999+99999GF199999071999009141999999MA1098101097725MW1361MW2711REMMET079METAR NZCM 301155Z 06018KT 9999 -SN DRSN BKN030 M33/M40 A2897 RMK SNB15 SLP818=
0270896640876012017083012004-77850+166667FM-12+002499999V0200601N00931009001CN011000199-03271-03961098181ADDAA124000021AY171021AY221021GA1071+009001061GE19MSL   +99999+99999GF107991071999009001999999KA1240M-02861KA2240N-03361MA1098105097731MD1990071+9999MW1711REMSYN10689664 11561 70618 11327 21396 39773 49818 50007 69904 77172 87500 333 11286 21336 56700 87630 90008 96036=
0223896640876012017083017554-77850+166667FM-15+002499999V0200501N00981018291CN009000199-03201-03901098281ADDGA1081+018291999GE19MSL   +99999+99999GF199999081999018291999999MA1098201097825MW1381MW2711OC101341OD149901441060REMMET098METAR NZCM 301755Z COR 05019G26KT 9000 -SN BLSN OVC060 M32/M39 A2900 RMK PK WND 06028/1639 SLP828=
0221896640876012017083018004-77850+166667FM-12+002499999V0200501N00981018001CN009000199-03231-03871098281ADDAY171021AY231021GA1081+018001061GE19MSL   +99999+99999GF108991081999018001999999MA1098205097831MD1110081+9999MW1711REMSYN09489664 41759 80519 11323 21387 39783 49828 51008 77173 885// 333 56199 88656 90061 90238 96038=
0212896640876012017083023554-77850+166667FM-15+002499999V0201201N00621015241CN009999199-02901-03601098331ADDGA1071+015241999GA2071+030481999GE19MSL   +99999+99999GF199999071999015241999999MA1098241097885OC101081REMMET097METAR NZCM 302355Z 12012G21KT 9999 BKN050 BKN100 M29/M36 A2901 RMK SNE1810 SLP833 SN DSNT SE-S-W=
0250896640876012017083105554-77850+166667FM-15+002499999V0200801N005710274319N004800199-02801-03401098341ADDGA1041+012191999GA2081+027431999GE19MSL   +99999+99999GF199999041999012191999999MA1098271097895MW1381MW2711OC100881OD149901641160REMMET109METAR NZCM 310555Z 08011G17KT 4800 -SN BLSN SCT040 OVC090 M28/M34 A2902 RMK PK WND 16032/0337 SNB0030 SLP834=
0249896640876012017083106004-77850+166667FM-12+002499999V0200801N005710270019N004800199-02841-03371098341ADDAY171021AY231021GA1041+012001061GA2051+027001031GE19MSL   +99999+99999GF108991041999012001999999MA1098265097891MD1310041+9999MW1711REMSYN10689664 41648 80811 11284 21337 39789 49834 53004 77173 8457/ 333 56119 84640 85359 90055 90248 96038 96438=
0204896640876012017083111554-77850+166667FM-15+002499999V0209999V00261024381CN009999199-02701-03501097991ADDGA1071+024381999GA2071+054861999GE19MSL   +99999+99999GF199999071999024381999999MA1097931097545REMMET097METAR NZCM 311155Z VRB05KT 9999 BKN080 BKN180 M27/M35 A2892 RMK PK WND 11026/0725 SNE0630 SLP799=
0229896640876012017083112004-77850+166667FM-12+002499999V0201801N031422200019N011000199-02731-03491097991ADDGA1999+008001999GE19MSL   +99999+99999GF101991999999008001999999MA1097915097541MD1810241+9999REMSYN12489664 11561 11861 11273 21349 39754 49799 58024 59905 69904 70173 85028 333 11267 21292 56022 85458 90155 90325 96471 96538=
0204896640876012017083112554-77850+166667FM-15+002499999V0209999V00261024381CN009999199-02701-03501097991ADDGA1071+024381999GA2071+054861999GE19MSL   +99999+99999GF199999071999024381999999MA1097931097545REMMET097METAR NZCM 311255Z VRB05KT 9999 BKN080 BKN180 M27/M35 A2892 RMK PK WND 11026/0725 SNE0630 SLP799=
0155896640876012017083117554-77850+166667FM-15+002499999V0209999C000019999999N009999199-03001-03701097571ADDGA1021+054861999GE19MSL   +99999+99999GF199999021999054861999999MA1097491097125REMMET064METAR NZCM 311755Z 00000KT 9999 FEW180 M30/M37 A2879 RMK SLP757=
0175896640876012017083118004-77850+166667FM-12+002499999V0209999C000012200019N011000199-02981-03721097571ADDGA1021+054001001GE19MSL   +99999+99999GF102991021999054001999999MA1097495097121MD1610221+9999REMSYN07089664 42961 20000 11298 21372 39712 49757 56022 80001 333 56002 82068=
0160896640876012017083123554-77850+166667FM-15+002499999V0209999C00001030481CN009999199-03201-03801097091ADDGA1071+030481999GE19MSL   +99999+99999GF199999071999030481999999MA1097021096645REMMET069METAR NZCM 312355Z AUTO 00000KT 9999 BKN100 M32/M38 A2865 RMK SLP709=
0224896640876012017090100004-77850+166667FM-12+002499999V0200601N000512200019N016000199-03081-03731097081ADDAA124999919AY141021AY241021GE19MSL   +99999+99999GF104991999999999999999999KA1120M-02691KA2120N-03311MA1097015096641MD1610251+9999MW1001REMSYN07689664 44966 40601 11308 21373 39664 49708 56025 6///4 70044 333 11269 21331=
0201896640876012017090105554-77850+166667FM-15+002499999V0209999C00001027431CN009999199-02801-03601096681ADDGA1021+015241999GA2041+027431999GA3041+054861999GE19MSL   +99999+99999GF199999021999015241999999MA1096611096245REMMET078METAR NZCM 010555Z 00000KT 9999 FEW050 SCT090 SCT180 M28/M36 A2853 RMK SLP668=
0213896640876012017090106004-77850+166667FM-12+002499999V0209999C000012200019N011000199-02841-03611096681ADDGA1011+015001061GA2031+027001031GA3999+999999021GE19MSL   +99999+99999GF104991011999015001999999MA1096605096231MD1310191+9999REMSYN07689664 42761 40000 11284 21361 39623 49668 53019 81538 333 56222 81650 83359=
0189896640876012017090111554-77850+166667FM-15+002499999V0203401N007210457219N009999199-02401-03001096381ADDGA1021+015241999GA2071+045721999GE19MSL   +99999+99999GF199999021999015241999999MA1096311095955OC101131REMMET074METAR NZCM 011155Z 34014G22KT 9999 FEW050 BKN150 M24/M30 A2844 RMK SLP638=
0252896640876012017090112004-77850+166667FM-12+002499999V0203401N00721045001CN011000199-02391-02971096381ADDAA124000091GA1011+015001061GA2061+045001021GE19MSL   +99999+99999GF106991011999015001999999KA1240M-02371KA2240N-03351MA1096315095941MD1810151+9999REMSYN09489664 12761 63414 11239 21297 39594 49638 58015 60004 81506 333 11237 21335 56202 81650 86265=
0154896640876012017090117554-77850+166667FM-15+002499999V0201601N012419999999N009999199-02105-02905096501ADDMA1096445999999MW1165OC101601REMMET094METAR NZCM 011755Z 16024G31KT 9999 VCBLSN FEW030 OVC090 M21/M29 A2848 RMK SLP650 VCBLSN SE-SW=EQDD01      0ADE735
0232896640876012017090123554-77850+166667FM-15+002499999V0201501N005110274319N008000199-01801-02201096661ADDGA1041+015241999GA2081+027431999GE19MSL   +99999+99999GF199999041999015241999999MA1096581096245MW1381OC101031OD149902311160REMMET097METAR NZCM 012355Z 15010G20KT 8000 BLSN SCT050 OVC090 M18/M22 A2852 RMK PK WND 16045/1857 SLP666=
0275896640876012017090200004-77850+166667FM-12+002499999V0201501N005110270019N008000199-01771-02221096661ADDAY131021AY221021GA1031+015001061GA2061+027001041GE19MSL   +99999+99999GF108991031999015001999999KA1120M-01771KA2120N-02401MA1096605096231MD1110121+9999MW1381REMSYN10689664 41758 81510 11177 21222 39623 49666 51012 73832 8352/ 333 01645 11177 21240 56449 83650 86459 90058=
0201896640876012017090205554-77850+166667FM-15+002499999V0201501N004110228619N009999199-01801-02401096651ADDGA1021+015241999GA2071+022861999GA3081+027431999GE19MSL   +99999+99999GF199999021999015241999999MA1096581096235REMMET078METAR NZCM 020555Z 15008KT 9999 FEW050 BKN075 OVC090 M18/M24 A2852 RMK SLP665=
0237896640876012017090206004-77850+166667FM-12+002499999V0201501N00411021001CN011000199-01811-02431096651ADDAY131021AY221021GA1021+015001061GA2041+021001031GE19MSL   +99999+99999GF108991021999015001999999MA1096595096221MD1310041+9999MW1031REMSYN09489664 42761 81508 11181 21243 39622 49665 53004 70332 8257/ 333 56449 82650 84357 90342 96438=
0182896640876012017090211554-77850+166667FM-15+002499999V0201501N00771015241CN009999199-01701-02201097061ADDGA1081+015241999GE19MSL   +99999+99999GF199999081999015241999999MA1096991096645OC101131REMMET083METAR NZCM 021155Z 15015G22KT 9999 OVC050 M17/M22 A2864 RMK PK WND 18027/32 SLP706=
0230896640876012017090212004-77850+166667FM-12+002499999V0201501N00771015001CN011000199-01681-02231097061ADDAA124000091GA1081+015001061GE19MSL   +99999+99999GF108991081999015001999999KA1240M-01591KA2240N-02091MA1097005096631MD1210291+9999REMSYN08889664 12761 81515 11168 21223 39663 49706 52029 60004 885// 333 11159 21209 56499 88650=
0239896640876012017090217554-77850+166667FM-15+002499999V0201501N010810304819N008000199-02001-02401097601ADDGA1021+015241999GA2071+030481999GA3081+036581999GE19MSL   +99999+99999GF199999021999015241999999MA1097531097175MW1381OC101341REMMET102METAR NZCM 021755Z 15021G26KT 8000 BLSN FEW050 BKN100 OVC120 M20/M24 A2880 RMK PK WND 16038/24 SLP760=
0253896640876012017090218004-77850+166667FM-12+002499999V0201501N01081030001CN008000199-01971-02441097601ADDAY131021AY221021GA1011+015001061GA2051+030001031GA3999+999999021GE19MSL   +99999+99999GF108991011999015001999999MA1097535097161MD1310381+9999MW1381REMSYN09489664 41758 81521 11197 21244 39716 49760 53038 73832 81577 333 01638 56444 81650 85360 90023=
0274896640876012017090223554-77850+166667FM-15+002499999V0201401N010310228619N009999199-02001-02801097921ADDGA1021+010671999GA2071+022861999GA3071+027431999GE19MSL   +99999+99999GF199999021999010671999999MA1097871097495OC101441REMMET143METAR NZCM 022355Z 14020G28KT 9999 FEW035 BKN075 BKN090 M20/M28 A2890 RMK PK WND 14034/34 ACSL S-W APPRNT ROTOR CLOUD S SLP792 BLSN DSNT SE-SW=
0281896640876012017090300004-77850+166667FM-12+002499999V0201401N010319999999N011000199-02001-02791097921ADDAY131021AY221021GA1011+010501061GA2041+021001031GE19MSL   +99999+99999GF107991011999010501999999KA1120M-01641KA2120N-02081MA1097855097481MD1110151+9999MW1021REMSYN11289664 41661 71420 11200 21279 39748 49792 51015 70232 82540 333 01434 11164 21208 56440 81635 84357 90333 96438=
0215896640876012017090305554-77850+166667FM-15+002499999V0200701N00511015241CN009999199-02001-02801098331ADDGA1071+015241999GA2071+024381999GE19MSL   +99999+99999GF199999071999015241999999MA1098271097895REMMET108METAR NZCM 030555Z 07010KT 9999 BKN050 BKN080 M20/M28 A2902 RMK PK WND 16032/0300 ACSL W SLP833 BLSN DSNT S=
0171896640876012017090311554-77850+166667FM-15+002499999V0201501N00881015241CN009999199-01901-02601098661ADDGA1081+015241999GE19MSL   +99999+99999GF199999081999015241999999MA1098611098235REMMET080METAR NZCM 031155Z 15017KT 9999 OVC050 M19/M26 A2912 RMK PK WND 15030/27 SLP866=
0173896640876012017090317554-77850+166667FM-15+002499999V0201201N00571015241CN009999199-01801-02401098961ADDGA1081+015241999GE19MSL   +99999+99999GF199999081999015241999999MA1098881098535MW1711REMMET076METAR NZCM 031755Z 12011KT 9999 -SN OVC050 M18/M24 A2920 RMK SNB1540 SLP896=
0209896640876012017090318004-77850+166667FM-12+002499999V0201201N00571015001CN011000199-01831-02451098961ADDAY171021AY221021GA1081+015001061GE19MSL   +99999+99999GF108991081999015001999999MA1098905098521MD1110201+9999MW1711REMSYN08289664 41761 81211 11183 21245 39852 49896 51020 77172 885// 333 56499 88650 90023=
0231896640876012017090323554-77850+166667FM-15+002499999V0209999C000010121919N009999199-01801-02701099131ADDGA1021+009141999GA2071+012191999GA3071+030481999GE19MSL   +99999+99999GF199999021999009141999999MA1099051098695REMMET108METAR NZCM 032355Z 00000KT 9999 FEW030 BKN040 BKN100 M18/M27 A2925 RMK SNE2000 ACSL NW SLP913 SN DSNT SE-SW=
0275896640876012017090400004-77850+166667FM-12+002499999V0209999C00001012001CN011000199-01781-02661099131ADDAY171021AY221021GA1011+009001061GA2061+012001061GE19MSL   +99999+99999GF107991011999009001999999KA1120M-01761KA2120N-02041MA1099065098681MD1110071+9999MW1151REMSYN10689664 41561 70000 11178 21266 39868 49913 51007 71572 87540 333 11176 21204 56400 81630 86640 90340 96471=
0224896640876012017090405554-77850+166667FM-15+002499999V0200901N005710274319N009999199-01801-02501099291ADDGA1021+009141999GA2071+027431999GA3071+039621999GE19MSL   +99999+99999GF199999021999009141999999MA1099221098855REMMET101METAR NZCM 040555Z 09011KT 9999 FEW030 BKN090 BKN130 M18/M25 A2930 RMK ACSL SW-W SLP929 SN DSNT SE-S=
0241896640876012017090406004-77850+166667FM-12+002499999V0200901N005719999999N011000199-01781-02551099291ADDAY121021AY221021GA1011+009001061GA2031+015001061GA3999+999999021GE19MSL   +99999+99999GF107991011999009001999999MA1099225098841MD1110101+9999MW1151REMSYN08289664 41561 70911 11178 21255 39884 49929 51010 71522 83598 333 56444 81630 83650=
0114896640876012017090411554-77850+166667FM-15+002499999V0209999C000012200019N009999199-02101-03001099331ADDGF100991999999999999999999MA1099251098895REMMET061METAR NZCM 041155Z 00000KT 9999 SKC M21/M30 A2931 RMK SLP933=
0148896640876012017090412004-77850+166667FM-12+002499999V0209999C000019999999N011000199-02121-02991099331ADDAA124000021KA1240M-01621KA2240N-02121MA1099275098891MD1110051+9999REMSYN07089664 12961 00000 11212 21299 39889 49933 51005 69904 333 11162 21212=
0125896640876012017090417554-77850+166667FM-15+002499999V0200501N011312200019N009999199-02401-03401099051ADDGF100991999999999999999999MA1098981098605OC101441REMMET064METAR NZCM 041755Z 05022G28KT 9999 SKC M24/M34 A2923 RMK SLP905=
0117896640876012017090418004-77850+166667FM-12+002499999V0200501N011319999999N011000199-02401-03361099051ADDAY101021AY201021MA1098985098601MD1810011+9999MW1361REMSYN05489664 41961 00522 11240 21336 39860 49905 58001 73600=
0208896640876012017090423554-77850+166667FM-15+002499999V0200401N012419999999N009999199-02501-03201098811ADDGA1041+010671999GE19MSL   +99999+99999GF199999041999010671999999MA1098711098365MW1361OC101391REMMET103METAR NZCM 042355Z 04024G27KT 9999 DRSN SCT035 M25/M32 A2915 RMK PK WND 05029/43 SLP881 FATA MORGANA W=
0247896640876012017090500004-77850+166667FM-12+002499999V0200401N012412200019N011000199-02471-03251098811ADDAY101021AY201021GA1031+010501061GE19MSL   +99999+99999GF103991031999010501999999KA1120M-01961KA2120N-02521MA1098755098371MD1610151+9999MW1361REMSYN09489664 41661 30424 11247 21325 39837 49881 56015 73600 83500 333 11196 21252 56200 83635 99116=
0220896640876012017090505554-77850+166667FM-15+002499999V0200801N007710057919N009999199-02601-03501098551ADDGA1021+003051999GA2071+005791999GE19MSL   +99999+99999GF199999021999003051999999MA1098481098105REMMET113METAR NZCM 050555Z 08015KT 9999 FEW010 BKN019 M26/M35 A2908 RMK SNB0245E0445 SLP855 SN DSNT SE-SW-NW BLSN DSNT W=
0237896640876012017090506004-77850+166667FM-12+002499999V0200801N00771005701CN011000199-02641-03581098551ADDAY171021AY211021GA1021+003001071GA2061+005701071GE19MSL   +99999+99999GF107991021999003001999999MA1098485098101MD1610131+9999MW1151REMSYN09489664 41461 70815 11264 21358 39810 49855 56013 71571 87700 333 56700 82710 86719 90313 96471=
0189896640876012017090511554-77850+166667FM-15+002499999V0200901N00881036581CN009999199-03001-03701098411ADDGA1021+005791999GA2041+036581999GE19MSL   +99999+99999GF199999021999005791999999MA1098341097965OC101241REMMET074METAR NZCM 051155Z 09017G24KT 9999 FEW019 SCT120 M30/M37 A2904 RMK SLP841=
0265896640876012017090512004-77850+166667FM-12+002499999V0200901N008812200019N011000199-02961-03701098411ADDAA124000091GA1011+005701061GA2999+999999021GE19MSL   +99999+99999GF103991011999005701999999KA1240M-02281KA2240N-03011MA1098335097961MD1610011+9999REMSYN08889664 42461 30917 11296 21370 39796 49841 56001 69904 81505 333 11228 21301 56707 81619=EQDQ01  00002PRCP24
0213896640876012017090517554-77850+166667FM-15+002499999V0200801N004619999999N009999199-02901-03501098511ADDGA1041+006101999GE19MSL   +99999+99999GF199999041999006101999999MA1098441098065MW1761OC100771OD149901331080REMMET094METAR NZCM 051755Z 08009G15KT 9999 IC SCT020 M29/M35 A2907 RMK PK WND 08026/1241 ICB30 SLP851=
0209896640876012017090518004-77850+166667FM-12+002499999V0200801N004612200019N011000199-02901-03531098511ADDAY171021AY201021GA1031+006001061GE19MSL   +99999+99999GF103991031999006001999999MA1098435098061MD1310121+9999MW1761REMSYN08289664 41561 30809 11290 21353 39806 49851 53012 77670 83500 333 56700 83620 90005=
0173896640876012017090520554-77850+166667FM-15+002499999V0200601N006719999999N008000199-02801-03401098631ADDGA1021+006101999GE19MSL   +99999+99999GF199999021999006101999999MA1098541098185MW1101MW2761REMMET070METAR NZCM 052055Z 06013KT 8000 IC BR FEW020 M28/M34 A2910 RMK SLP863=
0221896640876012017090521004-77850+166667FM-12+002499999V0200601N006712200019N008000199-02761-03411098631ADDAY171021AY201021GA1011+006001061GE19MSL   +99999+99999GF101991011999006001999999MA1098565098181MD1210121+9999MW1761REMSYN09489664 41558 10613 11276 21341 39818 49863 52012 77670 81500 333 56700 81620 90035 90215 96010=
0193896640876012017090523554-77850+166667FM-15+002499999V0200901N007219999999N009999199-03101-03601098881ADDGA1021+006101999GE19MSL   +99999+99999GF199999021999006101999999MA1098811098425MW1361REMMET096METAR NZCM 052355Z 09014KT 9999 DRSN FEW020 M31/M36 A2918 RMK ICE2230 SLP888 FATA MORGANA SW-NW=
0271896640876012017090600004-77850+166667FM-12+002499999V0200901N007212200019N011000199-03081-03631098881ADDAY171021AY201021GA1011+006001061GE19MSL   +99999+99999GF101991011999006001999999KA1120M-02621KA2120N-03211MA1098805098421MD1210241+9999MW1361REMSYN11889664 41561 10914 11308 21363 39842 49888 52024 73670 81500 333 11262 21321 56700 81620 90315 96476 99115 99116 99117=
0221896640876012017090605554-77850+166667FM-15+002499999V0200901N00211003051CN009999199-02601-03301099301ADDGA1021+003051999GA2021+036581999GE19MSL   +99999+99999GF199999021999003051999999MA1099221098855MW1121REMMET108METAR NZCM 060555Z 09004KT 9999 MIFG FEW010 FEW120 M26/M33 A2930 RMK SLP930 MIFG W-NW FATA MORGANA SE-SW-NW=
0249896640876012017090606004-77850+166667FM-12+002499999V0200901N002112200019N011000199-02651-03301099301ADDAY101021AY201021GA1011+003001071GA2999+999999021GE19MSL   +99999+99999GF102991011999003001999999MA1099235098851MD1310201+9999MW1121REMSYN10689664 41461 20904 11265 21330 39885 49930 53020 71200 81608 333 56007 81710 99113 99114 99115 99116 99117=
0155896640876012017090608554-77850+166667FM-15+002499999V0209999C000019999999N009999199-02501-03401099511ADDGA1021+030481999GE19MSL   +99999+99999GF199999021999030481999999MA1099421099065REMMET064METAR NZCM 060855Z 00000KT 9999 FEW100 M25/M34 A2936 RMK SLP951=
0169896640876012017090609004-77850+166667FM-12+002499999V0209999C000012200019N011000199-02531-03361099511ADDGA1011+030001031GE19MSL   +99999+99999GF101991011999030001999999MA1099425099041MD1210191+9999REMSYN06489664 42961 10000 11253 21336 39904 49951 52019 81070 333 81360=
0114896640876012017090611554-77850+166667FM-15+002499999V0200201N001512200019N009999199-02701-03501099581ADDGF100991999999999999999999MA1099491099135REMMET061METAR NZCM 061155Z 02003KT 9999 SKC M27/M35 A2938 RMK SLP958=
0179896640876012017090617554-77850+166667FM-15+002499999V0203301N008819999999N009999199-02201-03201099281ADDGA1021+007621999GE19MSL   +99999+99999GF199999021999007621999999MA1099221098845OC101341REMMET080METAR NZCM 061755Z 33017G26KT 9999 FEW025 M22/M32 A2930 RMK SLP928 BLSN DSNT NW=
0213896640876012017090620554-77850+166667FM-15+002499999V0209999C000019999999N009999199-02701-03401099151ADDGA1021+030481999GE19MSL   +99999+99999GF199999021999030481999999MA1099091098705OD149901331330REMMET108METAR NZCM 062055Z 00000KT 9999 FEW100 M27/M34 A2926 RMK PK WND 33026/1836 SLP915 FG DSNT NW FATA MORGANA W=
0209896640876012017090621004-77850+166667FM-12+002499999V0209999C000012200019N011000199-02741-03411099151ADDAY101021AY201021GA1011+030001041GE19MSL   +99999+99999GF101991011999030001999999MA1099095098711MD1710141+9999MW1401REMSYN08289664 41961 10000 11274 21341 39871 49915 57014 74000 81010 333 56070 81460 99116=
0226896640876012017090623554-77850+166667FM-15+002499999V0203401N013919999999N009999199-01602-02801098791ADDGA1021+030481999GE19MSL   +99999+99999GF199999021999030481999999MA1098751098365MW1361OC101851REMMET121METAR NZCM 062355Z 34027G36KT 9999 DRSN FEW100 M16/M28 A2916 RMK PK WND 34038/2136 SLP879 BLSN DSNT NW FATA MORGANA SW-W=
0259896640876012017090700004-77850+166667FM-12+002499999V0203401N013912200019N011000199-01622-02761098791ADDAY101021AY201021GA1011+030001041GE19MSL   +99999+99999GF101991011999030001999999KA1120M-01571KA2120N-02981MA1098745098361MD1710351+9999MW1361REMSYN10689664 41961 13427 11162 21276 39836 49879 57035 73600 81010 333 03438 11157 21298 56070 81460 99115 99116=
0193896640876012017090705554-77850+166667FM-15+002499999V0200801N013919999999N009999199-02401-03101098951ADDGA1021+036581999GE19MSL   +99999+99999GF199999021999036581999999MA1098881098515MW1361OC101651REMMET088METAR NZCM 070555Z 08027G32KT 9999 DRSN FEW120 M24/M31 A2920 RMK PK WND 08034/33 SLP895=
0195896640876012017090708554-77850+166667FM-15+002499999V0200801N010319999999N009999199-02001-02901099371ADDGA1021+036581999GE19MSL   +99999+99999GF199999021999036581999999MA1099221098935MW1361OC101601REMMET090METAR NZCM 070855Z 08020G31KT 9999 DRSN FEW120 M20/M29 A2930 RMK PK WND 07035/0653 SLP937=
0203896640876012017090709004-77850+166667FM-12+002499999V0200701N010312200019N011000199-02011-02881099371ADDAY101021AY201021GA1011+036001021GE19MSL   +99999+99999GF101991011999036001999999MA1099305098921MD1210411+9999MW1361REMSYN07689664 41961 10720 11201 21288 39892 49937 52041 73600 80008 333 56007 81262=
0114896640876012017090711554-77850+166667FM-15+002499999V0200801N005112200019N009999199-01701-03201099841ADDGF100991999999999999999999MA1099761099405REMMET061METAR NZCM 071155Z 08010KT 9999 SKC M17/M32 A2946 RMK SLP984=
0154896640876012017090712004-77850+166667FM-12+002499999V0200801N005119999999N011000199-01721-03171099841ADDAA124000091KA1240M-01671KA2240N-02671MA1099765099381MD1210461+9999REMSYN07689664 12961 00810 11172 21317 39938 49984 52046 60004 333 00735 11167 21267=
0210896640876012017090717554-77850+166667FM-15+002499999V0200501N009319999999N009999199-02001-03301099871ADDGA1021+036581999GE19MSL   +99999+99999GF199999021999036581999999MA1099801099435MW1361OC101181REMMET105METAR NZCM 071755Z 05018G23KT 9999 DRSN FEW120 M20/M33 A2947 RMK PK WND 04030/1625 SLP987 BLSN DSNT W-NW=
0203896640876012017090718004-77850+166667FM-12+002499999V0200501N009312200019N011000199-02021-03281099871ADDAY101021AY201021GA1011+036001001GE19MSL   +99999+99999GF101991011999036001999999MA1099805099421MD1610111+9999MW1361REMSYN07689664 41961 10518 11202 21328 39942 49987 56011 73600 80002 333 56004 81062=
0183896640876012017090720554-77850+166667FM-15+002499999V0209999V002119999999N009999199-02001-02801099811ADDGA1021+036581999GE19MSL   +99999+99999GF199999021999036581999999MA1099761099375REMMET092METAR NZCM 072055Z VRB04KT 9999 FEW120 M20/M28 A2946 RMK SLP981 BLSN DSNT NW FATA MORGANA W=
0181896640876012017090721004-77850+166667FM-12+002499999V0209999V002112200019N011000199-01991-02821099811ADDGA1011+036001001GE19MSL   +99999+99999GF101991011999036001999999MA1099745099361MD1710061+9999REMSYN07689664 42961 19904 11199 21282 39936 49981 57006 80002 333 56004 81062 99116=
0196896640876012017090723554-77850+166667FM-15+002499999V0203401N00261042671CN009999199-02001-02501099621ADDGA1021+024381999GA2021+042671999GE19MSL   +99999+99999GF199999021999024381999999MA1099561099185REMMET089METAR NZCM 072355Z 34005KT 9999 FEW080 FEW140 M20/M25 A2940 RMK SLP962 FATA MORGANA SW-W=
0239896640876012017090805554-77850+166667FM-15+002499999V0209999C00001045721CN009999199-02501-02901099171ADDGA1021+024381999GA2021+036581999GA3041+045721999GE19MSL   +99999+99999GF199999021999024381999999MA1099121098725REMMET116METAR NZCM 080555Z 00000KT 9999 FEW080 FEW120 SCT150 M25/M29 A2927 RMK ACSL W-NW CCSL W-NW SLP917 FATA MORGANA SW-W=
0203896640876012017090806004-77850+166667FM-12+002499999V0209999C000012200019N011000199-02471-02951099171ADDGA1011+024001031GA2999+999999011GE19MSL   +99999+99999GF103991011999024001999999MA1099115098731MD1810281+9999REMSYN08289664 42861 30000 11247 21295 39873 49917 58028 81049 333 56000 81358 99115 99116=
0221896640876012017090808554-77850+166667FM-15+002499999V0209999C00001045721CN009999199-02401-02801098761ADDGA1021+024381999GA2021+036581999GA3021+045721999GE19MSL   +99999+99999GF199999021999024381999999MA1098681098325REMMET098METAR NZCM 080855Z 00000KT 9999 FEW080 FEW120 FEW150 M24/M28 A2914 RMK ACSL W-NW CCSL W-NW SLP876=
0191896640876012017090809004-77850+166667FM-12+002499999V0209999C000012200019N011000199-02381-02801098761ADDGA1011+024001031GA2999+999999011GE19MSL   +99999+99999GF102991011999024001999999MA1098705098321MD1710411+9999REMSYN07089664 42861 20000 11238 21280 39832 49876 57041 81049 333 56000 81358=
0114896640876012017090811554-77850+166667FM-15+002499999V0201001N003112200019N009999199-02301-02701098561ADDGF100991999999999999999999MA1098511098125REMMET061METAR NZCM 081155Z 10006KT 9999 SKC M23/M27 A2909 RMK SLP856=
0148896640876012017090812004-77850+166667FM-12+002499999V0201001N003119999999N011000199-02261-02661098561ADDAA124000091KA1240M-01941KA2240N-02871MA1098505098121MD1710021+9999REMSYN07089664 12961 01006 11226 21266 39812 49856 57002 60004 333 11194 21287=
0203896640876012017090817554-77850+166667FM-15+002499999V0200801N007219999999N009999199-02201-02901098591ADDGA1021+042671999GE19MSL   +99999+99999GF199999021999042671999999MA1098511098155MW1361OC101081REMMET098METAR NZCM 081755Z 08014G21KT 9999 DRSN FEW140 M22/M29 A2909 RMK ICB1505E25 SLP859 BLSN DSNT W-NW=
0227896640876012017090818004-77850+166667FM-12+002499999V0200801N007212200019N011000199-02201-02941098591ADDAY171021AY201021GA1021+042001001GE19MSL   +99999+99999GF102991021999042001999999MA1098515098131MD1310081+9999MW1361REMSYN10089664 41961 20814 11220 21294 39813 49859 53008 73670 80002 333 56004 82064 90229 90306 96022 96476=
0200896640876012017090820554-77850+166667FM-15+002499999V0209999C000019999999N009999199-02501-02901098641ADDGA1021+042671999GE19MSL   +99999+99999GF199999021999042671999999MA1098581098195MW1401REMMET103METAR NZCM 082055Z 00000KT 9999 VCFG FEW140 M25/M29 A2911 RMK SLP864 VCFG SW AND NW FATA MORGANA SW-NW=
0221896640876012017090821004-77850+166667FM-12+002499999V0209999C000012200019N011000199-02471-02941098641ADDAY101021AY201021GA1021+042001001GE19MSL   +99999+99999GF102991021999042001999999MA1098585098201MD1210071+9999MW1401REMSYN09489664 41961 20000 11247 21294 39820 49864 52007 74000 80002 333 56004 82064 99125 99126 99117=
0231896640876012017090900004-77850+166667FM-12+002499999V0209999V001512200019N011000199-01921-02491098701ADDGA1011+042001001GE19MSL   +99999+99999GF101991011999042001999999KA1120M-01921KA2120N-02541MA1098645098261MD1310061+9999REMSYN10089664 42961 19903 11192 21249 39826 49870 53006 80002 333 11192 21254 56004 81064 99115 99116 99117=
0174896640876012017090905554-77850+166667FM-15+002499999V0209999C000019999999N009999199-02201-02601098661ADDGA1021+042671999GE19MSL   +99999+99999GF199999021999042671999999MA1098611098225REMMET083METAR NZCM 090555Z 00000KT 9999 FEW140 M22/M26 A2912 RMK SLP866 FATA MORGANA SW-NW=
0193896640876012017090906004-77850+166667FM-12+002499999V0209999C000012200019N011000199-02221-02611098661ADDGA1021+042001001GE19MSL   +99999+99999GF102991021999042001999999MA1098615098231MD1210011+9999REMSYN08889664 42961 20000 11222 21261 39823 49866 52001 80002 333 56004 82064 99115 99116 99117=
0155896640876012017090908554-77850+166667FM-15+002499999V0209999C000019999999N009999199-02301-02701098661ADDGA1021+042671999GE19MSL   +99999+99999GF199999021999042671999999MA1098611098225REMMET064METAR NZCM 090855Z 00000KT 9999 FEW140 M23/M27 A2912 RMK SLP866=
0175896640876012017090909004-77850+166667FM-12+002499999V0209999C000012200019N011000199-02321-02701098661ADDGA1021+042001021GE19MSL   +99999+99999GF102991021999042001999999MA1098605098221MD1610011+9999REMSYN07089664 42961 20000 11232 21270 39822 49866 56001 80005 333 56004 82264=
0155896640876012017090911554-77850+166667FM-15+002499999V0203201N004119999999N009999199-02201-02601098681ADDGA1021+042671999GE19MSL   +99999+99999GF199999021999042671999999MA1098611098245REMMET064METAR NZCM 091155Z 32008KT 9999 FEW140 M22/M26 A2912 RMK SLP868=
0249896640876012017090912004-77850+166667FM-12+002499999V0203201N004112200019N011000199-02181-02561098681ADDAA124000091GA1021+042001021GE19MSL   +99999+99999GF102991021999042001999999KA1240M-01791KA2240N-02651MA1098615098231MD1110011+9999REMSYN08889664 12961 23208 11218 21256 39823 49868 51001 69904 80008 333 11179 21265 56004 82264=EQDQ01  00002PRCP24
0155896640876012017090917554-77850+166667FM-15+002499999V0209999C000019999999N009999199-02301-02701098791ADDGA1041+042671999GE19MSL   +99999+99999GF199999041999042671999999MA1098711098355REMMET064METAR NZCM 091755Z 00000KT 9999 SCT140 M23/M27 A2915 RMK SLP879=
0175896640876012017090918004-77850+166667FM-12+002499999V0209999C000012200019N011000199-02341-02741098791ADDGA1031+042001001GE19MSL   +99999+99999GF103991031999042001999999MA1098735098351MD1110091+9999REMSYN07089664 42961 30000 11234 21274 39835 49879 51009 80002 333 56003 83064=
0174896640876012017090923554-77850+166667FM-15+002499999V0209999C000019999999N009999199-02001-02701098901ADDGA1041+042671999GE19MSL   +99999+99999GF199999041999042671999999MA1098851098465REMMET083METAR NZCM 092355Z 00000KT 9999 SCT140 M20/M27 A2919 RMK SLP890 FATA MORGANA SW-NW=
0231896640876012017091000004-77850+166667FM-12+002499999V0209999C000012200019N011000199-02031-02721098901ADDGA1031+042001001GE19MSL   +99999+99999GF103991031999042001999999KA1120M-01911KA2120N-02481MA1098845098461MD1110041+9999REMSYN10089664 42961 30000 11203 21272 39846 49890 51004 80002 333 11191 21248 56003 83064 99115 99126 99127=
0177896640876012017091005554-77850+166667FM-15+002499999V0200301N002119999999N009999199-02101-02601098901ADDGA1021+042671999GE19MSL   +99999+99999GF199999021999042671999999MA1098851098465REMMET086METAR NZCM 100555Z 03004KT 9999 FEW140 M21/M26 A2919 RMK SLP890 FATA MORGANA SE-SW-NW=
0205896640876012017091006004-77850+166667FM-12+002499999V0200301N002112200019N011000199-02141-02571098901ADDGA1011+042001021GE19MSL   +99999+99999GF101991011999042001999999MA1098845098461MD1810011+9999REMSYN10089664 42961 10304 11214 21257 39846 49890 58001 80008 333 56003 81264 99113 99114 99115 99116 99117=
0114896640876012017091011554-77850+166667FM-15+002499999V0209999C000012200019N009999199-02301-02901098871ADDGF100991999999999999999999MA1098811098435REMMET061METAR NZCM 101155Z 00000KT 9999 SKC M23/M29 A2918 RMK SLP887=
0148896640876012017091012004-77850+166667FM-12+002499999V0209999C000019999999N011000199-02341-02901098871ADDAA124000091KA1240M-01791KA2240N-02421MA1098805098421MD1810021+9999REMSYN07089664 12961 00000 11234 21290 39842 49887 58002 60004 333 11179 21242=
0197896640876012017091017554-77850+166667FM-15+002499999V0209999C00001042671CN009999199-02201-02601098681ADDGA1021+004571999GA2021+042671999GE19MSL   +99999+99999GF199999021999004571999999MA1098611098245MW1401REMMET084METAR NZCM 101755Z 00000KT 9999 VCFG FEW015 FEW140 M22/M26 A2912 RMK SLP868 VCFG SW=
0219896640876012017091018004-77850+166667FM-12+002499999V0209999C000012200019N011000199-02241-02621098681ADDAY101021AY201021GA1011+004501061GA2999+999999001GE19MSL   +99999+99999GF102991011999004501999999MA1098615098231MD1810121+9999MW1401REMSYN07689664 41461 20000 11224 21262 39823 49868 58012 74000 81502 333 56504 81615=
0196896640876012017091020554-77850+166667FM-15+002499999V0209999C000010426719N009999199-02201-02601098571ADDGA1021+004571999GA2071+042671999GE19MSL   +99999+99999GF199999021999004571999999MA1098511098135REMMET089METAR NZCM 102055Z 00000KT 9999 FEW015 BKN140 M22/M26 A2909 RMK SLP857 FATA MORGANA SW-W=
0209896640876012017091021004-77850+166667FM-12+002499999V0209999C00001042001CN011000199-02201-02641098571ADDGA1011+004501061GA2071+042001001GE19MSL   +99999+99999GF107991011999004501999999MA1098515098131MD1810101+9999REMSYN08889664 42461 70000 11220 21264 39813 49857 58010 81502 333 56504 81615 87064 99115 99116=
0253896640876012017091100004-77850+166667FM-12+002499999V0201101N00511024001CN011000199-02111-02761098541ADDAY111021AY201021GA1081+024001041GE19MSL   +99999+99999GF108991081999024001999999KA1120M-01931KA2120N-02311MA1098475098091MD1710041+9999MW1401REMSYN10089664 41961 81110 11211 21276 39809 49854 57004 74010 8802/ 333 11193 21231 56049 88458 99115 99116=
0226896640876012017091105554-77850+166667FM-15+002499999V0200601N00821002441WN001400199-02701-03101098491ADDGA1091+002441999GE19MSL   +99999+99999GF109991091999002441999999MA1098411098045MW1381MW2711OC101081OD149901901130REMMET101METAR NZCM 110555Z 06016G21KT 1400 -SN BLSN VV008 M27/M31 A2906 RMK PK WND 13037/0313 SNB0245 SLP849=
0215896640876012017091106004-77850+166667FM-12+002499999V0200601N00821002401WN001400199-02671-03141098491ADDAY171021AY231021GA1091+002401999GE19MSL   +99999+99999GF109991091999002401999999MA1098415098041MD1990001+9999MW1711REMSYN08889664 41/14 90616 11267 21314 39804 49849 50000 77173 333 01337 89/08 90033 90208 96038=
0181896640876012017091108554-77850+166667FM-15+002499999V0201301V00411000911WN000400199-02501-03001098251ADDGA1091+000911999GE19MSL   +99999+99999GF109991091999000911999999MA1098201097815MW1481REMMET084METAR NZCM 110855Z 13008KT 100V160 0400 FZFG VV003 M25/M30 A2900 RMK SNE0650 SLP825=
0193896640876012017091109004-77850+166667FM-12+002499999V0201301N00411001201WN000400199-02541-02961098251ADDAY171021AY241021GA1091+999999001GE19MSL   +99999+99999GF109991091999999999999999MA1098185097811MD1810231+9999MW1471REMSYN06689664 41/04 91308 11254 21296 39781 49825 58023 74774 89/03 96471=
0226896640876012017091111554-77850+166667FM-15+002499999V0201801N008810061019N000800199-02501-02901098031ADDGA1021+000001999GA2081+006101999GE19MSL   +99999+99999GF199999021999000001999999MA1098001097595MW1101MW2711OC101291REMMET099METAR NZCM 111155Z 18017G25KT 0800 -SN BR FEW000 OVC020 M25/M29 A2894 RMK SNB0945 BR FEW000 SLP803=
0172896640876012017091112004-77850+166667FM-12+002499999V0201801N008819999999N000800199-02471-02881999999ADDGA1999+008001999GE19MSL   +99999+99999GF107991999999008001999999REMSYN09689664 11508 71817 11247 21288 11200 21268 39761 49803 56499 57020 69934 77174 877// 87720 96447=
0240896640876012017091117554-77850+166667FM-15+002499999V0200801N004610167619N009000199-02601-03001098051ADDGA1021+003051999GA2081+016761999GE19MSL   +99999+99999GF199999021999003051999999MA1098001097615MW1101MW2361OD149902111170REMMET107METAR NZCM 111755Z COR 08009KT 9000 BR DRSN FEW010 OVC055 M26/M30 A2894 RMK PK WND 17041/1405 SNE30 SLP805=
0240896640876012017091120554-77850+166667FM-15+002499999V0201301N008210121919N006000199-02701-03101098201ADDGA1021+001521999GA2081+012191999GE19MSL   +99999+99999GF199999021999001521999999MA1097731097755MW1381MW2711OC101291REMMET113METAR NZCM 112055Z 13016G25KT 6000 -SN BLSN FEW005 OVC040 M27/M31 A2886 RMK PK WND 13029/40 SNB1915E15B40 SLP820=
0201896640876012017091123554-77850+166667FM-15+002499999V0201301N007219999999N009999199-02605-03005098301ADDMA1098215999999MW1361OC101081OD149901851120REMMET127METAR NZCM 112355Z 13014G21KT 9999 DRSN VCBLSN FEW005 SCT030 OVC050 M26/M30 A2900 RMK PK WND 12036/2254 SNE20 SLP830 VCBLSN SW=EQDD01      0ADE693
0226896640876012017091205554-77850+166667FM-15+002499999V0203501N007710243819N009999199-02201-02601098321ADDGA1021+001521999GA2071+024381999GA3071+045721999GE19MSL   +99999+99999GF199999021999001521999999MA1098241097885OC101081REMMET095METAR NZCM 120555Z 35015G21KT 9999 FEW005 BKN080 BKN150 M22/M26 A2901 RMK SLP832 SN DSNT SE-SW=
0201896640876012017091208554-77850+166667FM-15+002499999V0203301N00311021341CN009999199-02401-02801098441ADDGA1021+004881999GA2041+021341999GA3071+045721999GE19MSL   +99999+99999GF199999021999004881999999MA1098371098005REMMET078METAR NZCM 120855Z 33006KT 9999 FEW016 SCT070 BKN150 M24/M28 A2905 RMK SLP844=
0213896640876012017091209004-77850+166667FM-12+002499999V0203301N003119999999N011000199-02411-02801098441ADDGA1011+004801071GA2031+021001041GA3999+999999021GE19MSL   +99999+99999GF106991011999004801999999MA1098355097981MD1310101+9999REMSYN07689664 42461 63306 11241 21280 39798 49844 53010 81678 333 56844 81716 83457=
0155896640876012017091211554-77850+166667FM-15+002499999V0203201N004619999999N009999199-02501-02901098521ADDGA1021+021341999GE19MSL   +99999+99999GF199999021999021341999999MA1098441098085REMMET064METAR NZCM 121155Z 32009KT 9999 FEW070 M25/M29 A2907 RMK SLP852=
0230896640876012017091212004-77850+166667FM-12+002499999V0203201N004612200019N011000199-02501-02911098521ADDAA124000331GA1021+021001041GE19MSL   +99999+99999GF102991021999021001999999KA1240M-02191KA2240N-02581MA1098435098061MD1210081+9999REMSYN08889664 12861 23209 11250 21291 39806 49852 52008 69934 82010 333 11219 21258 56040 82457=
0178896640876012017091217554-77850+166667FM-15+002499999V0203101N00361033531CN009999199-02201-02601098531ADDGA1021+024381999GA2021+033531999GE19MSL   +99999+99999GF199999021999024381999999MA1098481098095REMMET071METAR NZCM 121755Z 31007KT 9999 FEW080 FEW110 M22/M26 A2908 RMK SLP853=
0175896640876012017091218004-77850+166667FM-12+002499999V0203101N003612200019N011000199-02201-02571098531ADDGA1011+024001031GE19MSL   +99999+99999GF101991011999024001999999MA1098475098091MD1990011+9999REMSYN07089664 42861 13107 11220 21257 39809 49853 50001 81070 333 56040 81358=
0188896640876012017091220554-77850+166667FM-15+002499999V0203401N005119999999N009999199-02101-02501098581ADDGA1041+018291999GE19MSL   +99999+99999GF199999041999018291999999MA1098511098145OC100821REMMET089METAR NZCM 122055Z 34010G16KT 9999 SCT060 M21/M25 A2909 RMK SLP858 FATA MORGANA SE-SW-NW=
0205896640876012017091221004-77850+166667FM-12+002499999V0203401N005112200019N011000199-02151-02511098581ADDGA1031+018001061GE19MSL   +99999+99999GF103991031999018001999999MA1098515098131MD1990041+9999REMSYN10089664 42761 33410 11215 21251 39813 49858 50004 83400 333 56400 83656 99113 99114 99115 99116 99117=
0200896640876012017091223554-77850+166667FM-15+002499999V0203401N00671036581CN009999199-02101-02401098701ADDGA1021+021341999GA2041+036581999GE19MSL   +99999+99999GF199999021999021341999999MA1098651098265REMMET093METAR NZCM 122355Z 34013KT 9999 FEW070 SCT120 M21/M24 A2913 RMK SLP870 FATA MORGANA SE-SW-NW=
0259896640876012017091300004-77850+166667FM-12+002499999V0203401N006712200019N011000199-02081-02431098701ADDGA1021+021001031GA2999+999999001GE19MSL   +99999+99999GF103991021999021001999999KA1120M-02081KA2120N-02701MA1098635098251MD1210121+9999REMSYN11289664 42861 33413 11208 21243 39825 49870 52012 82031 333 11208 21270 56044 82357 99113 99114 99115 99116 99117=
0172896640876012017091305554-77850+166667FM-15+002499999V0209999C000019999999N009999199-02001-02401098791ADDGA1021+027431999GE19MSL   +99999+99999GF199999021999027431999999MA1098711098355REMMET081METAR NZCM 130555Z 00000KT 9999 FEW090 M20/M24 A2915 RMK SLP879 FATA MORGANA S-W=
0193896640876012017091306004-77850+166667FM-12+002499999V0209999C000012200019N011000199-02021-02391098791ADDGA1021+027001041GE19MSL   +99999+99999GF102991021999027001999999MA1098735098351MD1310081+9999REMSYN08889664 42961 20000 11202 21239 39835 49879 53008 82020 333 56040 82459 99114 99115 99116=
0155896640876012017091308554-77850+166667FM-15+002499999V0209999C000019999999N009999199-02301-02601098841ADDGA1041+027431999GE19MSL   +99999+99999GF199999041999027431999999MA1098781098405REMMET064METAR NZCM 130855Z 00000KT 9999 SCT090 M23/M26 A2917 RMK SLP884=
0175896640876012017091309004-77850+166667FM-12+002499999V0209999C000012200019N011000199-02271-02641098841ADDGA1041+027001041GE19MSL   +99999+99999GF104991041999027001999999MA1098785098401MD1110051+9999REMSYN07089664 42961 40000 11227 21264 39840 49884 51005 84010 333 56040 84459=
0161896640876012017091311554-77850+166667FM-15+002499999V0209999C000019999999N009999199-02701-03201098901ADDGA1021+027431999GE19MSL   +99999+99999GF199999021999027431999999MA1098851098455REMMET070METAR NZCM 131155Z 00000KT 9999 FEW090 M27/M32 A2919 RMK SLP890 AURBO=
0230896640876012017091312004-77850+166667FM-12+002499999V0209999C000012200019N011000199-02711-03161098901ADDAA124000091GA1011+027001041GE19MSL   +99999+99999GF101991011999027001999999KA1240M-01801KA2240N-02871MA1098835098451MD1310051+9999REMSYN08889664 12961 10000 11271 21316 39845 49890 53005 60004 81010 333 11180 21287 56040 81459=
0114896640876012017091317554-77850+166667FM-15+002499999V0209999C000012200019N009999199-02501-03001098811ADDGF100991999999999999999999MA1098751098365REMMET061METAR NZCM 131755Z 00000KT 9999 SKC M25/M30 A2916 RMK SLP881=
0089896640876012017091318004-77850+166667FM-12+002499999V0209999C000019999999N011000199-02551-02991098811ADDMA1098745098361MD1510031+9999REMSYN04889664 42961 00000 11255 21299 39836 49881 55003=
0135896640876012017091320554-77850+166667FM-15+002499999V0200601N004612200019N009999199-02301-02801098811ADDGF100991999999999999999999MA1098751098375REMMET082METAR NZCM 132055Z 06009KT 9999 SKC M23/M28 A2916 RMK SLP881 FATA MORGANA SE-SW-W=
0117896640876012017091321004-77850+166667FM-12+002499999V0200601N004619999999N011000199-02311-02801098811ADDMA1098755098371MD1990011+9999REMSYN07689664 42961 00609 11231 21280 39837 49881 50001 333 99123 99124 99125 99116=
0144896640876012017091323554-77850+166667FM-15+002499999V0200901N009812200019N009999199-02401-03001098761ADDGF100991999999999999999999MA1098681098325OC101181REMMET083METAR NZCM 132355Z 09019G23KT 9999 SKC M24/M30 A2914 RMK SLP876 FATA MORGANA SW-NW=
0183896640876012017091405554-77850+166667FM-15+002499999V0200901N007212200019N009999199-02601-03001098531ADDGF100991999999999999999999MA1098441098085MW1361OC101291OD149901441080REMMET102METAR NZCM 140555Z 09014G25KT 9999 DRSN SKC M26/M30 A2907 RMK PK WND 08028/0126 SLP853 FATA MORGANA W=
0127896640876012017091406004-77850+166667FM-12+002499999V0200901N007219999999N011000199-02571-03041098531ADDAY101021AY201021MA1098465098081MD1710131+9999MW1361REMSYN06489664 41961 00914 11257 21304 39808 49853 57013 73600 333 99116=
0186896640876012017091408554-77850+166667FM-15+002499999V0200801N007219999999N004000199-02701-03201098391ADDGA1021+000911999GE19MSL   +99999+99999GF199999021999000911999999MA1098311097945MW1101MW2361REMMET083METAR NZCM 140855Z 08014KT 4000 BR DRSN FEW003 M27/M32 A2903 RMK VIS E 1600 SLP839=
0215896640876012017091409004-77850+166667FM-12+002499999V0200801N007212200019N004000199-02731-03161098391ADDAY101021AY201021GA1011+000901071GE19MSL   +99999+99999GF101991011999000901999999MA1098315097941MD1710141+9999MW1361REMSYN08889664 41140 10814 11273 21316 39794 49839 57014 73600 81600 333 56300 81703 90202 96010=
0177896640876012017091411554-77850+166667FM-15+002499999V0200901N00571000611CN000400199-02701-03101098441ADDGA1071+000611999GE19MSL   +99999+99999GF199999071999000611999999MA1098371097995MW1481REMMET080METAR NZCM 141155Z 09011KT 0400 FZFG BKN002 M27/M31 A2905 RMK VIS N 1200 SLP844=
0264896640876012017091412004-77850+166667FM-12+002499999V0200901N00571000601CN000400199-02671-03091098441ADDAA124000091AY141021AY211021GA1071+000601071GE19MSL   +99999+99999GF107991071999000601999999KA1240M-02411KA2240N-02971MA1098365097991MD1310051+9999MW1481REMSYN10089664 11104 70911 11267 21309 39799 49844 53005 60004 74841 87600 333 11241 21297 56200 87702 90020=
0221896640876012017091418004-77850+166667FM-12+002499999V0200901N00261001501CN001200199-02631-03061098551ADDAY141021AY221021GA1061+001501071GE19MSL   +99999+99999GF106991061999001501999999MA1098485098101MD1310091+9999MW1101REMSYN09489664 41212 60905 11263 21306 39810 49855 53009 71042 86600 333 56200 86705 90008 90308 96448=
0176896640876012017091420554-77850+166667FM-15+002499999V0201301N00311003051CN009000199-02901-03301098851ADDGA1081+003051999GE19MSL   +99999+99999GF199999081999003051999999MA1098781098405MW1101REMMET079METAR NZCM 142055Z 13006KT 9000 BR OVC010 M29/M33 A2917 RMK VIS NE 1400 SLP885=
0209896640876012017091421004-77850+166667FM-12+002499999V0201301N00311003001CN009000199-02861-03311098851ADDAY121021AY221021GA1081+003001071GE19MSL   +99999+99999GF108991081999003001999999MA1098785098401MD1210301+9999MW1101REMSYN08289664 41459 81306 11286 21331 39840 49885 52030 71022 886// 333 56299 88710 90038=
0212896640876012017091423554-77850+166667FM-15+002499999V0209999V00261004571CN009999199-02901-03401099231ADDGA1071+004571999GA2081+009141999GE19MSL   +99999+99999GF199999071999004571999999MA1099121098775MW1711REMMET099METAR NZCM 142355Z COR VRB05KT 9999 -SN BKN015 OVC030 M29/M34 A2927 RMK VIS NE 1400 SNB2230 SLP923=
0269896640876012017091500004-77850+166667FM-12+002499999V0209999V00261004501CN011000199-02901-03361099231ADDAY171021AY221021GA1051+004501071GA2081+009001061GE19MSL   +99999+99999GF108991051999004501999999KA1120M-02601KA2120N-02961MA1099115098731MD1210331+9999MW1711REMSYN10089664 41461 89905 11290 21336 39873 49923 52033 77172 885// 333 11260 21296 56299 85715 88630 90015=
0221896640876012017091505554-77850+166667FM-15+002499999V0209999V00151001521CN009999199-03001-03401099521ADDGA1071+001521999GA2071+015241999GE19MSL   +99999+99999GF199999071999001521999999MA1099461099065MW1111REMMET108METAR NZCM 150555Z VRB03KT 9999 PRFG BKN005 BKN050 M30/M34 A2937 RMK VIS E 1600 SNE0200 SLP952 FG DSNT SE-S=
0221896640876012017091506004-77850+166667FM-12+002499999V0209999V00151001501CN011000199-02971-03431099521ADDAY171021AY221021GA1061+001501071GE19MSL   +99999+99999GF106991061999001501999999MA1099455099071MD1110171+9999MW1411REMSYN09489664 41261 69903 11297 21343 39907 49952 51017 74172 86600 333 56200 86705 90340 96040 96471=
0222896640876012017091508554-77850+166667FM-15+002499999V0209999C00001030481CN009999199-03001-03501099641ADDGA1021+000611999GA2021+015241999GA3041+030481999GE19MSL   +99999+99999GF199999021999000611999999MA1099561099185MW1111REMMET093METAR NZCM 150855Z 00000KT 9999 PRFG FEW002 FEW050 SCT100 M30/M35 A2940 RMK SLP964 FG SE-S-W=
0219896640876012017091509004-77850+166667FM-12+002499999V0209999C000012200019N011000199-02971-03461099641ADDAY111021AY211021GA1011+000601071GA2999+999999031GE19MSL   +99999+99999GF104991011999000601999999MA1099565099181MD1110111+9999MW1411REMSYN07689664 41161 40000 11297 21346 39918 49964 51011 74111 82570 333 56210 81702=
0177896640876012017091511554-77850+166667FM-15+002499999V0200401N00621009141CN009999199-02601-03001099561ADDGA1071+009141999GE19MSL   +99999+99999GF199999071999009141999999MA1099491099115MW1111REMMET080METAR NZCM 151155Z 04012KT 9999 BCFG BKN030 M26/M30 A2938 RMK SLP956 FG S AND W=
0258896640876012017091512004-77850+166667FM-12+002499999V0200401N00621009001CN011000199-02571-03001099561ADDAA124000021AY111021AY211021GA1051+009001061GE19MSL   +99999+99999GF105991051999009001999999KA1240M-02561KA2240N-03121MA1099485099101MD1810081+9999MW1411REMSYN09489664 11561 50412 11257 21300 39910 49956 58008 69904 74111 85500 333 11256 21312 56100 85630=
0195896640876012017091517554-77850+166667FM-15+002499999V0200701N01081010671CN008000199-03101-03801099421ADDGA1081+010671999GE19MSL   +99999+99999GF199999081999010671999999MA1099361098965MW1381OC101391REMMET090METAR NZCM 151755Z 07021G27KT 8000 BLSN OVC035 M31/M38 A2934 RMK PK WND 06032/1647 SLP942=
0209896640876012017091518004-77850+166667FM-12+002499999V0200701N01081010501CN008000199-03081-03791099421ADDAY131021AY221021GA1081+010501061GE19MSL   +99999+99999GF108991081999010501999999MA1099345098961MD1990001+9999MW1381REMSYN08289664 41658 80721 11308 21379 39896 49942 50000 73832 885// 333 56799 88635 90030=
0207896640876012017091520554-77850+166667FM-15+002499999V0200701N00931006101CN001000199-03101-03601099371ADDGA1081+006101999GE19MSL   +99999+99999GF199999081999006101999999MA1099291098915MW1381OC101291REMMET102METAR NZCM 152055Z 07018G25KT 1000 BLSN OVC020 M31/M36 A2932 RMK PK WND 07028/1956 VIS NW 0600 SLP937=
0209896640876012017091521004-77850+166667FM-12+002499999V0200701N00931006001CN001000199-03131-03651099371ADDAY131021AY231021GA1081+006001061GE19MSL   +99999+99999GF108991081999006001999999MA1099295098911MD1710051+9999MW1381REMSYN08289664 41510 80718 11313 21365 39891 49937 57005 73833 885// 333 56799 88620 90060=
0252896640876012017091523554-77850+166667FM-15+002499999V0200601N00671006101CN001600199-03001-03601099351ADDGA1071+006101999GA2081+015241999GE19MSL   +99999+99999GF199999071999006101999999MA1099291098895MW1381MW2711OC100981OD149901391070REMMET111METAR NZCM 152355Z COR 06013G19KT 1600 -SN BLSN BKN020 OVC050 M30/M36 A2932 RMK PK WND 07027/2112 SNB30 SLP935=
0259896640876012017091600004-77850+166667FM-12+002499999V0200601N00671006001CN001600199-03051-03561099351ADDAY171021AY231021GA1061+006001061GE19MSL   +99999+99999GF108991061999006001999999KA1120M-02561KA2120N-03171MA1099275098891MD1710021+9999MW1711REMSYN10689664 41516 80613 11305 21356 39889 49935 57002 77173 885// 333 11256 21317 56799 86620 90005 90263 96038=
0206896640876012017091605554-77850+166667FM-15+002499999V0209999V00151042671CN009999199-03001-03501099331ADDGA1021+024381999GA2021+042671999GE19MSL   +99999+99999GF199999021999024381999999MA1099251098875REMMET099METAR NZCM 160555Z VRB03KT 9999 FEW080 FEW140 M30/M35 A2931 RMK SNE0300 SLP933 FATA MORGANA S-W-NW=
0261896640876012017091606004-77850+166667FM-12+002499999V0209999V001512200019N011000199-02961-03461099331ADDAY171021AY231021GA1011+024001041GA2999+999999021GE19MSL   +99999+99999GF101991011999024001999999MA1099255098871MD1610031+9999MW1011REMSYN11889664 41761 19903 11296 21346 39887 49933 56003 70173 81018 333 56088 81458 90330 96471 96538 99154 99155 99126 99117=
0196896640876012017091608554-77850+166667FM-15+002499999V0201001N00311042671CN009999199-03401-04001099391ADDGA1021+024381999GA2021+042671999GE19MSL   +99999+99999GF199999021999024381999999MA1099321098925REMMET089METAR NZCM 160855Z 10006KT 9999 FEW080 FEW140 M34/M40 A2933 RMK SLP939 FATA MORGANA S-SW=
0203896640876012017091609004-77850+166667FM-12+002499999V0201001N003112200019N011000199-03451-04001099391ADDGA1011+024001041GA2999+999999021GE19MSL   +99999+99999GF101991011999024001999999MA1099325098941MD1210071+9999REMSYN08289664 42861 11006 11345 21400 39894 49939 52007 81018 333 56088 81458 99124 99125=
0114896640876012017091611554-77850+166667FM-15+002499999V0200901N006212200019N009999199-03201-03701099391ADDGF100991999999999999999999MA1099321098935REMMET061METAR NZCM 161155Z 09012KT 9999 SKC M32/M37 A2933 RMK SLP939=
0148896640876012017091612004-77850+166667FM-12+002499999V0200901N006219999999N011000199-03171-03711099391ADDAA124000021KA1240M-02771KA2240N-03451MA1099325098941MD1990001+9999REMSYN07089664 12961 00912 11317 21371 39894 49939 50000 69904 333 11277 21345=
0176896640876012017091617554-77850+166667FM-15+002499999V0209999C000019999999N009999199-03201-03701099461ADDGA1021+042671999GE19MSL   +99999+99999GF199999021999042671999999MA1099391099005MW1401REMMET079METAR NZCM 161755Z 00000KT 9999 VCFG FEW140 M32/M37 A2935 RMK SLP946 VCFG SE-S=
0203896640876012017091618004-77850+166667FM-12+002499999V0209999C000012200019N011000199-03201-03751099461ADDAY101021AY201021GA1021+042001021GE19MSL   +99999+99999GF102991021999042001999999MA1099395099011MD1310061+9999MW1401REMSYN07689664 41961 20000 11320 21375 39901 49946 53006 74000 80008 333 56008 82264=
0220896640876012017091623554-77850+166667FM-15+002499999V0200801N00571042671CN009999199-03101-03701099571ADDGA1071+042671999GE19MSL   +99999+99999GF199999071999042671999999MA1099491099115OC100881OD149901491040REMMET107METAR NZCM 162355Z 08011G17KT 9999 BKN140 M31/M37 A2938 RMK PK WND 04029/2048 SLP957 FATA MORGANA SE-SW-NW=
0243896640876012017091700004-77850+166667FM-12+002499999V0200801N005710420019N011000199-03061-03671099571ADDGA1071+042001021GE19MSL   +99999+99999GF107991071999042001999999KA1120M-02801KA2120N-03471MA1099505099121MD1110081+9999REMSYN11289664 42961 70811 11306 21367 39912 49957 51008 80006 333 11280 21347 56008 87264 99123 99144 99145 99146 99127=
0216896640876012017091705554-77850+166667FM-15+002499999V0200701N01081042671CN009999199-03501-04301099531ADDGA1071+042671999GE19MSL   +99999+99999GF199999071999042671999999MA1099461099065MW1361OC101441REMMET111METAR NZCM 170555Z COR 07021G28KT 9999 DRSN BKN140 M35/M43 A2937 RMK SLP953 BLSN DSNT W-NW FATA MORGANA SE-S-W=
0227896640876012017091706004-77850+166667FM-12+002499999V0200701N010810420019N011000199-03551-04281099531ADDAY121021AY221021GA1051+042001021GE19MSL   +99999+99999GF105991051999042001999999MA1099455099071MD1210021+9999MW1361REMSYN10089664 41961 50721 11355 21428 39907 49953 52002 73622 80006 333 56008 85264 99153 99154 99145 99146=
0114896640876012017091711554-77850+166667FM-15+002499999V0201701N002612200019N009999199-03401-04101099561ADDGF100991999999999999999999MA1099491099095REMMET061METAR NZCM 171155Z 17005KT 9999 SKC M34/M41 A2938 RMK SLP956=
0155896640876012017091717554-77850+166667FM-15+002499999V0200401N001519999999N009999199-03301-04101099391ADDGA1041+042671999GE19MSL   +99999+99999GF199999041999042671999999MA1099321098935REMMET064METAR NZCM 171755Z 04003KT 9999 SCT140 M33/M41 A2933 RMK SLP939=
0175896640876012017091718004-77850+166667FM-12+002499999V0200401N001512200019N011000199-03301-04091099391ADDGA1041+042001021GE19MSL   +99999+99999GF104991041999042001999999MA1099325098941MD1810161+9999REMSYN07089664 42961 40403 11330 21409 39894 49939 58016 80008 333 56008 84264=
0189896640876012017091720554-77850+166667FM-15+002499999V0209999C00001042671CN009999199-03501-04001099211ADDGA1021+004571999GA2021+042671999GE19MSL   +99999+99999GF199999021999004571999999MA1099121098745MW1121REMMET076METAR NZCM 172055Z 00000KT 9999 MIFG FEW015 FEW140 M35/M40 A2927 RMK SLP921=
0219896640876012017091721004-77850+166667FM-12+002499999V0209999C000012200019N011000199-03471-04031099211ADDAY101021AY201021GA1011+004501071GA2999+999999021GE19MSL   +99999+99999GF102991011999004501999999MA1099135098751MD1710191+9999MW1121REMSYN07689664 41461 20000 11347 21403 39875 49921 57019 71200 81608 333 56708 81715=
0212896640876012017091723554-77850+166667FM-15+002499999V0209999V001510091419N009999199-02901-03401098991ADDGA1041+004571999GA2071+009141999GE19MSL   +99999+99999GF199999041999004571999999MA1098921098545MW1711REMMET099METAR NZCM 172355Z VRB03KT 9999 -SN SCT015 BKN030 M29/M34 A2921 RMK SNB35 SLP899 FATA MORGANA W-NW=
0281896640876012017091800004-77850+166667FM-12+002499999V0209999V001510090019N011000199-02891-03411098991ADDAY171021AY211021GA1031+004501071GA2071+009001061GE19MSL   +99999+99999GF107991031999004501999999KA1120M-02891KA2120N-03841MA1098925098541MD1610211+9999MW1711REMSYN11289664 41461 79903 11289 21341 39854 49899 56021 77171 87500 333 11289 21384 56400 83715 87630 90004 99116 99117=
0184896640876012017091805554-77850+166667FM-15+002499999V0200801N003619999999N009999199-03201-03601098671ADDGA1021+003051999GE19MSL   +99999+99999GF199999021999003051999999MA1098611098215REMMET093METAR NZCM 180555Z 08007KT 9999 FEW010 M32/M36 A2912 RMK SNE0215 SLP867 FATA MORGANA SE-SW-W=
0239896640876012017091806004-77850+166667FM-12+002499999V0200801N003612200019N011000199-03221-03641098671ADDAY171021AY211021GA1011+003001071GE19MSL   +99999+99999GF101991011999003001999999MA1098605098221MD1810111+9999MW1011REMSYN11289664 41461 10807 11322 21364 39822 49867 58011 70171 81600 333 56400 81710 90338 96471 99113 99114 99115 99116=
0154896640876012017091808554-77850+166667FM-15+002499999V0200701N002119999999N009999199-03205-03805098641ADDMA1098585999999MW1401REMMET102METAR NZCM 180855Z 07004KT 9999 VCFG DSNT FG FEW005 M32/M38 A2911 RMK SLP864 VCFG SE-SW DSNT FG SW-NW=EQDD01      0ADE693
0203896640876012017091809004-77850+166667FM-12+002499999V0200701N002112200019N011000199-03241-03771098641ADDAY101021AY201021GA1011+001501071GE19MSL   +99999+99999GF101991011999001501999999MA1098575098191MD1710031+9999MW1401REMSYN07689664 41261 10704 11324 21377 39819 49864 57003 74000 81600 333 56000 81705=
0120896640876012017091811554-77850+166667FM-15+002499999V0209999C000012200019N009999199-03501-04101098621ADDGF100991999999999999999999MA1098541098165REMMET067METAR NZCM 181155Z 00000KT 9999 SKC M35/M41 A2910 RMK SLP862 AURBO=
0148896640876012017091812004-77850+166667FM-12+002499999V0209999C000019999999N011000199-03491-04061098621ADDAA124000021KA1240M-02961KA2240N-03701MA1098545098161MD1710031+9999REMSYN07089664 12961 00000 11349 21406 39816 49862 57003 69904 333 11296 21370=
0165896640876012017091817554-77850+166667FM-15+002499999V0203101N004119999999N009999199-02901-03401098541ADDGA1021+042671999GE19MSL   +99999+99999GF199999021999042671999999MA1098441098095REMMET074METAR NZCM 181755Z 31008KT 9999 FEW140 M29/M34 A2907 RMK SLP854 FG DSNT S=
0203896640876012017091818004-77850+166667FM-12+002499999V0203101N004112200019N011000199-02931-03411098541ADDAY101021AY201021GA1021+042001001GE19MSL   +99999+99999GF102991021999042001999999MA1098465098081MD1610041+9999MW1401REMSYN07689664 41961 23108 11293 21341 39808 49854 56004 74000 80001 333 56004 82064=
0204896640876012017091823554-77850+166667FM-15+002499999V0203001N00261048771CN009999199-03001-03501098481ADDGA1021+036581999GA2041+048771999GE19MSL   +99999+99999GF199999021999036581999999MA1098411098035REMMET097METAR NZCM 182355Z 30005KT 9999 FEW120 SCT160 M30/M35 A2906 RMK ACSL NW SLP848 FATA MORGANA SW-W=
0241896640876012017091900004-77850+166667FM-12+002499999V0203001N002612200019N011000199-02971-03481098481ADDGA1011+036001031GA2999+999999001GE19MSL   +99999+99999GF103991011999036001999999KA1120M-02851KA2120N-03041MA1098405098031MD1810051+9999REMSYN09489664 42961 33005 11297 21348 39803 49848 58005 81041 333 11285 21304 56004 81362 99115 99116=
0188896640876012017091905554-77850+166667FM-15+002499999V0200701N00411060961CN009999199-02701-03201098581ADDGA1021+054861999GA2021+060961999GE19MSL   +99999+99999GF199999021999054861999999MA1098511098135REMMET081METAR NZCM 190555Z 07008KT 9999 FEW180 FEW200 M27/M32 A2909 RMK CCSL W-NW SLP858=
0230896640876012017091906004-77850+166667FM-12+002499999V0209999V001512200019N011000199-03041-03761098611ADDAA124000091GA1021+054001011GE19MSL   +99999+99999GF102991021999054001999999KA1240M-02181KA2240N-03061MA1098545098161MD1210031+9999REMSYN08889664 12961 29903 11304 21376 39816 49861 52003 60004 80009 333 11218 21306 56007 82168=
0187896640876012017091911554-77850+166667FM-15+002499999V0200401N001519999999N009999199-03001-03801098611ADDGA1021+054861999GE19MSL   +99999+99999GF199999021999054861999999MA1098541098165OD149901331040REMMET082METAR NZCM 191155Z 04003KT 9999 FEW180 M30/M38 A2910 RMK PK WND 04026/0717 SLP861=
0230896640876012017091912004-77850+166667FM-12+002499999V0209999V001512200019N011000199-03041-03761098611ADDAA124000091GA1021+054001011GE19MSL   +99999+99999GF102991021999054001999999KA1240M-02181KA2240N-03061MA1098545098161MD1210031+9999REMSYN08889664 12961 29903 11304 21376 39816 49861 52003 60004 80009 333 11218 21306 56007 82168=
0203896640876012017091917554-77850+166667FM-15+002499999V0209999V00311048771CN009999199-02701-03301098541ADDGA1021+042671999GA2021+048771999GE19MSL   +99999+99999GF199999021999042671999999MA1098481098095REMMET096METAR NZCM 191755Z VRB06KT 9999 FEW140 FEW160 M27/M33 A2908 RMK CCSL W SLP854 FATA MORGANA S-SW=
0187896640876012017091918004-77850+166667FM-12+002499999V0209999V003112200019N011000199-02681-03341098541ADDGA1021+042001011GE19MSL   +99999+99999GF102991021999042001999999MA1098475098091MD1810111+9999REMSYN08289664 42961 29906 11268 21334 39809 49854 58011 80009 333 56000 82164 99114 99115=
0208896640876012017091923554-77850+166667FM-15+002499999V0209999C00001048771CN009999199-02601-03301098341ADDGA1021+042671999GA2041+048771999GE19MSL   +99999+99999GF199999021999042671999999MA1098271097895REMMET101METAR NZCM 192355Z 00000KT 9999 FEW140 SCT160 M26/M33 A2902 RMK CCSL W-NW SLP834 FATA MORGANA S-W-NW=
0237896640876012017092000004-77850+166667FM-12+002499999V0209999C000012200019N011000199-02571-03311098341ADDGA1011+042001011GE19MSL   +99999+99999GF103991011999042001999999KA1120M-02411KA2120N-03421MA1098265097891MD1810111+9999REMSYN10689664 42961 30000 11257 21331 39789 49834 58011 80009 333 11241 21342 56006 81164 99114 99115 99116 99117=
0208896640876012017092005554-77850+166667FM-15+002499999V0209999C00001048771CN009999199-02801-03401097961ADDGA1021+036581999GA2041+048771999GE19MSL   +99999+99999GF199999021999036581999999MA1097901097515REMMET101METAR NZCM 200555Z 00000KT 9999 FEW120 SCT160 M28/M34 A2891 RMK CCSL SW-NW SLP796 FATA MORGANA SE-SW=
0193896640876012017092006004-77850+166667FM-12+002499999V0209999C000012200019N011000199-02841-03421097961ADDGA1011+036001011GE19MSL   +99999+99999GF103991011999036001999999MA1097895097521MD1810161+9999REMSYN08889664 42961 30000 11284 21342 39752 49796 58016 80009 333 56000 81162 99113 99114 99115=
0155896640876012017092011554-77850+166667FM-15+002499999V0200901N006219999999N009999199-02901-03701097711ADDGA1021+009141999GE19MSL   +99999+99999GF199999021999009141999999MA1097631097265REMMET064METAR NZCM 201155Z 09012KT 9999 FEW030 M29/M37 A2883 RMK SLP771=
0230896640876012017092012004-77850+166667FM-12+002499999V0200901N006212200019N011000199-02901-03751097711ADDAA124000091GA1011+009001061GE19MSL   +99999+99999GF101991011999009001999999KA1240M-02301KA2240N-02921MA1097645097271MD1610101+9999REMSYN08889664 12561 10912 11290 21375 39727 49771 56010 60004 81500 333 11230 21292 56700 81630=
0222896640876012017092017554-77850+166667FM-15+002499999V0200701N00621036581CN009999199-03101-03701097731ADDGA1021+010671999GA2021+036581999GE19MSL   +99999+99999GF199999021999010671999999MA1097661097285OC101081REMMET107METAR NZCM 201755Z 07012G21KT 9999 FEW035 FEW120 M31/M37 A2884 RMK PK WND 09027/02 SLP773 FATA MORGANA S-W=
0209896640876012017092018004-77850+166667FM-12+002499999V0200701N006212200019N011000199-03131-03751097731ADDGA1011+010501061GA2999+999999041GE19MSL   +99999+99999GF101991011999010501999999MA1097655097281MD1310061+9999REMSYN08889664 42661 10712 11313 21375 39728 49773 53006 81510 333 56330 81635 99114 99115 99116=
0198896640876012017092020554-77850+166667FM-15+002499999V0200101N00511042671CN009999199-03201-03901097371ADDGA1021+024381999GA2021+042671999GE19MSL   +99999+99999GF199999021999024381999999MA1097731096925REMMET091METAR NZCM 202055Z 01010KT 9999 FEW080 FEW140 M32/M39 A2886 RMK SLP737 FATA MORGANA S-W-NW=
0215896640876012017092021004-77850+166667FM-12+002499999V0200101N005112200019N011000199-03171-03861097801ADDGA1011+024001041GA2999+999999001GE19MSL   +99999+99999GF101991011999024001999999MA1097745097371MD1990091+9999REMSYN09489664 42861 10110 11317 21386 39737 49780 50009 81021 333 56034 81458 99144 99125 99116 99117=
0175896640876012017092023554-77850+166667FM-15+002499999V0209999C000019999999N009999199-02701-03401097841ADDGA1021+030481999GE19MSL   +99999+99999GF199999021999030481999999MA1097761097395REMMET084METAR NZCM 202355Z 00000KT 9999 FEW100 M27/M34 A2887 RMK SLP784 FATA MORGANA S-W-NW=
0237896640876012017092100004-77850+166667FM-12+002499999V0209999C000012200019N011000199-02711-03441097841ADDGA1011+030001041GE19MSL   +99999+99999GF101991011999030001999999KA1120M-02661KA2120N-03431MA1097775097401MD1310031+9999REMSYN10689664 42961 10000 11271 21344 39740 49784 53003 81020 333 11266 21343 56030 81460 99114 99115 99116 99117=
0197896640876012017092105554-77850+166667FM-15+002499999V0209999C000010182919N009999199-03101-03701097461ADDGA1021+010671999GA2071+018291999GE19MSL   +99999+99999GF199999021999010671999999MA1097831097015REMMET090METAR NZCM 210555Z 00000KT 9999 FEW035 BKN060 M31/M37 A2889 RMK SLP746 FATA MORGANA SE-SW=
0215896640876012017092106004-77850+166667FM-12+002499999V0209999C00001018001CN011000199-03071-03701097461ADDGA1021+010501061GA2041+018001061GE19MSL   +99999+99999GF106991021999010501999999MA1097432097061MD1310041+9999REMSYN09489664 42661 60000 11307 21370 39706 49746 53004 86500 333 56400 82635 84656 99113 99114 99115=
0155896640876012017092111554-77850+166667FM-15+002499999V0203401N004119999999N009999199-03201-03701097941ADDGA1021+012191999GE19MSL   +99999+99999GF199999021999012191999999MA1097871097495REMMET064METAR NZCM 211155Z 34008KT 9999 FEW040 M32/M37 A2890 RMK SLP794=
0237896640876012017092112004-77850+166667FM-12+002499999V0209999C00001015001CN011000199-03201-03721097941ADDAY111021AY211021GA1011+006001071GA2071+015001061GE19MSL   +99999+99999GF108991011999006001999999MA1097865097491MD1810021+9999MW1401REMSYN09489664 41561 80000 11320 21372 39749 49794 58002 74011 8752/ 333 56449 81720 87650 99116 99117=
0232896640876012017092117554-77850+166667FM-15+002499999V0209999C000010152419N009999199-03201-03701097941ADDGA1021+006101999GA2071+015241999GA3081+036581999GE19MSL   +99999+99999GF199999021999006101999999MA1097871097495REMMET109METAR NZCM 211755Z 00000KT 9999 FEW020 BKN050 OVC120 M32/M37 A2890 RMK SLP794 FG DSNT S-SW FATA MORGANA W-NW=
0247896640876012017092118004-77850+166667FM-12+002499999V0209999C00001015001CN011000199+99999+99999097941ADDAY111021AY201021GA1011+006001071GA2071+015001071GA3081+036001041GE19MSL   +99999+99999GF108991011999006001999999MA1097865097491MD1810021+9999MW1401REMSYN08889664 41561 80000 39749 49794 58002 74010 8662/ 333 56449 81720 87750 88462 99116 99117=
0204896640876012017092123554-77850+166667FM-15+002499999V0209999C00001042671CN009999199-02801-03501097931ADDGA1021+012191999GA2041+042671999GE19MSL   +99999+99999GF199999021999012191999999MA1097871097485REMMET097METAR NZCM 212355Z 00000KT 9999 FEW040 SCT140 M28/M35 A2890 RMK SCSL S SLP793 FATA MORGANA SW-NW=
0253896640876012017092200004-77850+166667FM-12+002499999V0209999C000012200019N011000199-02841-03461097931ADDGA1011+012001061GA2041+042001001GE19MSL   +99999+99999GF104991011999012001999999KA1120M-02821KA2120N-03361MA1097855097481MD1810051+9999REMSYN10689664 42661 40000 11284 21346 39748 49793 58005 81501 333 11282 21336 56004 81640 84064 99115 99116 99117=
0174896640876012017092205554-77850+166667FM-15+002499999V0200301N006719999999N009999199-03201-03901097801ADDGA1021+012191999GE19MSL   +99999+99999GF199999021999012191999999MA1097731097355REMMET083METAR NZCM 220555Z 03013KT 9999 FEW040 M32/M39 A2886 RMK SLP780 FATA MORGANA SE-SW=
0193896640876012017092206004-77850+166667FM-12+002499999V0200301N006712200019N011000199-03191-03901097801ADDGA1011+012001061GE19MSL   +99999+99999GF101991011999012001999999MA1097725097351MD1810061+9999REMSYN08889664 42661 10313 11319 21390 39735 49780 58006 81500 333 56300 81640 99113 99114 99115=
0155896640876012017092211554-77850+166667FM-15+002499999V0203501N004619999999N009999199-03001-03701097791ADDGA1021+006101999GE19MSL   +99999+99999GF199999021999006101999999MA1097731097345REMMET064METAR NZCM 221155Z 35009KT 9999 FEW020 M30/M37 A2886 RMK SLP779=
0162896640876012017092217554-77850+166667FM-15+002499999V0203001N002619999999N009999199-03401-04001097591ADDGA1021+027431999GE19MSL   +99999+99999GF199999021999027431999999MA1097531097135REMMET071METAR NZCM 221755Z 30005KT 9999 FEW090 M34/M40 A2880 RMK ACSL W SLP759=
0189896640876012017092220554-77850+166667FM-15+002499999V0209999C000019999999N009999199-03401-03901097481ADDGA1021+025911999GE19MSL   +99999+99999GF199999021999025911999999MA1097391097025REMMET098METAR NZCM 222055Z 00000KT 9999 FEW085 M34/M39 A2876 RMK ACSL W SLP748 FATA MORGANA SE-S AND W-NW=
0199896640876012017092221004-77850+166667FM-12+002499999V0209999C000012200019N011000199-03371-03911097481ADDGA1011+024001031GE19MSL   +99999+99999GF101991011999024001999999MA1097415097041MD1810121+9999REMSYN09489664 42961 10000 11337 21391 39704 49748 58012 81040 333 56000 81358 99113 99114 99116 99117=
0131896640876012017092223554-77850+166667FM-15+002499999V0209999C000012200019N009999199-02701-03301097351ADDGF100991999999999999999999MA1097291096915REMMET078METAR NZCM 222355Z 00000KT 9999 SKC M27/M33 A2873 RMK SLP735 FATA MORGANA S-W=
0149896640876012017092300004-77850+166667FM-12+002499999V0209999C000019999999N011000199-02721-03321097351ADDKA1120M-02721KA2120N-03551MA1097285096911MD1810131+9999REMSYN08289664 42961 00000 11272 21332 39691 49735 58013 333 11272 21355 99114 99115 99116=
0130896640876012017092305554-77850+166667FM-15+002499999V0200901N003112200019N009999199-03201-03701097031ADDGF100991999999999999999999MA1096951096585REMMET077METAR NZCM 230555Z 09006KT 9999 SKC M32/M37 A2863 RMK SLP703 FATA MORGANA SW=
0099896640876012017092306004-77850+166667FM-12+002499999V0200901N003119999999N011000199-03181-03741097031ADDMA1096965096591MD1610141+9999REMSYN05889664 42961 00906 11318 21374 39659 49703 56014 333 99115=
0114896640876012017092308554-77850+166667FM-15+002499999V0209999C000012200019N009999199-03101-03601096941ADDGF100991999999999999999999MA1096851096495REMMET061METAR NZCM 230855Z 00000KT 9999 SKC M31/M36 A2860 RMK SLP694=
0089896640876012017092309004-77850+166667FM-12+002499999V0209999C000019999999N011000199-03131-03651096941ADDMA1096865096491MD1710011+9999REMSYN04889664 42961 00000 11313 21365 39649 49694 57001=
0155896640876012017092311554-77850+166667FM-15+002499999V0209999C000019999999N009999199-03201-03701096891ADDGA1021+006101999GE19MSL   +99999+99999GF199999021999006101999999MA1096821096445REMMET064METAR NZCM 231155Z 00000KT 9999 FEW020 M32/M37 A2859 RMK SLP689=
0230896640876012017092312004-77850+166667FM-12+002499999V0209999C000012200019N011000199-03211-03731096891ADDAA124000091GA1011+006001061GE19MSL   +99999+99999GF101991011999006001999999KA1240M-02611KA2240N-03551MA1096825096451MD1710041+9999REMSYN08889664 42561 10000 11321 21373 39645 49689 57004 60004 81500 333 11261 21355 56400 81620=
0175896640876012017092317554-77850+166667FM-15+002499999V0209999C000019999999N009999199-03101-03801096841ADDGA1021+024381999GE19MSL   +99999+99999GF199999021999024381999999MA1096781096395REMMET084METAR NZCM 231755Z 00000KT 9999 FEW080 M31/M38 A2858 RMK SLP684 FATA MORGANA S-W-NW=
0199896640876012017092318004-77850+166667FM-12+002499999V0209999C000012200019N011000199-03071-03771096841ADDGA1022+024001041GE19MSL   +99999+99999GF101992022999024001999999MA1096775096401MD1610021+9999REMSYN09489664 42861 10000 11307 21377 39640 49684 56002 81020 333 56040 82458 99154 99125 99116 99117=
0175896640876012017092323554-77850+166667FM-15+002499999V0209999C000019999999N009999199-02601-03501096991ADDGA1021+006101999GE19MSL   +99999+99999GF199999021999006101999999MA1096921096555REMMET084METAR NZCM 232355Z 00000KT 9999 FEW020 M26/M35 A2862 RMK SLP699 FATA MORGANA S-W-NW=
0237896640876012017092400004-77850+166667FM-12+002499999V0209999C000012200019N011000199-02621-03461096991ADDGA1011+006001071GE19MSL   +99999+99999GF101991011999006001999999KA1120M-02621KA2120N-03411MA1096925096551MD1110061+9999REMSYN10689664 42561 10000 11262 21346 39655 49699 51006 81600 333 11262 21341 56000 81720 99124 99115 99116 99117=
0176896640876012017092405554-77850+166667FM-15+002499999V0209999C000019999999N009999199-03401-04101097031ADDGA1021+024381999GE19MSL   +99999+99999GF199999021999024381999999MA1096951096585REMMET085METAR NZCM 240555Z 00000KT 9999 FEW080 M34/M41 A2863 RMK SLP703 FATA MORGANA SE-SW-W=
0199896640876012017092406004-77850+166667FM-12+002499999V0209999C000012200019N011000199-03421-04131097031ADDGA1011+024001031GE19MSL   +99999+99999GF101991011999024001999999MA1096965096591MD1510011+9999REMSYN09489664 42861 10000 11342 21413 39659 49703 55001 81070 333 56070 81358 99143 99114 99115 99116=
0178896640876012017092408554-77850+166667FM-15+002499999V0209999C00001045721CN009999199-03301-03801097041ADDGA1021+036581999GA2021+045721999GE19MSL   +99999+99999GF199999021999036581999999MA1096991096595REMMET071METAR NZCM 240855Z 00000KT 9999 FEW120 FEW150 M33/M38 A2864 RMK SLP704=
0191896640876012017092409004-77850+166667FM-12+002499999V0209999C000012200019N011000199-03331-03891097041ADDGA1011+036001031GA2999+999999001GE19MSL   +99999+99999GF101991011999036001999999MA1096975096601MD1110011+9999REMSYN07089664 42961 10000 11333 21389 39660 49704 51001 81072 333 56004 81362=
0155896640876012017092411554-77850+166667FM-15+002499999V0209999C000019999999N009999199-03201-03701097091ADDGA1021+045721999GE19MSL   +99999+99999GF199999021999045721999999MA1097021096645REMMET064METAR NZCM 241155Z 00000KT 9999 FEW150 M32/M37 A2865 RMK SLP709=
0230896640876012017092412004-77850+166667FM-12+002499999V0209999C000012200019N011000199-03171-03711097091ADDAA124000091GA1021+045001001GE19MSL   +99999+99999GF102991021999045001999999KA1240M-02591KA2240N-03551MA1097025096651MD1110051+9999REMSYN08889664 12961 20000 11317 21371 39665 49709 51005 60004 80002 333 11259 21355 56004 82065=
0201896640876012017092417554-77850+166667FM-15+002499999V0209999C00001036581CN009999199-03601-04201097171ADDGA1021+001521999GA2021+009141999GA3041+036581999GE19MSL   +99999+99999GF199999021999001521999999MA1097091096715REMMET078METAR NZCM 241755Z 00000KT 9999 FEW005 FEW030 SCT120 M36/M42 A2867 RMK SLP717=
0191896640876012017092418004-77850+166667FM-12+002499999V0209999C000012200019N011000199-03601-04251097171ADDGA1011+001501071GA2999+999999021GE19MSL   +99999+99999GF103991011999001501999999MA1097095096721MD1310061+9999REMSYN07089664 42261 30000 11360 21425 39672 49717 53006 82608 333 56303 81705=
0199896640876012017092420554-77850+166667FM-15+002499999V0209999C00001021341CN009999199-03201-03701097291ADDGA1071+021341999GA2071+036581999GE19MSL   +99999+99999GF199999071999021341999999MA1097221096845REMMET092METAR NZCM 242055Z 00000KT 9999 BKN070 BKN120 M32/M37 A2871 RMK SLP729 FATA MORGANA SE-SW-W=
0215896640876012017092421004-77850+166667FM-12+002499999V0209999C00001021001CN011000199-03171-03741097291ADDGA1051+021001041GA2999+999999021GE19MSL   +99999+99999GF106991051999021001999999MA1097225096851MD1210131+9999REMSYN09489664 42861 60000 11317 21374 39685 49729 52013 85028 333 56033 85457 99143 99114 99115 99116=
0199896640876012017092423554-77850+166667FM-15+002499999V0209999C00001036581CN009999199-02601-03501097341ADDGA1021+021341999GA2041+036581999GE19MSL   +99999+99999GF199999021999021341999999MA1097261096905REMMET092METAR NZCM 242355Z 00000KT 9999 FEW070 SCT120 M26/M35 A2872 RMK SLP734 FATA MORGANA SE-SW-W=
0259896640876012017092500004-77850+166667FM-12+002499999V0209999C000012200019N011000199-02631-03511097341ADDGA1011+021001041GA2031+036001011GE19MSL   +99999+99999GF104991011999021001999999KA1120M-02551KA2120N-03711MA1097275096901MD1210051+9999REMSYN11289664 42861 40000 11263 21351 39690 49734 52005 81029 333 11255 21371 56043 81457 83162 99113 99114 99115 99116=
0204896640876012017092505554-77850+166667FM-15+002499999V0209999C00001036581CN009999199-02801-03501097501ADDGA1021+024381999GA2041+036581999GE19MSL   +99999+99999GF199999021999024381999999MA1097431097055REMMET097METAR NZCM 250555Z 00000KT 9999 FEW080 SCT120 M28/M35 A2877 RMK ACSL W SLP750 FATA MORGANA SE-SW=
0209896640876012017092506004-77850+166667FM-12+002499999V0209999C000012200019N011000199-02771-03461097501ADDGA1021+024001031GA2999+999999021GE19MSL   +99999+99999GF104991021999024001999999MA1097415097041MD1110141+9999REMSYN08889664 42861 40000 11277 21346 39704 49750 51014 82048 333 56043 82358 99113 99114 99115=
0178896640876012017092508554-77850+166667FM-15+002499999V0209999C00001021341CN009999199-02901-03601097551ADDGA1071+021341999GA2071+036581999GE19MSL   +99999+99999GF199999071999021341999999MA1097491097105REMMET071METAR NZCM 250855Z 00000KT 9999 BKN070 BKN120 M29/M36 A2879 RMK SLP755=
0191896640876012017092509004-77850+166667FM-12+002499999V0209999C00001021001CN011000199-02951-03591097551ADDGA1061+021001041GA2999+999999001GE19MSL   +99999+99999GF107991061999021001999999MA1097475097101MD1110061+9999REMSYN07089664 42861 70000 11295 21359 39710 49755 51006 86012 333 56033 86457=
0178896640876012017092511554-77850+166667FM-15+002499999V0200401N009810365819N009999199-03101-04001097541ADDGA1041+021341999GA2071+036581999GE19MSL   +99999+99999GF199999041999021341999999MA1097461097095REMMET071METAR NZCM 251155Z 04019KT 9999 SCT070 BKN120 M31/M40 A2878 RMK SLP754=
0252896640876012017092512004-77850+166667FM-12+002499999V0200401N00981036001CN011000199-03071-04021097541ADDAA124000091GA1031+021001041GA2031+036001001GE19MSL   +99999+99999GF106991031999021001999999KA1240M-02411KA2240N-03301MA1097475097101MD1410001+9999REMSYN09489664 12861 60419 11307 21402 39710 49754 54000 60004 83012 333 11241 21330 56033 83457 83062=
0205896640876012017092517554-77850+166667FM-15+002499999V0200901N00361009141CN008000199-02901-03401097831ADDGA1081+009141999GE19MSL   +99999+99999GF199999081999009141999999MA1097761097385MW1711OD149901331030REMMET094METAR NZCM 251755Z 09007KT 8000 -SN OVC030 M29/M34 A2887 RMK PK WND 03026/1330 SNB1545 SLP783=
0177896640876012017092520554-77850+166667FM-15+002499999V0209999V00151009141CN008000199-02901-03401098061ADDGA1081+009141999GE19MSL   +99999+99999GF199999081999009141999999MA1098001097615MW1711REMMET080METAR NZCM 252055Z VRB03KT 8000 -SN OVC030 M29/M34 A2894 RMK VIS NE 1600 SLP806=
0209896640876012017092521004-77850+166667FM-12+002499999V0209999V00151009001CN008000199-02881-03431098061ADDAY171021AY271021GA1081+009001061GE19MSL   +99999+99999GF108991081999009001999999MA1097995097621MD1210241+9999MW1711REMSYN08289664 41558 89903 11288 21343 39762 49806 52024 77177 885// 333 56399 88630 90053=
0165896640876012017092523554-77850+166667FM-15+002499999V0200401N00721012191CN008000199-02801-03501098241ADDGA1081+012191999GE19MSL   +99999+99999GF199999081999012191999999MA1098171097795MW1711REMMET068METAR NZCM 252355Z 04014KT 8000 -SN OVC040 M28/M35 A2899 RMK SLP824=
0247896640876012017092600004-77850+166667FM-12+002499999V0200401N00721012001CN008000199-02841-03481098241ADDAY171021AY271021GA1081+012001061GE19MSL   +99999+99999GF108991081999012001999999KA1120M-02721KA2120N-03211MA1098165097791MD1210171+9999MW1711REMSYN09489664 41658 80414 11284 21348 39779 49824 52017 77177 885// 333 11272 21321 56399 88640 90063=
0199896640876012017092605554-77850+166667FM-15+002499999V0209999C000010396219N009999199-02801-03501098301ADDGA1041+027431999GA2071+039621999GE19MSL   +99999+99999GF199999041999027431999999MA1098201097855REMMET092METAR NZCM 260555Z 00000KT 9999 SCT090 BKN130 M28/M35 A2900 RMK SNE0300 SLP830 SN DSNT W-NW=
0237896640876012017092606004-77850+166667FM-12+002499999V0209999C00001039001CN011000199-02851-03471098301ADDAY171021AY221021GA1031+027001041GA2041+039001001GE19MSL   +99999+99999GF107991031999027001999999MA1098225097851MD1990001+9999MW1011REMSYN09489664 41961 70000 11285 21347 39785 49830 50000 70172 83022 333 56033 83459 84063 90327 96471=
0185896640876012017092608554-77850+166667FM-15+002499999V0209999C000010365819N009999199-02901-03501098251ADDGA1041+024381999GA2071+036581999GE19MSL   +99999+99999GF199999041999024381999999MA1098171097805REMMET078METAR NZCM 260855Z 00000KT 9999 SCT080 BKN120 M29/M35 A2899 RMK ACSL W SLP825=
0197896640876012017092609004-77850+166667FM-12+002499999V0209999C000019999999N011000199-02941-03531098251ADDGA1011+024001031GA2041+036001001GE19MSL   +99999+99999GF106991011999024001999999MA1098185097811MD1710041+9999REMSYN07689664 42861 60000 11294 21353 39781 49825 57004 83041 333 56033 81358 84062=
0155896640876012017092611554-77850+166667FM-15+002499999V0209999C000019999999N009999199-03401-04101098141ADDGA1041+024381999GE19MSL   +99999+99999GF199999041999024381999999MA1098071097685REMMET064METAR NZCM 261155Z 00000KT 9999 SCT080 M34/M41 A2896 RMK SLP814=
0230896640876012017092612004-77850+166667FM-12+002499999V0209999C000012200019N011000199-03421-04131098141ADDAA124000091GA1031+024001041GE19MSL   +99999+99999GF103991031999024001999999KA1240M-02571KA2240N-03421MA1098075097701MD1710111+9999REMSYN08889664 12861 30000 11342 21413 39770 49814 57011 60004 83020 333 11257 21342 56030 83458=
0189896640876012017092617554-77850+166667FM-15+002499999V0203301N00511033531CN009999199-02601-03401097831ADDGA1021+001521999GA2041+033531999GE19MSL   +99999+99999GF199999021999001521999999MA1097761097395OC100821REMMET074METAR NZCM 261755Z 33010G16KT 9999 FEW005 SCT110 M26/M34 A2887 RMK SLP783=
0191896640876012017092618004-77850+166667FM-12+002499999V0203301N005112200019N011000199-02611-03411097831ADDGA1011+001501071GA2999+999999031GE19MSL   +99999+99999GF103991011999001501999999MA1097755097381MD1610121+9999REMSYN07089664 42261 33310 11261 21341 39738 49783 56012 81670 333 56130 81705=
0200896640876012017092620554-77850+166667FM-15+002499999V0203401N00511045721CN009999199-02301-03601097741ADDGA1021+024381999GA2041+045721999GE19MSL   +99999+99999GF199999021999024381999999MA1097661097305REMMET093METAR NZCM 262055Z 34010KT 9999 FEW080 SCT150 M23/M36 A2884 RMK SLP774 FATA MORGANA SE-SW-NW=
0221896640876012017092621004-77850+166667FM-12+002499999V0203401N005112200019N011000199-02311-03591097741ADDGA1011+024001031GA2999+999999021GE19MSL   +99999+99999GF103991011999024001999999MA1097665097291MD1710091+9999REMSYN10089664 42861 33410 11231 21359 39729 49774 57009 81078 333 56033 81358 99113 99114 99115 99116 99127=
0176896640876012017092623554-77850+166667FM-15+002499999V0203401N004119999999N009999199-02101-03401097711ADDGA1021+042671999GE19MSL   +99999+99999GF199999021999042671999999MA1097631097285REMMET085METAR NZCM 262355Z 34008KT 9999 FEW140 M21/M34 A2883 RMK SLP771 FATA MORGANA SE-SW-W=
0237896640876012017092700004-77850+166667FM-12+002499999V0203401N004112200019N011000199-02091-03441097711ADDGA1011+042001021GE19MSL   +99999+99999GF101991011999042001999999KA1120M-02091KA2120N-03411MA1097635097261MD1810031+9999REMSYN10689664 42961 13408 11209 21344 39726 49771 58003 80008 333 11209 21341 56003 81264 99113 99114 99115 99116=
0196896640876012017092705554-77850+166667FM-15+002499999V0209999C00001042671CN009999199-02401-03301097651ADDGA1021+027431999GA2021+042671999GE19MSL   +99999+99999GF199999021999027431999999MA1097601097215REMMET089METAR NZCM 270555Z 00000KT 9999 FEW090 FEW140 M24/M33 A2882 RMK SLP765 FATA MORGANA SW-W=
0203896640876012017092706004-77850+166667FM-12+002499999V0209999C000012200019N011000199-02401-03301097651ADDGA1011+027001041GA2999+999999001GE19MSL   +99999+99999GF102991011999027001999999MA1097585097211MD1990001+9999REMSYN08289664 42961 20000 11240 21330 39721 49765 50000 81011 333 56033 81459 99115 99116=
0178896640876012017092708554-77850+166667FM-15+002499999V0209999C00001042671CN009999199-03001-03901097651ADDGA1021+027431999GA2041+042671999GE19MSL   +99999+99999GF199999021999027431999999MA1097601097205REMMET071METAR NZCM 270855Z 00000KT 9999 FEW090 SCT140 M30/M39 A2882 RMK SLP765=
0191896640876012017092709004-77850+166667FM-12+002499999V0209999C000012200019N011000199-02981-03951097651ADDGA1021+027001041GA2999+999999001GE19MSL   +99999+99999GF103991021999027001999999MA1097585097211MD1410001+9999REMSYN07089664 42961 30000 11298 21395 39721 49765 54000 82021 333 56033 82459=
0155896640876012017092711554-77850+166667FM-15+002499999V0209999C000019999999N009999199-03201-03801097621ADDGA1021+027431999GE19MSL   +99999+99999GF199999021999027431999999MA1097561097175REMMET064METAR NZCM 271155Z 00000KT 9999 FEW090 M32/M38 A2881 RMK SLP762=
0230896640876012017092712004-77850+166667FM-12+002499999V0209999C000012200019N011000199-03191-03811097621ADDAA124000091GA1021+027001041GE19MSL   +99999+99999GF102991021999027001999999KA1240M-02111KA2240N-03401MA1097545097171MD1810041+9999REMSYN08889664 42961 20000 11319 21381 39717 49762 58004 60004 82020 333 11211 21340 56030 82459=
0196896640876012017092717554-77850+166667FM-15+002499999V0203301N00261042671CN009999199-02701-03601097641ADDGA1021+030481999GA2041+042671999GE19MSL   +99999+99999GF199999021999030481999999MA1097561097205REMMET089METAR NZCM 271755Z 33005KT 9999 FEW100 SCT140 M27/M36 A2881 RMK SLP764 FATA MORGANA SW-W=
0203896640876012017092718004-77850+166667FM-12+002499999V0203301N002612200019N011000199-02661-03561097641ADDGA1011+030001041GA2999+999999001GE19MSL   +99999+99999GF103991011999030001999999MA1097565097191MD1310031+9999REMSYN08289664 42961 33305 11266 21356 39719 49764 53003 81021 333 56044 81460 99115 99116=
0198896640876012017092720554-77850+166667FM-15+002499999V0203201N00621042671CN009999199-02701-03301097661ADDGA1021+030481999GA2041+042671999GE19MSL   +99999+99999GF199999021999030481999999MA1097601097225REMMET091METAR NZCM 272055Z 32012KT 9999 FEW100 SCT140 M27/M33 A2882 RMK SLP766 FATA MORGANA S-W-NW=
0215896640876012017092721004-77850+166667FM-12+002499999V0203201N006212200019N011000199-02701-03301097661ADDGA1011+030001041GA2999+999999001GE19MSL   +99999+99999GF103991011999030001999999MA1097595097221MD1310031+9999REMSYN09489664 42961 33212 11270 21330 39722 49766 53003 81021 333 56044 81460 99144 99125 99116 99117=
0202896640876012017092723554-77850+166667FM-15+002499999V0209999C00001042671CN009999199-02401-03201097801ADDGA1021+030481999GA2041+042671999GE19MSL   +99999+99999GF199999021999030481999999MA1097731097365REMMET095METAR NZCM 272355Z 00000KT 9999 FEW100 SCT140 M24/M32 A2886 RMK SLP780 FATA MORGANA S AND W-NW=
0253896640876012017092800004-77850+166667FM-12+002499999V0209999C000012200019N011000199-02411-03181097801ADDGA1011+030001041GA2031+042001001GE19MSL   +99999+99999GF104991011999030001999999KA1120M-02321KA2120N-03221MA1097725097351MD1210131+9999REMSYN10689664 42961 40000 11241 21318 39735 49780 52013 81021 333 11232 21322 56044 81460 83064 99114 99116 99117=
0174896640876012017092805554-77850+166667FM-15+002499999V0209999C000019999999N009999199-02601-03501097911ADDGA1021+030481999GE19MSL   +99999+99999GF199999021999030481999999MA1097831097475REMMET083METAR NZCM 280555Z 00000KT 9999 FEW100 M26/M35 A2889 RMK SLP791 FATA MORGANA SE-SW=
0193896640876012017092806004-77850+166667FM-12+002499999V0209999C999992200019N011000199-02601-03491097911ADDGA1021+030001041GE19MSL   +99999+99999GF102991021999030001999999MA1097845097471MD1310121+9999REMSYN08889664 42961 20000 11260 21349 39747 49791 53012 82020 333 56030 82460 99113 99114 99115=
0178896640876012017092808554-77850+166667FM-15+002499999V0209999C00001045721CN009999199-02901-03601098011ADDGA1021+021341999GA2041+045721999GE19MSL   +99999+99999GF199999021999021341999999MA1097931097565REMMET071METAR NZCM 280855Z 00000KT 9999 FEW070 SCT150 M29/M36 A2892 RMK SLP801=
0191896640876012017092809004-77850+166667FM-12+002499999V0209999C000012200019N011000199-02861-03621098011ADDGA1021+021001031GA2999+999999011GE19MSL   +99999+99999GF103991021999021001999999MA1097945097571MD1210101+9999REMSYN07089664 42861 30000 11286 21362 39757 49801 52010 82079 333 56033 82357=
0178896640876012017092811554-77850+166667FM-15+002499999V0209999C00001036581CN009999199-02801-03601098081ADDGA1021+001521999GA2021+036581999GE19MSL   +99999+99999GF199999021999001521999999MA1098001097635REMMET071METAR NZCM 281155Z 00000KT 9999 FEW005 FEW120 M28/M36 A2894 RMK SLP808=
0246896640876012017092812004-77850+166667FM-12+002499999V0209999C999992200019N011000199-02841-03641098081ADDAA124000091GA1011+001501071GA2999+999999031GE19MSL   +99999+99999GF102991011999001501999999KA1240M-02521KA2240N-02971MA1098015097641MD1210071+9999REMSYN08889664 12261 20000 11284 21364 39764 49808 52007 60004 82670 333 11252 21297 56330 81705=
0197896640876012017092817554-77850+166667FM-15+002499999V0200901N007710335319N009999199-02501-03901098391ADDGA1021+024381999GA2071+033531999GE19MSL   +99999+99999GF199999021999024381999999MA1098311097955REMMET090METAR NZCM 281755Z 09015KT 9999 FEW080 BKN110 M25/M39 A2903 RMK SLP839 FATA MORGANA SE-SW=
0215896640876012017092818004-77850+166667FM-12+002499999V0200901N00771033001CN011000199-02751-03901098391ADDGA1021+024001041GA2041+033001021GE19MSL   +99999+99999GF106991021999024001999999MA1098315097941MD1310151+9999REMSYN09489664 42861 60915 11275 21390 39794 49839 53015 82028 333 56033 82458 84261 99123 99114 99115=
0199896640876012017092820554-77850+166667FM-15+002499999V0209999C000010335319N009999199-02501-03601098591ADDGA1021+027431999GA2071+033531999GE19MSL   +99999+99999GF199999021999027431999999MA1098511098145REMMET092METAR NZCM 282055Z 00000KT 9999 FEW090 BKN110 M25/M36 A2909 RMK SLP859 FATA MORGANA SE-SW-W=
0221896640876012017092821004-77850+166667FM-12+002499999V0209999C000019999999N011000199-02491-03631098591ADDGA1021+027001041GA2031+033001021GE19MSL   +99999+99999GF105991021999027001999999MA1098525098141MD1210201+9999REMSYN10089664 42961 50000 11249 21363 39814 49859 52020 82028 333 56033 82459 83261 99113 99114 99115 99116=
0199896640876012017092823554-77850+166667FM-15+002499999V0203101N001510365819N009999199-02301-03401098781ADDGA1041+027431999GA2071+036581999GE19MSL   +99999+99999GF199999041999027431999999MA1098711098345REMMET092METAR NZCM 282355Z 31003KT 9999 SCT090 BKN120 M23/M34 A2915 RMK SLP878 FATA MORGANA SE-SW-W=
0272896640876012017092900004-77850+166667FM-12+002499999V0201201N01801999999CN011000199+99999-03441098781ADDGA1032+027001041GA2032+036001021GE19MSL   +99999+99999GF101992032999027001999999KA1120M-02231KA2120N-02911MA1098715098331MD1210191+9999REMSYN10689664 42961 11235 21344 39833 49878 52019 83028 333 11223 21291 56033 83459 83262 99113 99114 99115 99116=EQDQ01 036003SCOCIG
0221896640876012017092905554-77850+166667FM-15+002499999V0209999C000010335319N009999199-02701-03601098951ADDGA1041+018291999GA2071+033531999GA3071+045721999GE19MSL   +99999+99999GF199999041999018291999999MA1098881098505REMMET098METAR NZCM 290555Z 00000KT 9999 SCT060 BKN110 BKN150 M27/M36 A2920 RMK SLP895 FATA MORGANA S-W-NW=
0237896640876012017092906004-77850+166667FM-12+002499999V0209999C00001033001CN011000199-02661-03571098951ADDGA1031+018001061GA2051+033001041GA3999+999999001GE19MSL   +99999+99999GF107991031999018001999999MA1098875098491MD1310081+9999REMSYN10089664 42761 70000 11266 21357 39849 49895 53008 82621 333 56433 83656 85461 99114 99115 99116 99117=
0220896640876012017092908554-77850+166667FM-15+002499999V0203201N00311033531CN009999199-02701-03401098961ADDGA1021+021341999GA2041+033531999GA3071+045721999GE19MSL   +99999+99999GF199999021999021341999999MA1098881098515REMMET097METAR NZCM 290855Z 32006KT 9999 FEW070 SCT110 BKN150 M27/M34 A2920 RMK SLP896 FATA MORGANA SW-NW=
0236896640876012017092909004-77850+166667FM-12+002499999V0203201N003110450019N011000199-02681-03441098961ADDGA1011+021001041GA2031+033001041GA3051+045001021GE19MSL   +99999+99999GF106991011999021001999999MA1098895098511MD1110021+9999REMSYN09989664 42861 63206 11268 21344 39851 49896 51002 83028 333 56033 81457 83461 85265 99115 99116 9917=
0208896640876012017092911554-77850+166667FM-15+002499999V0200801N00771045721CN009999199-02701-03801098841ADDGA1021+024381999GA2021+033531999GA3041+045721999GE19MSL   +99999+99999GF199999021999024381999999MA1098781098395REMMET085METAR NZCM 291155Z 08015KT 9999 FEW080 FEW110 SCT150 M27/M38 A2917 RMK ACSL W SLP884=
0221896640876012017092917554-77850+166667FM-15+002499999V0201001N010310396219N009999199-02901-04001098711ADDGA1021+027431999GA2071+039621999GE19MSL   +99999+99999GF199999021999027431999999MA1098651098265OC101341OD149901491040REMMET092METAR NZCM 291755Z 10020G26KT 9999 FEW090 BKN130 M29/M40 A2913 RMK PK WND 04029/1442 SLP871=
0197896640876012017092918004-77850+166667FM-12+002499999V0201001N010319999999N011000199-02951-04001098711ADDGA1021+027001041GA2031+039001021GE19MSL   +99999+99999GF105991021999027001999999MA1098635098251MD1510031+9999REMSYN07689664 42961 51020 11295 21400 39825 49871 55003 82028 333 56033 82459 83263=
0254896640876012017092920554-77850+166667FM-15+002499999V0200601N00881027431CN009999199-02401-03801098741ADDGA1021+012191999GA2041+027431999GA3071+045721999GE19MSL   +99999+99999GF199999021999012191999999MA1098681098305MW1361OC101291REMMET117METAR NZCM 292055Z 06017G25KT 9999 DRSN FEW040 SCT090 BKN150 M24/M38 A2914 RMK PK WND 08028/33 SCSL SW ACSL W SLP874=
0247896640876012017092921004-77850+166667FM-12+002499999V0200601N00881045001CN011000199-02881-03831098741ADDAY121021AY221021GA1011+012001061GA2031+027001041GA3041+045001021GE19MSL   +99999+99999GF107991011999012001999999MA1098665098281MD1310031+9999MW1361REMSYN08889664 41661 70617 11288 21383 39828 49874 53003 73622 81578 333 56033 81640 83459 84265=
0259896640876012017092923554-77850+166667FM-15+002499999V0200801N00721027431CN009999199-02901-03501098561ADDGA1021+012191999GA2041+027431999GA3071+045721999GE19MSL   +99999+99999GF199999021999012191999999MA1098511098115MW1361OC101131REMMET122METAR NZCM 292355Z 08014G22KT 9999 DRSN FEW040 SCT090 BKN150 M29/M35 A2909 RMK SCSL SW ACSL W SLP856 FATA MORGANA SE-SW-W=
0303896640876012017093000004-77850+166667FM-12+002499999V0200801N007219999999N011000199-02861-03461098581ADDAY121021AY221021GA1011+012001061GA2031+027001041GA3999+999999021GE19MSL   +99999+99999GF106991011999012001999999KA1120M-02271KA2120N-03061MA1098515098131MD1710151+9999MW1361REMSYN11889664 41661 60814 11286 21346 39813 49858 57015 73622 81578 333 11227 21306 56033 81640 83459 99123 99124 99115 99116=
0240896640876012017093002554-77850+166667FM-15+002499999V0200601N00771027431CN009999199-02801-03501098391ADDGA1021+009141999GA2041+027431999GA3071+045721999GE19MSL   +99999+99999GF199999021999009141999999MA1098311097945OC101131REMMET109METAR NZCM 300255Z 06015G22KT 9999 FEW030 SCT090 BKN150 M28/M35 A2903 RMK ACSL W SLP839 FATA MORGANA SE-SW-W=
0237896640876012017093003004-77850+166667FM-12+002499999V0200601N007719999999N011000199-02801-03531098391ADDGA1021+009001061GA2031+045001011GA3999+999999011GE19MSL   +99999+99999GF106991021999009001999999MA1098315097941MD1710251+9999REMSYN10089664 42561 60615 11280 21353 39794 49839 57025 82549 333 56303 82630 83165 99113 99114 99125 99126=
0235896640876012017093005554-77850+166667FM-15+002499999V0201701N00411025911CN009999199-02501-03401098141ADDGA1021+012191999GA2041+025911999GA3071+042671999GE19MSL   +99999+99999GF199999021999012191999999MA1098071097705REMMET112METAR NZCM 300555Z 17008KT 9999 FEW040 SCT085 BKN140 M25/M34 A2896 RMK ACSL S SLP814 FATA MORGANA S-W-NW SLP814=
0234896640876012017093008554-77850+166667FM-15+002499999V0203301V00621042671CN009999199-02801-03301097781ADDGA1021+012191999GA2021+025911999GA3041+042671999GE19MSL   +99999+99999GF199999021999012191999999MA1097701097335REMMET111METAR NZCM 300855Z 33012KT 260V020 9999 FEW040 FEW085 SCT140 M28/M33 A2885 RMK PRESFR SLP778 FATA MORGANA W-NW=
0182896640876012017093011554-77850+166667FM-15+002499999V0209999V00261001221WN000800199-03201-03701097391ADDGA1091+001221999GE19MSL   +99999+99999GF109991091999001221999999MA1097461096945MW1481MW2761REMMET079METAR NZCM 301155Z VRB05KT 0800 IC FZFG VV004 M32/M37 A2878 RMK ICB1030 SLP739=
0270896640876012017093012004-77850+166667FM-12+002499999V0209999V00261002401WN000800199-03181-03711097391ADDAA124000021AY141021AY221021GA1091+001501999GE19MSL   +99999+99999GF109991091999001501999999KA1240M-02701KA2240N-03201MA1097325096951MD1710381+9999MW1761REMSYN10689664 11208 99905 11318 21371 39695 49739 57038 69904 77642 89/// 333 11270 21320 89/// 90015 90210 96049=
0210896640876012017093017554-77850+166667FM-15+002499999V0209999C00001012191CN009999199-02801-03401096721ADDGA1081+012191999GE19MSL   +99999+99999GF199999081999012191999999MA1096651096285MW1711OD149901541340REMMET099METAR NZCM 301755Z 00000KT 9999 -SN OVC040 M28/M34 A2854 RMK PK WND 34030/1341 ICE1500SNB45 SLP672=
0221896640876012017093018004-77850+166667FM-12+002499999V0209999C00001012001CN011000199-02781-03381096721ADDAY171021AY221021GA1081+012001061GE19MSL   +99999+99999GF108991081999012001999999MA1096655096281MD1510181+9999MW1711REMSYN09489664 41661 80000 11278 21338 39628 49672 55018 77172 887// 333 56499 88640 90000 90330 96476=
0189896640876012017093020554-77850+166667FM-15+002499999V0203101N00411009141CN003200199-02301-03301096541ADDGA1081+009141999GE19MSL   +99999+99999GF199999081999009141999999MA1096481096115MW1711OC100721REMMET084METAR NZCM 302055Z 31008G14KT 3200 -SN OVC030 M23/M33 A2849 RMK SNE1844B1930 SLP654=
0221896640876012017093021004-77850+166667FM-12+002499999V0203101N00411009001CN003200199-02301-03291096541ADDAY171021AY271021GA1081+009001061GE19MSL   +99999+99999GF108991081999009001999999MA1096475096101MD1510181+9999MW1711REMSYN09489664 41532 83108 11230 21329 39610 49654 55018 77177 887// 333 56499 88630 90015 90320 96471=
0173896640876012017093023554-77850+166667FM-15+002499999V0200901N005119999999N006000199-02205-02605096871ADDMA1096785999999MW1735OD149901851180REMMET107METAR NZCM 302355Z 09010KT 6000 VCSN BKN030 BKN080 M22/M26 A2858 RMK PK WND 18036/2236 SNE00 PRESRR SLP687=EQDD01      0ADE735
0212896640876012017100105554-77850+166667FM-15+002499999V0200301N00571030481CN009999199-02401-03101096901ADDGA1021+006101999GA2041+030481999GA3071+045721999GE19MSL   +99999+99999GF199999021999006101999999MA1096821096465MW1361REMMET083METAR NZCM 010555Z 03011KT 9999 DRSN FEW020 SCT100 BKN150 M24/M31 A2859 RMK SLP690=
0187896640876012017100108554-77850+166667FM-15+002499999V0200801N00311018291CN009999199-02701-03401097091ADDGA1081+018291999GE19MSL   +99999+99999GF199999081999018291999999MA1097021096655REMMET096METAR NZCM 010855Z 08006KT 9999 OVC060 M27/M34 A2865 RMK SLP709 SN DSNT SE-SW FATA MORGANA W-NW=
0215896640876012017100109004-77850+166667FM-12+002499999V0200801N00311018001CN011000199-02741-03431097091ADDAY121021AY221021GA1081+018001061GE19MSL   +99999+99999GF108991081999018001999999MA1097025096651MD1310091+9999MW1151REMSYN08889664 41761 80806 11274 21343 39665 49709 53009 71522 885// 333 56599 88656 99116 99127=
0180896640876012017100111554-77850+166667FM-15+002499999V0200901N00511012191CN008000199-02201-02701097441ADDGA1081+012191999GE19MSL   +99999+99999GF199999081999012191999999MA1097391097015MW1711REMMET083METAR NZCM 011155Z 09010KT 8000 -SN OVC040 M22/M27 A2876 RMK SNB1030 PRESRR SLP744=
0241896640876012017100117554-77850+166667FM-15+002499999V0200701N01031009141CN004800199-03001-03501098381ADDGA1021+000001999GA2041+009141999GA3071+021341999GE19MSL   +99999+99999GF199999021999000001999999MA1098312097935MW1381OC101541REMMET104METAR NZCM 011755Z 07020G30KT 4800 BLSN FEW000 SCT030 BKN070 M30/M35 A2903 RMK SNE20 BLSN FEW000 SLP838=
0249896640876012017100118004-77850+166667FM-12+002499999V0200701N010319999999N004800199-03051-03581098381ADDAY171021AY231021GA1031+009001061GA2999+999999031GE19MSL   +99999+99999GF105991031999009001999999MA1098305097931MD1110481+9999MW1381REMSYN10689664 41548 50720 11305 21358 39793 49838 51048 73873 83570 333 56310 83630 90007 90262 90307 96022 96471=
0249896640876012017100120554-77850+166667FM-15+002499999V0200601N010310396219N009999199-03101-03701098781ADDGA1021+021341999GA2071+039621999GE19MSL   +99999+99999GF199999021999021341999999MA1098711098325MW1361OC101341OD149901641060REMMET114METAR NZCM 012055Z 06020G26KT 9999 DRSN FEW070 BKN130 M31/M37 A2915 RMK PK WND 06032/1852 SLP878 BLSN DSNT S-W-NW=
0237896640876012017100121004-77850+166667FM-12+002499999V0200601N01031039001CN011000199-03111-03741098781ADDAY131021AY221021GA1021+021001031GA2041+039001021GE19MSL   +99999+99999GF106991021999021001999999MA1098715098331MD1210401+9999MW1361REMSYN09489664 41861 60620 11311 21374 39833 49878 52040 73632 82078 333 56011 82357 84263 90320 96438=
0222896640876012017100123554-77850+166667FM-15+002499999V0200501N007719999999N009999199-02801-03501099071ADDGA1021+039621999GE19MSL   +99999+99999GF199999021999039621999999MA1098981098625MW1361OD149901491070REMMET111METAR NZCM 012355Z 05015KT 9999 DRSN FEW130 M28/M35 A2923 RMK SLP907 PK WND 07029/2153 SLP907 BLSN DSNT S-W-NW=
0253896640876012017100200004-77850+166667FM-12+002499999V0200501N007712200019N011000199-02771-03541099071ADDAY131021AY211021GA1021+039001021GE19MSL   +99999+99999GF102991021999039001999999KA1120M-02421KA2120N-03161MA1098985098601MD1210271+9999MW1361REMSYN10089664 41961 20515 11277 21354 39860 49907 52027 73631 80008 333 11242 21316 56005 82263 90350 96438=
0199896640876012017100202554-77850+166667FM-15+002499999V0200601N009319999999N009999199-02801-03501099261ADDGA1021+039621999GE19MSL   +99999+99999GF199999021999039621999999MA1099191098815OC101391REMMET100METAR NZCM 020255Z 06018G27KT 9999 FEW130 M28/M35 A2929 RMK SLP926 BLSN DSNT NW FATA MORGANA S-W-NW=
0199896640876012017100203004-77850+166667FM-12+002499999V0200601N009312200019N011000199-02831-03551099261ADDGA1011+039001021GE19MSL   +99999+99999GF101991011999039001999999MA1099195098811MD1210211+9999REMSYN09489664 42961 10618 11283 21355 39881 49926 52021 80008 333 56005 81263 99124 99115 99116 99127=
0180896640876012017100205554-77850+166667FM-15+002499999V0200901N006719999999N009999199-02905-03505099481ADDMA1099395999999MW1165OC101081OD149901591060REMMET106METAR NZCM 020555Z 09013G21KT 9999 VCBLSN BKN080 M29/M35 A2935 RMK PK WND 06031/0419 SLP948 VCBLSN S-W-NW=EQDD01      0ADE735
0175896640876012017100206004-77850+166667FM-12+002499999V0200901N00671024001CN011000199-02951-03551099481ADDGA1071+024001041GE19MSL   +99999+99999GF107991071999024001999999MA1099415099031MD1210221+9999REMSYN07089664 42861 70913 11295 21355 39903 49948 52022 87010 333 56010 87458=
0179896640876012017100208554-77850+166667FM-15+002499999V0200701N00721024381CN009999199-03001-03601099681ADDGA1071+024381999GE19MSL   +99999+99999GF199999071999024381999999MA1099591099225OC101131REMMET080METAR NZCM 020855Z 07014G22KT 9999 BKN080 M30/M36 A2941 RMK SLP968 BLSN DSNT NW=
0175896640876012017100209004-77850+166667FM-12+002499999V0200701N00721024001CN011000199-02991-03591099681ADDGA1071+024001041GE19MSL   +99999+99999GF107991071999024001999999MA1099605099221MD1310191+9999REMSYN07089664 42861 70714 11299 21359 39922 49968 53019 87020 333 56010 87458=
0195896640876012017100211554-77850+166667FM-15+002499999V0200601N00771012191CN003200199-03001-03601099861ADDGA1081+012191999GE19MSL   +99999+99999GF199999081999012191999999MA1099801099405MW1381MW2711OC101291REMMET084METAR NZCM 021155Z 06015G25KT 3200 -SN BLSN OVC040 M30/M36 A2947 RMK SNB1020 SLP986=
0276896640876012017100212004-77850+166667FM-12+002499999V0200601N00771012001CN003200199-03011-03571099861ADDAA124000021AY171021AY221021GA1081+012001061GE19MSL   +99999+99999GF108991081999012001999999KA1240M-02531KA2240N-03101MA1099785099401MD1310181+9999MW1711REMSYN11289664 11632 80615 11301 21357 39940 49986 53018 69904 77172 885// 333 11253 21310 56299 88640 90017 90203 96038=
0218896640876012017100217554-77850+166667FM-15+002499999V0200701N00771000911WN000200199-03001-03501100161ADDGA1091+000911999GE19MSL   +99999+99999GF109991091999000911999999MA1100071099705MW1381MW2711OC101391OD149901751060REMMET093METAR NZCM 021755Z 07015G27KT 0200 -SN BLSN VV003 M30/M35 A2955 RMK PK WND 06034/1623 SLP016=
0202896640876012017100220554-77850+166667FM-15+002499999V0200901N01031000911WN000200199-02601-03001100191ADDGA1091+000911999GE19MSL   +99999+99999GF109991091999000911999999MA1100171099745MW1381MW2711OC101651REMMET091METAR NZCM 022055Z 09020G32KT 0200 -SN BLSN VV003 M26/M30 A2958 RMK PK WND 14033/28 SLP019=
0209896640876012017100221004-77850+166667FM-12+002499999V0200901N01031000901WN000200199-02581-03011100191ADDAY171021AY231021GA1091+000901999GE19MSL   +99999+99999GF109991091999000901999999MA1100165099781MD1210091+9999MW1711REMSYN08289664 41/02 90920 11258 21301 39978 40019 52009 77173 333 89/03 90065 90264 96038=
0218896640876012017100223554-77850+166667FM-15+002499999V0201401N01601001521WN000200199-02501-02901100151ADDGA1091+001521999GE19MSL   +99999+99999GF109991091999001521999999MA1100071099705MW1381MW2711OC102371OD149902471150REMMET093METAR NZCM 022355Z 14031G46KT 0200 -SN BLSN VV005 M25/M29 A2955 RMK PK WND 15048/2219 SLP015=
0217896640876012017100302554-77850+166667FM-15+002499999V0201201N00821000611WN000200199-02401-03801100211ADDGA1091+000611999GE19MSL   +99999+99999GF109991091999000611999999MA1100141099765MW1381MW2731OC101541OD149901641150REMMET092METAR NZCM 030255Z 12016G30KT 0200 SN BLSN VV002 M24/M38 A2957 RMK PK WND 15032/0156 SLP021=
0209896640876012017100303004-77850+166667FM-12+002499999V0201201N00821000601WN000400199-02391-03761100211ADDAY171021AY231021GA1091+000601999GE19MSL   +99999+99999GF109991091999000601999999MA1100135099751MD1990061+9999MW1731REMSYN08289664 41/04 91216 11239 21376 39975 40021 50006 77373 333 89/02 90067 90267 96038=
0185896640876012017100305554-77850+166667FM-15+002499999V0201301N00931000911WN000300199-02201-02602100091ADDGA1091+000911999GE19MSL   +99999+99999GF109991091999000911999999MA1100001099645MW1381MW2731OC101961REMMET074METAR NZCM 030555Z 13018G38KT 0300 SN BLSN VV003 M22/M26 A2953 RMK SLP009=
0215896640876012017100306004-77850+166667FM-12+002499999V0201301N00931000901WN000300199-02221-02591100091ADDAY171021AY231021GA1091+000901999GE19MSL   +99999+99999GF109991091999000901999999MA1100015099631MD1710121+9999MW1731REMSYN08889664 11/03 91318 11222 21259 39963 40009 57012 77373 333 01443 89/03 90068 90268 96038=
0201896640876012017100308554-77850+166667FM-15+002499999V0201301N01541001221WN000300199-02201-02601099701ADDGA1091+001221999GE19MSL   +99999+99999GF109991091999001221999999MA1099631099265MW1381MW2731OC102161REMMET090METAR NZCM 030855Z 13030G42KT 0300 SN BLSN VV004 M22/M26 A2942 RMK PK WND 14046/07 SLP970=
0228896640876012017100309004-77850+166667FM-12+002499999V0201301N01541001201WN000300199-02251-02611999999ADDAY171021AY231021GA1091+001201999GE19MSL   +99999+99999GF109991091999001201999999MA1099635099251MD1810381+9999MW1731REMSYN08289664 41/03 91330 11225 21261 39925 49770 58038 77373 333 89/04 90068 90268 96038=EQDQ01977   3APOSLP
0217896640876012017100311554-77850+166667FM-15+002499999V0201301N01181000911WN000200199-02401-02801099741ADDGA1091+000911999GE19MSL   +99999+99999GF109991091999000911999999MA1099661099295MW1381MW2731OC101851OD149902721130REMMET092METAR NZCM 031155Z 13023G36KT 0200 SN BLSN VV003 M24/M28 A2943 RMK PK WND 13053/1048 SLP974=
0270896640876012017100312004-77850+166667FM-12+002499999V0201301N01181000901WN000200199-02401-02791099741ADDAA124999919AY171021AY231021GA1091+000901999GE19MSL   +99999+99999GF109991091999000901999999KA1240M-02131KA2240N-02511MA1099675099291MD1990041+9999MW1731REMSYN10689664 11/02 91323 11240 21279 39929 49974 50004 6///4 77373 333 01353 11213 21251 89/03 90068 90268 96038=
0201896640876012017100317554-77850+166667FM-15+002499999V0201501N02111000301WN000100199-02201-02601099561ADDGA1091+000301999GE19MSL   +99999+99999GF109991091999000301999999MA1099461099125MW1381MW2731OC102631REMMET090METAR NZCM 031755Z 15041G51KT 0100 SN BLSN VV001 M22/M26 A2937 RMK PK WND 16055/02 SLP956=
0215896640876012017100318004-77850+166667FM-12+002499999V0201501N02111000301WN000100199-02211-02581099561ADDAY171021AY231021GA1091+000301999GE19MSL   +99999+99999GF109991091999000301999999MA1099495099111MD1510221+9999MW1711REMSYN08889664 41/01 91541 11221 21258 39911 49956 55022 77173 333 01655 89/01 90068 90268 96038=
0229896640876012017100320554-77850+166667FM-15+002499999V0201101N00931001221WN000300199-02101-02501099861ADDGA1091+001221999GE19MSL   +99999+99999GF109991091999001221999999MA1099801099425MW1381MW2711OC101441OD149902361150REMMET104METAR NZCM 032055Z 11018G28KT 0300 -SN BLSN VV004 M21/M25 A2947 RMK PK WND 15046/1905 VIS N 1400 SLP986=
0215896640876012017100321004-77850+166667FM-12+002499999V0201101N00931001201WN000400199-02131-02471099861ADDAY171021AY231021GA1091+001201999GE19MSL   +99999+99999GF109991091999001201999999MA1099805099421MD1110311+9999MW1711REMSYN08889664 41/04 91118 11213 21247 39942 49986 51031 77173 333 01546 89/04 90068 90268 96038=
0200896640876012017100323554-77850+166667FM-15+002499999V0201401N02011000301WN000100199-01801-02101099431ADDGA1091+000301999GE19MSL   +99999+99999GF109991091999000301999999MA1099361098995MW1381OC102521REMMET095METAR NZCM 032355Z 14039G49KT 0100 BLSN VV001 M18/M21 A2934 RMK PK WND 15053/27 SNE2230 SLP943=
0253896640876012017100400004-77850+166667FM-12+002499999V0201401N02011000301WN000100199-01841-02141099431ADDAY171021AY231021GA1091+000301999GE19MSL   +99999+99999GF109991091999000301999999KA1120M-01791KA2120N-02531MA1099365098981MD1710441+9999MW1381REMSYN10089664 41/01 91439 11184 21214 39898 49943 57044 73873 333 01553 11179 21253 89/01 90068 90315 96471=
0267896640876012017100402554-77850+166667FM-15+002499999V0201401N016010076219N001400199-01601-01901099591ADDGA1041+000001999GA2071+007621999GA3071+030481999GE19MSL   +99999+99999GF199999041999000001999999MA1099531099165MW1381OC102111OD149902621150REMMET116METAR NZCM 040255Z 14031G41KT 1400 BLSN SCT000 BKN025 BKN100 M16/M19 A2939 RMK PK WND 15051/0044 BLSN SCT000 SLP959=
0225896640876012017100403004-77850+166667FM-12+002499999V0201401N016012200019N001400199-01651-01911099591ADDAY131021AY231021GA1011+007501071GA2999+999999051GE19MSL   +99999+99999GF103991011999007501999999MA1099525099141MD1990161+9999MW1381REMSYN08289664 41514 31431 11165 21191 39914 49959 50016 73833 81720 333 56440 81725 90068=
0267896640876012017100405554-77850+166667FM-15+002499999V0201501N014910076219N003200199-01701-01901099611ADDGA1041+000001999GA2071+007621999GA3071+030481999GE19MSL   +99999+99999GF199999041999000001999999MA1099531099175MW1381OC102011OD149902361150REMMET116METAR NZCM 040555Z 15029G39KT 3200 BLSN SCT000 BKN025 BKN100 M17/M19 A2939 RMK PK WND 15046/0344 BLSN SCT000 SLP961=
0231896640876012017100406004-77850+166667FM-12+002499999V0201501N014912200019N003200199-01671-01941099611ADDAY131021AY231021GA1021+007501071GA2999+999999031GE19MSL   +99999+99999GF103991021999007501999999MA1099545099161MD1990021+9999MW1381REMSYN08889664 41532 31529 11167 21194 39916 49961 50002 73833 82670 333 01551 56440 82725 90068=
0267896640876012017100408554-77850+166667FM-15+002499999V0201301N017510045719N001400199-01801-02101099731ADDGA1041+000001999GA2071+004571999GA3071+030481999GE19MSL   +99999+99999GF199999041999000001999999MA1099661099295MW1381OC102271OD149902781160REMMET116METAR NZCM 040855Z 13034G44KT 1400 BLSN SCT000 BKN015 BKN100 M18/M21 A2943 RMK PK WND 16054/0730 BLSN SCT000 SLP973=
0225896640876012017100409004-77850+166667FM-12+002499999V0201301N017512200019N001400199-01771-02061099731ADDAY131021AY231021GA1031+004501071GA2999+999999031GE19MSL   +99999+99999GF104991031999004501999999MA1099665099281MD1990121+9999MW1381REMSYN08289664 41414 41334 11177 21206 39928 49973 50012 73833 84670 333 56340 83715 90068=
0278896640876012017100411554-77850+166667FM-15+002499999V0201301N00931030481CN006000199-01901-02201100181ADDGA1021+004571999GA2041+030481999GA3071+042671999GE19MSL   +99999+99999GF199999021999004571999999MA1100141099745MW1381MW2401OC101541OD149902111150REMMET121METAR NZCM 041155Z 13018G30KT 6000 BLSN VCFG FEW015 SCT100 BKN140 M19/M22 A2957 RMK PK WND 15041/0951 SLP018 VCFG S-W-NW=
0314896640876012017100412004-77850+166667FM-12+002499999V0201301N009319999999N006000199-01901-02221100181ADDAA124001031AY131021AY231021GA1011+004501071GA2031+030001031GA3999+999999021GE19MSL   +99999+99999GF107991011999004501999999KA1240M-01581KA2240N-01911MA1100125099741MD1110461+9999MW1381REMSYN11889664 11456 71318 11190 21222 39974 40018 51046 60014 73833 81677 333 01654 11158 21191 56344 81715 83360 90068 96040=
0257896640876012017100414554-77850+166667FM-15+002499999V0201301N007210426719N006000199-01901-02201100371ADDGA1021+003051999GA2071+042671999GE19MSL   +99999+99999GF199999021999003051999999MA1100301099935MW1381MW2401OC101241OD149902001140REMMET116METAR NZCM 041455Z 13014G24KT 6000 BLSN VCFG FEW010 BKN140 M19/M22 A2962 RMK PK WND 14039/1255 SLP037 VCFG SE-SW-NW=
0237896640876012017100415004-77850+166667FM-12+002499999V0201301N00721042001CN006000199-01861-02191100371ADDAY131021AY231021GA1011+003001071GA2071+042001021GE19MSL   +99999+99999GF107991011999003001999999MA1100305099921MD1210181+9999MW1401REMSYN09489664 41456 71314 11186 21219 39992 40037 52018 74033 81607 333 56405 81710 87264 90268 96038=
0232896640876012017100417554-77850+166667FM-15+002499999V0201101N00721048771CN009999199-01701-02001100411ADDGA1071+048771999GA2071+054861999GE19MSL   +99999+99999GF199999071999048771999999MA1100341099975MW1381OC101241OD149901691150REMMET097METAR NZCM 041755Z 11014G24KT 9999 BLSN BKN160 BKN180 M17/M20 A2963 RMK PK WND 15033/1533 SLP041=
0215896640876012017100418004-77850+166667FM-12+002499999V0201101N007210480019N011000199-01721-02041100411ADDAY131021AY231021GA1061+048001021GE19MSL   +99999+99999GF107991061999048001999999MA1100345099961MD1210041+9999MW1381REMSYN08889664 41961 71114 11172 21204 39996 40041 52004 73833 80007 333 01439 56005 86266 90068=
0236896640876012017100420554-77850+166667FM-15+002499999V0200401N009310487719N009999199-01601-02001100211ADDGA1041+042671999GA2071+048771999GE19MSL   +99999+99999GF199999041999042671999999MA1100141099775OC101241OD149901641140REMMET107METAR NZCM 042055Z 04018G24KT 9999 SCT140 BKN160 M16/M20 A2957 RMK PK WND 14032/1756 SLP021 FATA MORGANA S=
0203896640876012017100421004-77850+166667FM-12+002499999V0200401N00931048001CN011000199-01601-01971100211ADDGA1031+042001021GA2041+048001021GE19MSL   +99999+99999GF107991031999042001999999MA1100155099771MD1810191+9999REMSYN08289664 42961 70418 11160 21197 39977 40021 58019 80006 333 56008 83264 84266 99114=
0221896640876012017100423554-77850+166667FM-15+002499999V0200601N009310487719N009999199-01401-01801100021ADDGA1021+042671999GA2071+048771999GE19MSL   +99999+99999GF199999021999042671999999MA1099971099595OC101341OD149901541050REMMET092METAR NZCM 042355Z 06018G26KT 9999 FEW140 BKN160 M14/M18 A2952 RMK PK WND 05030/2234 SLP002=
0204896640876012017100502554-77850+166667FM-15+002499999V0200501N00671048771CN009999199-01101-01701099691ADDGA1021+042671999GA2041+048771999GE19MSL   +99999+99999GF199999021999042671999999MA1099631099265OC101081REMMET089METAR NZCM 050255Z 05013G21KT 9999 FEW140 SCT160 M11/M17 A2942 RMK SLP969 FATA MORGANA S=
0203896640876012017100503004-77850+166667FM-12+002499999V0200501N006712200019N011000199-01141-01741099691ADDGA1011+042001021GA2031+048001021GE19MSL   +99999+99999GF104991011999042001999999MA1099645099261MD1710321+9999REMSYN08289664 42961 40513 11114 21174 39926 49969 57032 80008 333 56008 81264 83266 99114=
0199896640876012017100505554-77850+166667FM-15+002499999V0200901N00621048771CN009999199-01501-02101099441ADDGA1021+042671999GA2041+048771999GE19MSL   +99999+99999GF199999021999042671999999MA1099391099015REMMET092METAR NZCM 050555Z COR 09012KT 9999 FEW140 SCT160 M15/M21 A2935 RMK SLP944 FATA MORGANA S-W=
0215896640876012017100506004-77850+166667FM-12+002499999V0200901N006212200019N011000199-01461-02151099441ADDGA1011+042001021GA2031+048001021GE19MSL   +99999+99999GF104991011999042001999999MA1099395099011MD1710251+9999REMSYN09489664 42961 40912 11146 21215 39901 49944 57025 80008 333 56008 81264 83266 99114 99115 99116=
0178896640876012017100508554-77850+166667FM-15+002499999V0200801N00511048771CN009999199-01401-02101099271ADDGA1021+042671999GA2041+048771999GE19MSL   +99999+99999GF199999021999042671999999MA1099221098845REMMET071METAR NZCM 050855Z 08010KT 9999 FEW140 SCT160 M14/M21 A2930 RMK SLP927=
0197896640876012017100509004-77850+166667FM-12+002499999V0200801N005112200019N011000199-01361-02141099271ADDGA1011+042001021GA2031+048001021GE19MSL   +99999+99999GF103991011999042001999999MA1099215098831MD1610181+9999REMSYN07689664 42961 30810 11136 21214 39883 49927 56018 80008 333 56008 81264 83266=
0178896640876012017100511554-77850+166667FM-15+002499999V0201101N00671048771CN009999199-01001-02201099211ADDGA1021+042671999GA2041+048771999GE19MSL   +99999+99999GF199999021999042671999999MA1099151098795REMMET071METAR NZCM 051155Z 11013KT 9999 FEW140 SCT160 M10/M22 A2928 RMK SLP921=
0271896640876012017100512004-77850+166667FM-12+002499999V0201101N006712200019N011000199-00991-02241099211ADDAA124999939GA1011+042001021GA2031+048001021GE19MSL   +99999+99999GF103991011999042001999999KA1240M-00891KA2240N-01651MA1099155098771MD1710061+9999REMSYN09489664 12961 31113 11099 21224 39877 49921 57006 69004 80008 333 11089 21165 56008 81264 83266=EQDQ01  90002PRCP24
0193896640876012017100514554-77850+166667FM-15+002499999V0201301N010819999999N009999199-01301-02201099021ADDGA1021+042671999GE19MSL   +99999+99999GF199999021999042671999999MA1098981098595MW1361OC101601REMMET088METAR NZCM 051455Z 13021G31KT 9999 DRSN FEW140 M13/M22 A2923 RMK PK WND 13031/44 SLP902=
0203896640876012017100515004-77850+166667FM-12+002499999V0201301N010812200019N011000199-01271-02221099021ADDAY101021AY201021GA1021+042001021GE19MSL   +99999+99999GF102991021999042001999999MA1098975098591MD1610181+9999MW1361REMSYN07689664 41961 21321 11127 21222 39859 49902 56018 73600 80008 333 56007 82264=
0225896640876012017100517554-77850+166667FM-15+002499999V0200601N00931054861CN009999199-01401-02301099021ADDGA1021+048771999GA2021+054861999GE19MSL   +99999+99999GF199999021999048771999999MA1098981098595OC101241OD149901641110REMMET096METAR NZCM 051755Z COR 06018G24KT 9999 FEW160 FEW180 M14/M23 A2923 RMK PK WND 11032/1518 SLP902=
0255896640876012017100520554-77850+166667FM-15+002499999V0200401N00881042671CN009999199-01101-02301099071ADDGA1021+009141999GA2021+024381999GA3021+042671999GE19MSL   +99999+99999GF199999021999009141999999MA1099021098655OC101081REMMET124METAR NZCM 052055Z COR 04017G21KT 9999 FEW030 FEW080 FEW140 M11/M23 A2924 RMK PK WND 04028/23 ACSL SW SLP907 FATA MORGANA S=
0213896640876012017100521004-77850+166667FM-12+002499999V0200401N008812200019N011000199-01121-02281099071ADDGA1011+009001061GA2999+999999031GA3999+999999021GE19MSL   +99999+99999GF102991011999009001999999MA1099025098641MD1310051+9999REMSYN07689664 42561 20417 11112 21228 39864 49907 53005 81548 333 56333 81630 99114=
0160896640876012017100523554-77850+166667FM-15+002499999V0201501N013419999999N009999199-01505-02105099261ADDMA1099155999999MW1361OC101801REMMET100METAR NZCM 052355Z 15026G35KT 9999 DRSN VCBLSN FEW030 FEW140 M15/M21 A2928 RMK SLP926 VCBLSN S-W-NW=EQDD01      0ADE693
0221896640876012017100602554-77850+166667FM-15+002499999V0201101N007210426719N009999199-01301-02101099181ADDGA1041+030481999GA2071+042671999GE19MSL   +99999+99999GF199999041999030481999999MA1099121098755OC101181OD149901951140REMMET092METAR NZCM 060255Z 11014G23KT 9999 SCT100 BKN140 M13/M21 A2927 RMK PK WND 14038/0011 SLP918=
0197896640876012017100603004-77850+166667FM-12+002499999V0201101N00721042001CN011000199-01301-02091099181ADDGA1041+030001031GA2031+042001021GE19MSL   +99999+99999GF107991041999030001999999MA1099135098751MD1810021+9999REMSYN07689664 42961 71114 11130 21209 39875 49918 58002 84078 333 56033 84360 83264=
0232896640876012017100605554-77850+166667FM-15+002499999V0201601N01241036581CN009999199-01101-02201099131ADDGA1021+024381999GA2041+036581999GE19MSL   +99999+99999GF199999021999024381999999MA1099051098715OC101491OD149901541130REMMET103METAR NZCM 060555Z 16024G29KT 9999 FEW080 SCT120 M11/M22 A2925 RMK PK WND 13030/0313 ACSL SW-NW SLP913=
0181896640876012017100606004-77850+166667FM-12+002499999V0201601N012412200019N011000199-01081-02221099131ADDGA1011+024001031GE19MSL   +99999+99999GF103991011999024001999999MA1099075098691MD1810061+9999REMSYN07689664 42861 31624 11108 21222 39869 49913 58006 83040 333 01438 56000 81358=
0231896640876012017100608554-77850+166667FM-15+002499999V0202301N00361024381CN009999199-00801-02201098941ADDGA1071+024381999GA2071+036581999GE19MSL   +99999+99999GF199999071999024381999999MA1098881098525OC100931OD149901641170REMMET102METAR NZCM 060855Z 23007G18KT 9999 BKN080 BKN120 M08/M22 A2920 RMK PK WND 17032/0700 ACSL W-NW SLP894=
0191896640876012017100609004-77850+166667FM-12+002499999V0200701N00931024001CN011000199-00841-02041098941ADDGA1061+024001041GA2999+999999021GE19MSL   +99999+99999GF107991061999024001999999MA1098905098521MD1810171+9999REMSYN07089664 42861 70718 11084 21204 39852 49894 58017 86078 333 56033 86458=
0185896640876012017100611554-77850+166667FM-15+002499999V0201501N00621027431CN009999199-00701-02201098811ADDGA1071+027431999GA2071+036581999GE19MSL   +99999+99999GF199999071999027431999999MA1098751098395REMMET078METAR NZCM 061155Z 15012KT 9999 BKN090 BKN120 M07/M22 A2916 RMK ACSL W SLP881=
0196896640876012017100614554-77850+166667FM-15+002499999V0201601N009810274319N009999199-01301-01901098991ADDGA1041+009141999GA2071+027431999GE19MSL   +99999+99999GF199999041999009141999999MA1098921098565REMMET089METAR NZCM 061455Z 16019KT 9999 SCT030 BKN090 M13/M19 A2921 RMK PK WND 19036/1334 SLP899=
0197896640876012017100615004-77850+166667FM-12+002499999V0201601N00981027001CN011000199-01301-01881098991ADDGA1031+009001061GA2051+027001041GE19MSL   +99999+99999GF107991031999009001999999MA1098935098551MD1210181+9999REMSYN07689664 42561 71619 11130 21188 39855 49899 52018 83520 333 56550 83630 85459=
0278896640876012017100617554-77850+166667FM-15+002499999V0201201N006210274319N009999199-01001-01901099021ADDGA1021+009141999GA2071+027431999GA3081+042671999GE19MSL   +99999+99999GF199999021999009141999999MA1098981098605MW1361OC100981OD149901541160REMMET127METAR NZCM 061755Z 12012G19KT 9999 DRSN FEW030 BKN090 OVC140 M10/M19 A2923 RMK PK WND 16030/1552 ACSL SW AND NW CCSL SW SLP902=
0247896640876012017100618004-77850+166667FM-12+002499999V0201201N00621027001CN011000199-01031-01951099021ADDAY121021AY221021GA1011+009001061GA2071+027001041GA3999+999999011GE19MSL   +99999+99999GF108991011999009001999999MA1098975098591MD1990041+9999MW1361REMSYN08889664 41561 81212 11103 21195 39859 49902 50004 73622 81579 333 01936 56330 81630 87459=
0233896640876012017100620554-77850+166667FM-15+002499999V0201001N004110152419N009999199-01201-01801099121ADDGA1041+004571999GA2071+015241999GA3071+036581999GE19MSL   +99999+99999GF199999041999004571999999MA1099091098695OD149901331150REMMET096METAR NZCM 062055Z 10008KT 9999 SCT015 BKN050 BKN120 M12/M18 A2926 RMK PK WND 15026/1949 SLP912=
0197896640876012017100621004-77850+166667FM-12+002499999V0201001N00411015001CN011000199-01221-01841099121ADDGA1031+004501071GA2051+015001061GE19MSL   +99999+99999GF107991031999004501999999MA1099085098701MD1990111+9999REMSYN07689664 42461 71008 11122 21184 39870 49912 50011 85670 333 56330 83715 85650=
0251896640876012017100623554-77850+166667FM-15+002499999V0201501N008210121919N006000199-01201-01801098971ADDGA1041+003051999GA2081+012191999GE19MSL   +99999+99999GF199999041999003051999999MA1098921098555MW1711OC101081OD149901391150REMMET116METAR NZCM 062355Z 15016G21KT 6000 -SN SCT010 OVC040 M12/M18 A2921 RMK PK WND 15027/2211 SNB2150 SLP897 BLSN DSNT S=
0219896640876012017100702554-77850+166667FM-15+002499999V0201001N00721003351CN001000199-01601-01801099201ADDGA1081+003351999GE19MSL   +99999+99999GF199999081999003351999999MA1099151098775MW1381MW2711OC101341OD149901691150REMMET094METAR NZCM 070255Z 10014G26KT 1000 -SN BLSN OVC011 M16/M18 A2928 RMK PK WND 15033/0100 SLP920=
0188896640876012017100705554-77850+166667FM-15+002499999V0200901N00511014331CN003200199-01801-02101099311ADDGA1071+014331999GA2081+018291999GE19MSL   +99999+99999GF199999071999014331999999MA1099251098875MW1711REMMET075METAR NZCM 070555Z 09010KT 3200 -SN BKN047 OVC060 M18/M21 A2931 RMK SLP931=
0203896640876012017100708554-77850+166667FM-15+002499999V0200901N00671006101CN001600199-01801-02101099421ADDGA1081+006101999GE19MSL   +99999+99999GF199999081999006101999999MA1099361098985MW1381MW2711OC101081REMMET092METAR NZCM 070855Z 09013G21KT 1600 -SN BLSN OVC020 M18/M21 A2934 RMK PK WND 15030/13 SLP942=
0221896640876012017100709004-77850+166667FM-12+002499999V0200901N00671006001CN001600199-01821-02141099421ADDAY171021AY231021GA1081+006001071GE19MSL   +99999+99999GF108991081999006001999999MA1099365098981MD1310101+9999MW1711REMSYN09489664 41516 80913 11182 21214 39898 49942 53010 77173 887// 333 56399 88720 90066 90225 96038=
0187896640876012017100711554-77850+166667FM-15+002499999V0200801N00671006101CN001600199-01701-02001099431ADDGA1081+006101999GE19MSL   +99999+99999GF199999081999006101999999MA1099391099005MW1381MW2711OC101031REMMET076METAR NZCM 071155Z 08013G20KT 1600 -SN BLSN OVC020 M17/M20 A2935 RMK SLP943=
0276896640876012017100712004-77850+166667FM-12+002499999V0200801N00671006001CN001600199-01691-01981099431ADDAA124000331AY171021AY231021GA1081+006001071GE19MSL   +99999+99999GF108991081999006001999999KA1240M-00721KA2240N-01831MA1099375098991MD1110011+9999MW1711REMSYN11289664 11516 80813 11169 21198 39899 49943 51001 69934 77173 887// 333 11072 21183 56399 88720 90067 90255 96038=
0176896640876012017100714554-77850+166667FM-15+002499999V0200901N00621009141CN001600199-01601-01801099471ADDGA1081+009141999GE19MSL   +99999+99999GF199999081999009141999999MA1099421099045MW1381MW2711REMMET073METAR NZCM 071455Z 09012KT 1600 -SN BLSN OVC030 M16/M18 A2936 RMK SLP947=
0221896640876012017100715004-77850+166667FM-12+002499999V0200901N00621009001CN001600199-01571-01831099471ADDAY171021AY231021GA1081+009001061GE19MSL   +99999+99999GF108991081999009001999999MA1099415099031MD1210041+9999MW1711REMSYN09489664 41516 80912 11157 21183 39903 49947 52004 77173 885// 333 56299 88630 90068 90263 96038=
0187896640876012017100717554-77850+166667FM-15+002499999V0201101N00671013721CN003200199-01401-01701099421ADDGA1081+013721999GE19MSL   +99999+99999GF199999081999013721999999MA1099361098995MW1381MW2711OC101131REMMET076METAR NZCM 071755Z 11013G22KT 3200 -SN BLSN OVC045 M14/M17 A2934 RMK SLP942=
0221896640876012017100718004-77850+166667FM-12+002499999V0201101N00671013501CN003200199-01411-01661099421ADDAY171021AY231021GA1081+013501061GE19MSL   +99999+99999GF108991081999013501999999MA1099365098981MD1710051+9999MW1711REMSYN09489664 41632 81113 11141 21166 39898 49942 57005 77173 885// 333 56299 88645 90068 90266 96038=
0256896640876012017100720554-77850+166667FM-15+002499999V0200701N00571015241CN009999199-01301-01801099341ADDGA1071+015241999GA2081+030481999GE19MSL   +99999+99999GF199999071999015241999999MA1099291098915MW1361OC100931OD149901391160REMMET121METAR NZCM 072055Z 07011G18KT 9999 DRSN BKN050 OVC100 M13/M18 A2932 RMK PK WND 16027/1946 SNE1840 SLP934 BLSN DSNT SW-NW=
0231896640876012017100721004-77850+166667FM-12+002499999V0200701N00571015001CN011000199-01271-01761099341ADDAY171021AY231021GA1061+015001061GA2999+999999051GE19MSL   +99999+99999GF108991061999015001999999MA1099285098901MD1710081+9999MW1361REMSYN08889664 41761 80711 11127 21176 39890 49934 57008 73673 8652/ 333 56339 86650 90110 90320=
0219896640876012017100723554-77850+166667FM-15+002499999V0200501N007210365819N009999199-01101-02001099331ADDGA1041+018291999GA2071+036581999GE19MSL   +99999+99999GF199999041999018291999999MA1099291098915MW1361OC101181REMMET098METAR NZCM 072355Z 05014G23KT 9999 DRSN SCT060 BKN120 M11/M20 A2932 RMK SLP933 BLSN DSNT S AND NW=
0220896640876012017100802554-77850+166667FM-15+002499999V0200901N006210426719N009999199-01101-02001099301ADDGA1041+036581999GA2071+042671999GE19MSL   +99999+99999GF199999041999036581999999MA1099251098885OC100881REMMET105METAR NZCM 080255Z 09012G17KT 9999 SCT120 BKN140 M11/M20 A2931 RMK SLP930 BLSN DSNT NW FATA MORGANA S-SW=
0209896640876012017100803004-77850+166667FM-12+002499999V0200901N00621042001CN011000199-01081-02001099301ADDGA1031+036001041GA2031+042001001GE19MSL   +99999+99999GF106991031999036001999999MA1099245098861MD1810031+9999REMSYN08889664 42961 60912 11108 21200 39886 49930 58003 83022 333 56033 83462 83064 99114 99115=
0224896640876012017100805554-77850+166667FM-15+002499999V0200501N00511036581CN009999199-00901-02401099091ADDGA1021+030481999GA2041+036581999GA3071+042671999GE19MSL   +99999+99999GF199999021999030481999999MA1099021098675REMMET101METAR NZCM 080555Z 05010KT 9999 FEW100 SCT120 BKN140 M09/M24 A2924 RMK ACSL N SLP909 FATA MORGANA NW=
0203896640876012017100806004-77850+166667FM-12+002499999V0200501N005119999999N011000199-00921-02381099091ADDGA1011+003001031GA2031+036001041GE19MSL   +99999+99999GF105991011999003001999999MA1099035098651MD1810211+9999REMSYN08289664 42961 50510 11092 21238 39865 49909 58021 83042 333 56003 81310 83462 99117=
0155896640876012017100808554-77850+166667FM-15+002499999V0209999C000019999999N009999199-01301-02401098891ADDGA1041+048771999GE19MSL   +99999+99999GF199999041999048771999999MA1098851098465REMMET064METAR NZCM 080855Z 00000KT 9999 SCT160 M13/M24 A2919 RMK SLP889=
0175896640876012017100809004-77850+166667FM-12+002499999V0209999C000012200019N011000199-01321-02381098891ADDGA1031+048001021GE19MSL   +99999+99999GF103991031999048001999999MA1098845098461MD1710191+9999REMSYN07089664 42961 30000 11132 21238 39846 49889 57019 80008 333 56002 83266=
0155896640876012017100811554-77850+166667FM-15+002499999V0209999V001519999999N009999199-01301-02501098611ADDGA1041+048771999GE19MSL   +99999+99999GF199999041999048771999999MA1098541098195REMMET064METAR NZCM 081155Z VRB03KT 9999 SCT160 M13/M25 A2910 RMK SLP861=
0230896640876012017100812004-77850+166667FM-12+002499999V0209999V001512200019N011000199-01311-02491098611ADDAA124000021GA1031+048001021GE19MSL   +99999+99999GF103991031999048001999999KA1240M-00781KA2240N-01511MA1098555098171MD1710291+9999REMSYN08889664 41961 39903 11131 21249 39817 49861 57029 69904 80008 333 11078 21151 56002 83266=
0155896640876012017100814554-77850+166667FM-15+002499999V0203301N003619999999N009999199-01001-02001098341ADDGA1021+054861999GE19MSL   +99999+99999GF199999021999054861999999MA1098311097925REMMET064METAR NZCM 081455Z 33007KT 9999 FEW180 M10/M20 A2903 RMK SLP834=
0175896640876012017100815004-77850+166667FM-12+002499999V0203301N003612200019N011000199-01021-02001098341ADDGA1021+054001021GE19MSL   +99999+99999GF102991021999054001999999MA1098295097921MD1710251+9999REMSYN07089664 42961 23307 11102 21200 39792 49834 57025 80008 333 56002 82268=
0193896640876012017100817004-77850+166667FM-12+002499999V0209999C000012200019N011000199-01441-02061098231ADDGA1021+054001021GE19MSL   +99999+99999GF102991021999054001999999MA1098165097791MD1710131+9999REMSYN08889664 42961 20000 11144 21206 39779 49823 57013 80008 333 56002 82268 99115 99116 99117=
0174896640876012017100817554-77850+166667FM-15+002499999V0209999C000019999999N009999199-01401-02101098231ADDGA1021+054861999GE19MSL   +99999+99999GF199999021999054861999999MA1098171097815REMMET083METAR NZCM 081755Z 00000KT 9999 FEW180 M14/M21 A2899 RMK SLP823 FATA MORGANA SW-NW=
0193896640876012017100818004-77850+166667FM-12+002499999V0209999C000012200019N011000199-01441-02061098231ADDGA1021+054001021GE19MSL   +99999+99999GF102991021999054001999999MA1098165097791MD1710131+9999REMSYN08889664 42961 20000 11144 21206 39779 49823 57013 80008 333 56002 82268 99115 99116 99117=
0174896640876012017100820554-77850+166667FM-15+002499999V0201001N004119999999N009999199-00801-01701098111ADDGA1021+054861999GE19MSL   +99999+99999GF199999021999054861999999MA1098071097705REMMET083METAR NZCM 082055Z 10008KT 9999 FEW180 M08/M17 A2896 RMK SLP811 FATA MORGANA SW-NW=
0193896640876012017100821004-77850+166667FM-12+002499999V0201001N004112200019N011000199-00821-01731098111ADDGA1011+054001021GE19MSL   +99999+99999GF101991011999054001999999MA1098055097681MD1810111+9999REMSYN08889664 42961 11008 11082 21173 39768 49811 58011 80008 333 56002 81268 99115 99116 99117=
0172896640876012017100823554-77850+166667FM-15+002499999V0201001N005719999999N009999199-01101-02401098131ADDGA1021+054861999GE19MSL   +99999+99999GF199999021999054861999999MA1098071097715REMMET081METAR NZCM 082355Z 10011KT 9999 FEW180 M11/M24 A2896 RMK SLP813 FATA MORGANA S-W=
0231896640876012017100900004-77850+166667FM-12+002499999V0201001N005712200019N011000199-01071-02391098131ADDGA1011+054001021GE19MSL   +99999+99999GF101991011999054001999999KA1120M-00821KA2120N-01861MA1098075097701MD1310021+9999REMSYN10089664 42961 11011 11107 21239 39770 49813 53002 80008 333 11082 21186 56002 81268 99114 99115 99116=
0260896640876012017100902554-77850+166667FM-15+002499999V0201301N00931054861CN009999199-01301-02301098221ADDGA1021+012191999GA2021+054861999GE19MSL   +99999+99999GF199999021999012191999999MA1098171097805MW1361OC101391OD149901691140REMMET125METAR NZCM 090255Z 13018G27KT 9999 DRSN FEW040 FEW180 M13/M23 A2899 RMK PK WND 14033/0117 SLP822 BLSN DSNT NW FATA MORGANA W=
0225896640876012017100903004-77850+166667FM-12+002499999V0201301N009312200019N011000199-01311-02301098221ADDAY101021AY201021GA1011+012001061GA2999+999999021GE19MSL   +99999+99999GF102991011999012001999999MA1098165097791MD1110091+9999MW1361REMSYN08289664 41661 21318 11131 21230 39779 49822 51009 73600 81508 333 56102 81640 99116=
0187896640876012017100905554-77850+166667FM-15+002499999V0200801N006719999999N009999199-01501-02401098271ADDGA1021+054861999GE19MSL   +99999+99999GF199999021999054861999999MA1098201097845OD149901851150REMMET082METAR NZCM 090555Z 08013KT 9999 FEW180 M15/M24 A2900 RMK PK WND 15036/0348 SLP827=
0181896640876012017100906004-77850+166667FM-12+002499999V0200501N006712200019N011000199-01471-02421098271ADDGA1011+054001021GE19MSL   +99999+99999GF101991011999054001999999MA1098215097841MD1210051+9999REMSYN07689664 42961 10513 11147 21242 39784 49827 52005 80008 333 01536 56002 81268=
0182896640876012017100908554-77850+166667FM-15+002499999V0200401N007719999999N009999199-01301-02701098241ADDGA1021+048771999GE19MSL   +99999+99999GF199999021999048771999999MA1098171097825OC101131REMMET083METAR NZCM 090855Z 04015G22KT 9999 FEW160 M13/M27 A2899 RMK PK WND 05028/03 SLP824=
0175896640876012017100909004-77850+166667FM-12+002499999V0200401N007712200019N011000199-01341-02691098241ADDGA1011+048001021GE19MSL   +99999+99999GF101991011999048001999999MA1098185097811MD1810031+9999REMSYN07089664 42961 10415 11134 21269 39781 49824 58003 80008 333 56003 81266=
0178896640876012017100911554-77850+166667FM-15+002499999V0200501N00101054861CN009999199-01601-02701098321ADDGA1021+027431999GA2021+054861999GE19MSL   +99999+99999GF199999021999027431999999MA1098271097895REMMET071METAR NZCM 091155Z 05002KT 9999 FEW090 FEW180 M16/M27 A2902 RMK SLP832=
0246896640876012017100912004-77850+166667FM-12+002499999V0200501N001012200019N011000199-01561-02661098321ADDAA124000091GA1011+027001031GA2999+999999021GE19MSL   +99999+99999GF101991011999027001999999KA1240M-01071KA2240N-01601MA1098265097891MD1310081+9999REMSYN08889664 12961 10502 11156 21266 39789 49832 53008 60004 81078 333 11107 21160 56033 81359=
0210896640876012017100914554-77850+166667FM-15+002499999V0200201N001010304819N009999199-01601-02501098371ADDGA1021+027431999GA2071+030481999GA3071+048771999GE19MSL   +99999+99999GF199999021999027431999999MA1098311097945REMMET087METAR NZCM 091455Z 02002KT 9999 FEW090 BKN100 BKN160 M16/M25 A2903 RMK VIRGA SW SLP837=
0225896640876012017100915004-77850+166667FM-12+002499999V0200201N00101030001CN011000199-01601-02531098371ADDAY111021AY211021GA1011+027001031GA2051+030001031GE19MSL   +99999+99999GF106991011999027001999999MA1098315097941MD1310051+9999MW1141REMSYN08289664 41961 60202 11160 21253 39794 49837 53005 71411 85058 333 56033 81359 85360=
0212896640876012017100917554-77850+166667FM-15+002499999V0209999C00001022861CN009999199-01601-02701098331ADDGA1021+016761999GA2021+022861999GA3071+030481999GE19MSL   +99999+99999GF199999021999016761999999MA1098271097905REMMET089METAR NZCM 091755Z 00000KT 9999 FEW055 FEW075 BKN100 M16/M27 A2902 RMK SLP833 SN DSNT SW=
0225896640876012017100918004-77850+166667FM-12+002499999V0209999C00001030001CN011000199-01631-02701098331ADDAY121021AY221021GA1011+015001061GA2071+030001041GE19MSL   +99999+99999GF107991011999015001999999MA1098275097901MD1810041+9999MW1151REMSYN08289664 41761 70000 11163 21270 39790 49833 58004 71522 81570 333 56330 81650 87460=
0221896640876012017100920554-77850+166667FM-15+002499999V0200901N004610274319N009999199-01101-02201098241ADDGA1041+012191999GA2071+027431999GA3071+042671999GE19MSL   +99999+99999GF199999041999012191999999MA1098201097825REMMET098METAR NZCM 092055Z 09009KT 9999 SCT040 BKN090 BKN140 M11/M22 A2900 RMK ACSL W SLP824 SN DSNT S-SW=
0241896640876012017100921004-77850+166667FM-12+002499999V0200901N00461027001CN011000199-01091-02171098241ADDAY121021AY221021GA1031+012001071GA2031+027001041GA3999+999999011GE19MSL   +99999+99999GF106991031999012001999999MA1098185097811MD1710091+9999MW1151REMSYN08289664 41661 60909 11109 21217 39781 49824 57009 71522 83679 333 56334 83740 83459=
0194896640876012017100923554-77850+166667FM-15+002499999V0201001N008819999999N009999199-01305-01805098241ADDMA1098215999999MW1165OC101441OD149902051170REMMET120METAR NZCM 092355Z 10017G28KT 9999 VCBLSN FEW030 BKN070 BKN140 M13/M18 A2900 RMK PK WND 17040/2254 SLP824 VCBLSN SE-S-W=EQDD01      0ADE735
0297896640876012017101000004-77850+166667FM-12+002499999V0201001N00881021001CN011000199-01321-01791098241ADDAY131021AY221021GA1021+009001061GA2051+021001031GA3999+999999021GE19MSL   +99999+99999GF107991021999009001999999KA1120M-00961KA2120N-01661MA1098185097811MD1510001+9999MW1021REMSYN11289664 41561 71017 11132 21179 39781 49824 55000 70232 82578 333 01740 11096 21166 56334 82630 85357 90305 96438=
0248896640876012017101002554-77850+166667FM-15+002499999V0201501N006210106719N009999199-01101-01501098311ADDGA1021+006101999GA2071+010671999GE19MSL   +99999+99999GF199999021999006101999999MA1098271097895OC101031OD149901491090REMMET119METAR NZCM 100255Z 15012G20KT 9999 FEW020 BKN035 M11/M15 A2902 RMK PK WND 09029/0008 SNB0030E15 SLP831 BLSN DSNT SW-NW=
0237896640876012017101003004-77850+166667FM-12+002499999V0201501N00621010501CN011000199-01141-01471098311ADDAY171021AY231021GA1011+006001071GA2071+010501061GE19MSL   +99999+99999GF107991011999006001999999MA1098255097881MD1110071+9999MW1031REMSYN09489664 41561 71512 11114 21147 39788 49831 51007 70373 87600 333 56300 81720 87635 90318 96471=
0260896640876012017101005554-77850+166667FM-15+002499999V0200601N008210243819N009999199-01901-02301098341ADDGA1041+010671999GA2071+024381999GA3071+042671999GE19MSL   +99999+99999GF199999041999010671999999MA1098271097915OC101291OD149901541140REMMET115METAR NZCM 100555Z 06016G25KT 9999 SCT035 BKN080 BKN140 M19/M23 A2902 RMK PK WND 14030/0307 SLP834 BLSN DSNT SW-NW=
0257896640876012017101008554-77850+166667FM-15+002499999V0200901N00771024381CN009999199-01401-01901098151ADDGA1021+003051999GA2041+024381999GA3071+045721999GE19MSL   +99999+99999GF199999021999003051999999MA1098101097735OC101131OD149901331060REMMET112METAR NZCM 100855Z 09015G22KT 9999 FEW010 SCT080 BKN150 M14/M19 A2897 RMK PK WND 06026/0605 SLP815 BLSN DSNT SW=
0213896640876012017101009004-77850+166667FM-12+002499999V0200901N007719999999N011000199-01411-01941098151ADDGA1011+003001071GA2031+024001031GA3999+999999021GE19MSL   +99999+99999GF105991011999003001999999MA1098095097721MD1710181+9999REMSYN07689664 42461 50915 11141 21194 39772 49815 57018 81678 333 56333 81710 83358=
0236896640876012017101011554-77850+166667FM-15+002499999V0200701N006710167619N009999199-01701-02201098161ADDGA1021+006101999GA2071+016761999GA3071+024381999GE19MSL   +99999+99999GF199999021999006101999999MA1098101097735OC100981REMMET105METAR NZCM 101155Z 07013G19KT 9999 FEW020 BKN055 BKN080 M17/M22 A2897 RMK SLP816 SN DSNT SW BLSN DSNT SW=
0299896640876012017101012004-77850+166667FM-12+002499999V0200701N00671015001CN011000199-01711-02211098161ADDAA124000091AY121021AY221021GA1011+006001071GA2051+015001061GE19MSL   +99999+99999GF106991011999006001999999KA1240M-01141KA2240N-01891MA1098105097731MD1610011+9999MW1151REMSYN10089664 11561 60713 11171 21221 39773 49816 56001 69904 71522 85570 333 11114 21189 56330 81720 85650=EQDQ01  00002PRCP24
0290896640876012017101014554-77850+166667FM-15+002499999V0200901N006710243819N009999199-01501-02101999999ADDGA1021+010671999GA2071+024381999GA3071+045721999GE19MSL   +99999+99999GF199999021999010671999999MA1097801999995OC100981OD149901331060REMMET126METAR NZCM 101455Z 09013G19KT 9999 FEW035 BKN080 BKN150 M15/M21 A2888 RMK PK WND 06026/1304 SLP920 SN DSNT S-W-NW BLSN DSNT S=EQDQ01987.7 3APOSP 
0241896640876012017101015004-77850+166667FM-12+002499999V0200901N006719999999N011000199-01541-02111098201ADDAY121021AY221021GA1011+010501061GA2031+015001061GA3999+999999021GE19MSL   +99999+99999GF106991011999010501999999MA1098145097771MD1990041+9999MW1151REMSYN08289664 41661 60913 11154 21211 39777 49820 50004 71522 83578 333 56333 81635 83650=
0213896640876012017101017554-77850+166667FM-15+002499999V0200701N00511024381CN009999199-01501-02201098211ADDGA1021+006101999GA2041+024381999GA3071+036581999GE19MSL   +99999+99999GF199999021999006101999999MA1098141097785REMMET090METAR NZCM 101755Z 07010KT 9999 FEW020 SCT080 BKN120 M15/M22 A2898 RMK SLP821 SN DSNT S-W=
0241896640876012017101018004-77850+166667FM-12+002499999V0200701N00511036001CN011000199-01511-02191098211ADDAY121021AY221021GA1011+006001071GA2051+036001001GA3999+999999001GE19MSL   +99999+99999GF106991011999006001999999MA1098145097771MD1990001+9999MW1151REMSYN08289664 41561 60710 11151 21219 39777 49821 50000 71522 81772 333 56333 81720 85062=
0217896640876012017101020554-77850+166667FM-15+002499999V0209999C000010365819N009999199-01501-02001098201ADDGA1041+009141999GA2071+036581999GE19MSL   +99999+99999GF199999041999009141999999MA1098141097775MW1401MW2711REMMET098METAR NZCM 102055Z 00000KT 9999 -SN VCFG SCT030 BKN120 M15/M20 A2898 RMK SNB1930 SLP820 VCFG S-SW=
0225896640876012017101021004-77850+166667FM-12+002499999V0209999C000019999999N011000199-01521-02051098201ADDAY121021AY221021GA1041+009001061GA2999+999999021GE19MSL   +99999+99999GF106991041999009001999999MA1098145097771MD1610021+9999MW1711REMSYN08289664 41561 60000 11152 21205 39777 49820 56002 77122 84508 333 56303 84630 90015=
0211896640876012017101023554-77850+166667FM-15+002499999V0209999V00211009141CN009999199-01201-01701098221ADDGA1071+009141999GA2081+036581999GE19MSL   +99999+99999GF199999071999009141999999MA1098171097805MW1401MW2711REMMET092METAR NZCM 102355Z VRB04KT 9999 -SN VCFG BKN030 OVC120 M12/M17 A2899 RMK SLP822 VCFG SE-S-W=
0275896640876012017101100004-77850+166667FM-12+002499999V0209999V00211009001CN011000199-01181-01681098221ADDAY171021AY271021GA1051+009001061GA2041+036001021GE19MSL   +99999+99999GF108991051999009001999999KA1120M-01151KA2120N-01911MA1098165097791MD1990021+9999MW1711REMSYN10689664 41561 89904 11118 21168 39779 49822 50002 77177 85506 333 11115 21191 56303 85630 84262 90045 96040=
0165896640876012017101102554-77850+166667FM-15+002499999V0209999V00261006101CN004800199-01201-01601098211ADDGA1081+006101999GE19MSL   +99999+99999GF199999081999006101999999MA1098141097795MW1711REMMET068METAR NZCM 110255Z VRB05KT 4800 -SN OVC020 M12/M16 A2898 RMK SLP821=
0209896640876012017101103004-77850+166667FM-12+002499999V0209999V00261006001CN004800199-01201-01631098211ADDAY171021AY271021GA1081+006001071GE19MSL   +99999+99999GF108991081999006001999999MA1098155097781MD1510011+9999MW1711REMSYN08289664 41548 89905 11120 21163 39778 49821 55001 77177 887// 333 56499 88720 90062=
0188896640876012017101105554-77850+166667FM-15+002499999V0201001N00411009141CN009999199-01401-01801098321ADDGA1071+009141999GA2081+030481999GE19MSL   +99999+99999GF199999071999009141999999MA1098271097905MW1711REMMET075METAR NZCM 110555Z 10008KT 9999 -SN BKN030 OVC100 M14/M18 A2902 RMK SLP832=
0225896640876012017101106004-77850+166667FM-12+002499999V0201001N00411009001CN011000199-01411-01821098321ADDAY171021AY271021GA1061+009001061GA2999+999999041GE19MSL   +99999+99999GF108991061999009001999999MA1098265097891MD1210111+9999MW1711REMSYN08289664 41561 81008 11141 21182 39789 49832 52011 77177 8651/ 333 56449 86630 90065=
0208896640876012017101108554-77850+166667FM-15+002499999V0200901N00411009141CN004800199-01401-01801098411ADDGA1071+009141999GA2081+013721999GE19MSL   +99999+99999GF199999071999009141999999MA1098341097985MW1101MW2711OC100821REMMET081METAR NZCM 110855Z 09008G16KT 4800 -SN BR BKN030 OVC045 M14/M18 A2904 RMK SLP841=
0237896640876012017101109004-77850+166667FM-12+002499999V0200901N00411009001CN004800199-01441-01811098411ADDAY171021AY271021GA1061+009001071GA2999+999999051GE19MSL   +99999+99999GF108991061999009001999999MA1098355097981MD1310091+9999MW1711REMSYN09489664 41548 80908 11144 21181 39798 49841 53009 77177 8672/ 333 56449 86730 90067 90217 96010=
0208896640876012017101111554-77850+166667FM-15+002499999V0201401N00461007621CN003200199-01401-01701098491ADDGA1071+007621999GA2081+013721999GE19MSL   +99999+99999GF199999071999007621999999MA1098441098065MW1101MW2711OC100771REMMET081METAR NZCM 111155Z 14009G15KT 3200 -SN BR BKN025 OVC045 M14/M17 A2907 RMK SLP849=
0292896640876012017101112004-77850+166667FM-12+002499999V0201401N00461007501CN003200199-01391-01741098491ADDAA124000531AY171021AY271021GA1061+007501071GA2999+999999051GE19MSL   +99999+99999GF108991061999007501999999KA1240M-01171KA2240N-01461MA1098435098061MD1110081+9999MW1711REMSYN11289664 11532 81409 11139 21174 39806 49849 51008 69954 77177 8672/ 333 11117 21146 56449 86725 90067 90247 96010=
0197896640876012017101114554-77850+166667FM-15+002499999V0200701N00361007621CN004000199-01401-01701098571ADDGA1071+007621999GA2081+012191999GE19MSL   +99999+99999GF199999071999007621999999MA1098511098145MW1101MW2711REMMET078METAR NZCM 111455Z 07007KT 4000 -SN BR BKN025 OVC040 M14/M17 A2909 RMK SLP857=
0237896640876012017101115004-77850+166667FM-12+002499999V0200701N00361007501CN004000199-01431-01741098571ADDAY171021AY271021GA1071+007501071GA2999+999999051GE19MSL   +99999+99999GF108991071999007501999999MA1098525098141MD1110081+9999MW1711REMSYN09489664 41540 80707 11143 21174 39814 49857 51008 77177 8772/ 333 56339 87725 90068 90266 96010=
0159896640876012017101117554-77850+166667FM-15+002499999V0200901N004119999999N004800199-01505-01805098661ADDMA1098615999999MW1101MW2711REMMET101METAR NZCM 111755Z 09008KT 4800 -SN BR VCBLSN FEW009 BKN020 OVC030 M15/M18 A2912 RMK SLP866 VCBLSN S=EQDD01      0ADE693
0221896640876012017101120004-77850+166667FM-12+002499999V0201501N00931005101CN001200199-01721-02001098831ADDAY171021AY231021GA1081+005101071GE19MSL   +99999+99999GF108991081999005101999999MA1098785098401MD1210171+9999MW1711REMSYN09489664 41412 81518 11172 21200 39840 49883 52017 77173 887// 333 56499 88717 90068 90217 96038=
0199896640876012017101120554-77850+166667FM-15+002499999V0201501N00931005181CN001200199-01701-02001098831ADDGA1081+005181999GE19MSL   +99999+99999GF199999081999005181999999MA1098781098405MW1381MW2711OC101241REMMET088METAR NZCM 112055Z 15018G24KT 1200 -SN BLSN OVC017 M17/M20 A2917 RMK VIS NE 0800 SLP883=
0221896640876012017101121004-77850+166667FM-12+002499999V0201501N00931005101CN001200199-01721-02001098831ADDAY171021AY231021GA1081+005101071GE19MSL   +99999+99999GF108991081999005101999999MA1098785098401MD1210171+9999MW1711REMSYN09489664 41412 81518 11172 21200 39840 49883 52017 77173 887// 333 56499 88717 90068 90217 96038=
0187896640876012017101123554-77850+166667FM-15+002499999V0201001N00621009141CN001600199-01801-02201099081ADDGA1081+009141999GE19MSL   +99999+99999GF199999081999009141999999MA1099021098655MW1381MW2711OC101081REMMET076METAR NZCM 112355Z 10012G21KT 1600 -SN BLSN OVC030 M18/M22 A2924 RMK SLP908=
0259896640876012017101200004-77850+166667FM-12+002499999V0201001N00621009001CN001600199-01831-02171099081ADDAY171021AY231021GA1081+009001061GE19MSL   +99999+99999GF108991081999009001999999KA1120M-01341KA2120N-01851MA1099035098651MD1210251+9999MW1711REMSYN10689664 41516 81012 11183 21217 39865 49908 52025 77173 885// 333 11134 21185 56499 88630 90068 90237 96038=
0187896640876012017101202554-77850+166667FM-15+002499999V0201001N00311009141CN001600199-02101-03001099161ADDGA1081+009141999GE19MSL   +99999+99999GF199999081999009141999999MA1099121098725MW1381MW2711OC101181REMMET076METAR NZCM 120255Z 10006G23KT 1600 -SN BLSN OVC030 M21/M30 A2927 RMK SLP916=
0221896640876012017101203004-77850+166667FM-12+002499999V0201001N00311009001CN001600199-02111-02961099161ADDAY171021AY231021GA1081+009001071GE19MSL   +99999+99999GF108991081999009001999999MA1099105098721MD1310071+9999MW1711REMSYN09489664 41516 81006 11211 21296 39872 49916 53007 77173 887// 333 56499 88730 90068 90262 96038=
0240896640876012017101205554-77850+166667FM-15+002499999V0200501N006710365819N008000199-02101-02501099171ADDGA1041+009141999GA2071+036581999GE19MSL   +99999+99999GF199999041999009141999999MA1099121098735MW1101MW2361MW3711OD149901441060REMMET101METAR NZCM 120555Z 05013KT 8000 -SN DRSN BR SCT030 BKN120 M21/M25 A2927 RMK PK WND 06028/0403 SLP917=
0231896640876012017101208554-77850+166667FM-15+002499999V0200501N002110243819N009999199-01701-02201099201ADDGA1041+009141999GA2071+024381999GA3071+042671999GE19MSL   +99999+99999GF199999041999009141999999MA1099151098775MW1401MW2711REMMET096METAR NZCM 120855Z 05004KT 9999 -SN VCFG SCT030 BKN080 BKN140 M17/M22 A2928 RMK SLP920 VCFG S-W=
0247896640876012017101209004-77850+166667FM-12+002499999V0200501N002119999999N011000199-01711-02231099201ADDAY171021AY271021GA1041+009001061GA2999+999999031GA3999+999999021GE19MSL   +99999+99999GF107991041999009001999999MA1099145098761MD1110031+9999MW1711REMSYN08889664 41561 70504 11171 21223 39876 49920 51003 77177 84578 333 56444 84630 90068 96040=
0217896640876012017101211554-77850+166667FM-15+002499999V0209999C000010243819N009999199-02001-02401099231ADDGA1021+009141999GA2071+024381999GA3071+042671999GE19MSL   +99999+99999GF199999021999009141999999MA1099191098795REMMET094METAR NZCM 121155Z 00000KT 9999 FEW030 BKN080 BKN140 M20/M24 A2929 RMK SNE20 SLP923 SN DSNT S=
0326896640876012017101212004-77850+166667FM-12+002499999V0209999C00001024001CN011000199-01961-02361099231ADDAA124001031AY171021AY221021GA1021+009001061GA2051+024001031GA3999+999999021GE19MSL   +99999+99999GF107991021999009001999999KA1240M-01671KA2240N-02201MA1099185098801MD1110041+9999MW1221REMSYN13089664 11561 70000 11196 21236 39880 49923 51004 60014 72272 82578 333 11167 21220 56444 82630 85358 90068 90107 90307 96015 96471=
0212896640876012017101214554-77850+166667FM-15+002499999V0209999V00211024381CN009999199-01801-02201099171ADDGA1021+009141999GA2041+024381999GA3071+042671999GE19MSL   +99999+99999GF199999021999009141999999MA1099121098735REMMET089METAR NZCM 121455Z VRB04KT 9999 FEW030 SCT080 BKN140 M18/M22 A2927 RMK ACSL SE-SW SLP917=
0213896640876012017101215004-77850+166667FM-12+002499999V0209999V002119999999N011000199-01771-02161099171ADDGA1011+009001061GA2041+024001031GA3999+999999021GE19MSL   +99999+99999GF106991011999009001999999MA1099115098731MD1310071+9999REMSYN07689664 42561 69904 11177 21216 39873 49917 53007 81548 333 56444 81630 84358=
0216896640876012017101217554-77850+166667FM-15+002499999V0200401N00151024381CN009999199-01801-02101099161ADDGA1021+009141999GA2041+024381999GA3071+042671999GE19MSL   +99999+99999GF199999021999009141999999MA1099091098725REMMET093METAR NZCM 121755Z 04003KT 9999 FEW030 SCT080 BKN140 M18/M21 A2926 RMK ACSL SW CCSL N SLP916=
0213896640876012017101218004-77850+166667FM-12+002499999V0200401N00151042001CN011000199-01761-02111099161ADDGA1021+009001061GA2051+042001021GA3999+999999011GE19MSL   +99999+99999GF106991021999009001999999MA1099095098711MD1810021+9999REMSYN07689664 42561 60403 11176 21211 39871 49916 58002 82549 333 56444 82630 85264=
0201896640876012017101220554-77850+166667FM-15+002499999V0209999C00001024381CN009999199-01701-02001099131ADDGA1021+009141999GA2041+024381999GA3071+042671999GE19MSL   +99999+99999GF199999021999009141999999MA1099051098705REMMET078METAR NZCM 122055Z 00000KT 9999 FEW030 SCT080 BKN140 M17/M20 A2925 RMK SLP913=
0213896640876012017101221004-77850+166667FM-12+002499999V0209999C000019999999N011000199-01691-02031099131ADDGA1011+009001061GA2041+042001021GA3999+999999021GE19MSL   +99999+99999GF106991011999009001999999MA1099075098691MD1710021+9999REMSYN07689664 42561 60000 11169 21203 39869 49913 57002 81578 333 56444 81630 84264=
0196896640876012017101223554-77850+166667FM-15+002499999V0209999C00001051821CN009999199-01101-01701099091ADDGA1021+013721999GA2021+051821999GE19MSL   +99999+99999GF199999021999013721999999MA1099051098675REMMET089METAR NZCM 122355Z 00000KT 9999 FEW045 FEW170 M11/M17 A2925 RMK SLP909 FATA MORGANA SW-W=
0241896640876012017101300004-77850+166667FM-12+002499999V0209999C000012200019N011000199-01081-01671099091ADDGA1011+013501061GA2999+999999021GE19MSL   +99999+99999GF102991011999013501999999KA1120M-00871KA2120N-01941MA1099045098661MD1710031+9999REMSYN09489664 42661 20000 11108 21167 39866 49909 57003 81508 333 11087 21194 56404 81645 99115 99116=
0196896640876012017101302554-77850+166667FM-15+002499999V0209999C00001030481CN009999199-01101-01701099021ADDGA1021+006101999GA2041+030481999GE19MSL   +99999+99999GF199999021999006101999999MA1098981098605REMMET089METAR NZCM 130255Z 00000KT 9999 FEW020 SCT100 M11/M17 A2923 RMK SLP902 FATA MORGANA W-NW=
0203896640876012017101303004-77850+166667FM-12+002499999V0209999C000012200019N011000199-01071-01731099021ADDGA1011+006001071GA2999+999999031GE19MSL   +99999+99999GF103991011999006001999999MA1098975098591MD1710071+9999REMSYN08289664 42561 30000 11107 21173 39859 49902 57007 81630 333 56770 81720 99116 99117=
0173896640876012017101305554-77850+166667FM-15+002499999V0209999C000019999999N009999199-01301-01801098951ADDGA1021+033531999GE19MSL   +99999+99999GF199999021999033531999999MA1098881098525REMMET082METAR NZCM 130555Z 00000KT 9999 FEW110 M13/M18 A2920 RMK SLP895 FATA MORGANA N-NW=
0187896640876012017101306004-77850+166667FM-12+002499999V0209999C000012200019N011000199-01281-01791098951ADDGA1021+033001031GE19MSL   +99999+99999GF102991021999033001999999MA1098905098521MD1710071+9999REMSYN08289664 42961 20000 11128 21179 39852 49895 57007 82030 333 56070 82361 99126 99127=
0210896640876012017101308554-77850+166667FM-15+002499999V0203001N00311006101CN009999199-01801-02101098981ADDGA1071+006101999GA2071+036581999GE19MSL   +99999+99999GF199999071999006101999999MA1098921098555MW1711REMMET097METAR NZCM 130855Z 30006KT 9999 -SN BKN020 BKN120 M18/M21 A2921 RMK SNB40 SLP898 FATA MORGANA NW=
0231896640876012017101309004-77850+166667FM-12+002499999V0203001N00311006001CN011000199-01781-02131098981ADDAY111021AY201021GA1051+006001071GA2999+999999031GE19MSL   +99999+99999GF106991051999006001999999MA1098925098541MD1310021+9999MW1711REMSYN08889664 41561 63006 11178 21213 39854 49898 53002 77110 85730 333 56770 85720 90003 99117=
0174896640876012017101311554-77850+166667FM-15+002499999V0209999C00001006101CN009999199-02001-02301098951ADDGA1071+006101999GE19MSL   +99999+99999GF199999071999006101999999MA1098881098515REMMET083METAR NZCM 131155Z 00000KT 9999 BKN020 M20/M23 A2920 RMK SNE0910 SLP895 SN DSNT NW=
0253896640876012017101312004-77850+166667FM-12+002499999V0209999C00001006001CN011000199-01961-02341098951ADDAY171021AY211021GA1071+006001071GE19MSL   +99999+99999GF107991071999006001999999KA1240M-00901KA2240N-01981MA1098905098521MD1710021+9999MW1151REMSYN10089664 41561 70000 11196 21234 39852 49895 57002 71571 87700 333 11090 21198 56700 87720 90328 96471=
0201896640876012017101317554-77850+166667FM-15+002499999V0209999C000010213419N009999199-01801-02101098921ADDGA1021+003051999GA2071+021341999GA3071+042671999GE19MSL   +99999+99999GF199999021999003051999999MA1098851098495REMMET078METAR NZCM 131755Z 00000KT 9999 FEW010 BKN070 BKN140 M18/M21 A2919 RMK SLP892=
0213896640876012017101318004-77850+166667FM-12+002499999V0209999C00001021001CN011000199-01811-02141098921ADDGA1011+003001071GA2061+021001041GA3999+999999021GE19MSL   +99999+99999GF107991011999003001999999MA1098865098481MD1610021+9999REMSYN07689664 42461 70000 11181 21214 39848 49892 56002 81618 333 56777 81710 86457=
0171896640876012017101320554-77850+166667FM-15+002499999V0200501N00211003961CN009999199-01701-02101098891ADDGA1071+003961999GE19MSL   +99999+99999GF199999071999003961999999MA1098811098465MW1711REMMET074METAR NZCM 132055Z 05004KT 9999 -SN BKN013 M17/M21 A2918 RMK SNB00 SLP889=
0209896640876012017101321004-77850+166667FM-12+002499999V0200501N00211003901CN011000199-01721-02091098891ADDAY121021AY221021GA1071+003901071GE19MSL   +99999+99999GF107991071999003901999999MA1098835098451MD1710031+9999MW1711REMSYN08289664 41461 70504 11172 21209 39845 49889 57003 77122 87700 333 56700 87713 90010=
0172896640876012017101323554-77850+166667FM-15+002499999V0200801N006719999999N008000199-01901-02301098891ADDGA1041+002741999GE19MSL   +99999+99999GF199999041999002741999999MA1098811098455MW1101REMMET075METAR NZCM 132355Z 08013KT 8000 BR SCT009 M19/M23 A2918 RMK SNE2110 SLP889=
0259896640876012017101400004-77850+166667FM-12+002499999V0200801N006712200019N008000199-01931-02271098891ADDAY171021AY221021GA1041+002701071GE19MSL   +99999+99999GF104991041999002701999999KA1120M-01391KA2120N-02021MA1098835098451MD1410001+9999MW1101REMSYN10689664 41358 40813 11193 21227 39845 49889 54000 71072 84600 333 11139 21202 56100 84709 90007 90329 96471=
0166896640876012017101405554-77850+166667FM-15+002499999V0200601N00671007321CN009999199-02301-02901099071ADDGA1071+007321999GE19MSL   +99999+99999GF199999071999007321999999MA1099021098635OC101081REMMET067METAR NZCM 140555Z 06013G21KT 9999 BKN024 M23/M29 A2924 RMK SLP907=
0175896640876012017101406004-77850+166667FM-12+002499999V0200601N00671007201CN011000199-02261-02861099071ADDGA1071+007201061GE19MSL   +99999+99999GF107991071999007201999999MA1099015098631MD1310071+9999REMSYN07089664 42561 70613 11226 21286 39863 49907 53007 87500 333 56100 87624=
0166896640876012017101408554-77850+166667FM-15+002499999V0200501N00721009141CN009999199-02301-03001099141ADDGA1071+009141999GE19MSL   +99999+99999GF199999071999009141999999MA1099091098705OC101131REMMET067METAR NZCM 140855Z 05014G22KT 9999 BKN030 M23/M30 A2926 RMK SLP914=
0175896640876012017101409004-77850+166667FM-12+002499999V0200501N00771009001CN011000199-02341-02971099141ADDGA1051+009001061GE19MSL   +99999+99999GF105991051999009001999999MA1099085098701MD1110071+9999REMSYN07089664 42561 50515 11234 21297 39870 49914 51007 85500 333 56100 85630=
0189896640876012017101411554-77850+166667FM-15+002499999V0200501N00721006711CN009999199-02201-03001099171ADDGA1071+006711999GA2071+024381999GE19MSL   +99999+99999GF199999071999006711999999MA1099121098735OC101241REMMET074METAR NZCM 141155Z 05014G24KT 9999 BKN022 BKN080 M22/M30 A2927 RMK SLP917=
0246896640876012017101412004-77850+166667FM-12+002499999V0200501N00721006601CN011000199-02241-02991099171ADDAA124000021GA1061+006601061GA2999+999999031GE19MSL   +99999+99999GF107991061999006601999999KA1240M-01931KA2240N-02351MA1099115098731MD1310031+9999REMSYN08889664 12561 70514 11224 21299 39873 49917 53003 69904 86570 333 11193 21235 56150 86622=
0182896640876012017101417554-77850+166667FM-15+002499999V0200701N00721007621CN009999199-02201-02901099301ADDGA1081+007621999GE19MSL   +99999+99999GF199999081999007621999999MA1099251098865MW1711OC101031REMMET077METAR NZCM 141755Z 07014G20KT 9999 -SN OVC025 M22/M29 A2931 RMK SNB00 SLP930=
0209896640876012017101418004-77850+166667FM-12+002499999V0200701N00721007501CN011000199-02221-02921099301ADDAY171021AY221021GA1081+007501061GE19MSL   +99999+99999GF108991081999007501999999MA1099245098861MD1110061+9999MW1711REMSYN08289664 41561 80714 11222 21292 39886 49930 51006 77172 885// 333 56399 88625 90010=
0187896640876012017101420554-77850+166667FM-15+002499999V0200701N00881009141CN009999199-02201-03001099371ADDGA1081+009141999GE19MSL   +99999+99999GF199999081999009141999999MA1099291098935MW1361MW2711OC101131REMMET076METAR NZCM 142055Z 07017G22KT 9999 -SN DRSN OVC030 M22/M30 A2932 RMK SLP937=
0215896640876012017101421004-77850+166667FM-12+002499999V0200701N00881009001CN011000199-02251-02971099371ADDAY171021AY271021GA1081+009001061GE19MSL   +99999+99999GF108991081999009001999999MA1099305098921MD1210061+9999MW1711REMSYN08889664 41561 80717 11225 21297 39892 49937 52006 77177 885// 333 56399 88630 90040 96036=
0187896640876012017101423554-77850+166667FM-15+002499999V0200601N00671008231CN009000199-02301-03001099351ADDGA1081+008231999GE19MSL   +99999+99999GF199999081999008231999999MA1099291098915MW1381MW2711OC101181REMMET076METAR NZCM 142355Z 06013G23KT 9000 -SN BLSN OVC027 M23/M30 A2932 RMK SLP935=
0259896640876012017101500004-77850+166667FM-12+002499999V0200601N00671008101CN009000199-02281-03001099351ADDAY171021AY231021GA1081+008101061GE19MSL   +99999+99999GF108991081999008101999999KA1120M-02181KA2120N-02361MA1099295098911MD1810011+9999MW1711REMSYN10689664 41559 80613 11228 21300 39891 49935 58001 77173 885// 333 11218 21236 56399 88627 90050 90220 96038=
0165896640876012017101505554-77850+166667FM-15+002499999V0209999V00211007621CN009999199-02001-02601099211ADDGA1081+007621999GE19MSL   +99999+99999GF199999081999007621999999MA1099151098775MW1711REMMET068METAR NZCM 150555Z VRB04KT 9999 -SN OVC025 M20/M26 A2928 RMK SLP921=
0221896640876012017101506004-77850+166667FM-12+002499999V0209999V00211007501CN011000199-01971-02581099211ADDAY171021AY231021GA1081+007501061GE19MSL   +99999+99999GF108991081999007501999999MA1099155098771MD1610071+9999MW1711REMSYN09489664 41561 89904 11197 21258 39877 49921 56007 77173 885// 333 56399 88625 90067 90353 96438=
0165896640876012017101508554-77850+166667FM-15+002499999V0200801N00211007621CN009999199-02101-02601099211ADDGA1081+007621999GE19MSL   +99999+99999GF199999081999007621999999MA1099151098775MW1711REMMET068METAR NZCM 150855Z 08004KT 9999 -SN OVC025 M21/M26 A2928 RMK SLP921=
0209896640876012017101509004-77850+166667FM-12+002499999V0200801N00211007501CN011000199-02141-02631099211ADDAY171021AY271021GA1081+007501061GE19MSL   +99999+99999GF108991081999007501999999MA1099155098771MD1990001+9999MW1711REMSYN08289664 41561 80804 11214 21263 39877 49921 50000 77177 885// 333 56399 88625 90067=
0165896640876012017101511554-77850+166667FM-15+002499999V0200901N00461007621CN009999199-02501-03101099141ADDGA1081+007621999GE19MSL   +99999+99999GF199999081999007621999999MA1099091098695MW1711REMMET068METAR NZCM 151155Z 09009KT 9999 -SN OVC025 M25/M31 A2926 RMK SLP914=
0264896640876012017101512004-77850+166667FM-12+002499999V0200901N00461007501CN011000199-02531-03121099141ADDAA124000021AY171021AY271021GA1081+007501061GE19MSL   +99999+99999GF108991081999007501999999KA1240M-01921KA2240N-02551MA1099085098701MD1710071+9999MW1711REMSYN10089664 11561 80909 11253 21312 39870 49914 57007 69904 77177 885// 333 11192 21255 56399 88625 90068=
0163896640876012017101517554-77850+166667FM-15+002499999V0200801N007219999999N009999199-02501-03301099151ADDGA1041+009141999GE19MSL   +99999+99999GF199999041999009141999999MA1099091098705REMMET072METAR NZCM 151755Z 08014KT 9999 SCT030 M25/M33 A2926 RMK SNE1625 SLP915=
0215896640876012017101518004-77850+166667FM-12+002499999V0200801N007212200019N011000199-02501-03281099151ADDAY171021AY211021GA1041+009001061GE19MSL   +99999+99999GF104991041999009001999999MA1099095098711MD1990041+9999MW1011REMSYN08889664 41561 40814 11250 21328 39871 49915 50004 70171 84500 333 56200 84630 90316 96471=
0211896640876012017101520554-77850+166667FM-15+002499999V0200701N00771048771CN009999199-02401-03401099071ADDGA1021+009141999GA2041+048771999GE19MSL   +99999+99999GF199999021999009141999999MA1099021098625OC101081REMMET096METAR NZCM 152055Z 07015G21KT 9999 FEW030 SCT160 M24/M34 A2924 RMK SLP907 FATA MORGANA SE-SW-NW=
0221896640876012017101521004-77850+166667FM-12+002499999V0200701N007712200019N011000199-02411-03441099071ADDGA1021+009001061GA2999+999999001GE19MSL   +99999+99999GF103991021999009001999999MA1099005098621MD1710091+9999REMSYN10089664 42561 30715 11241 21344 39862 49907 57009 82502 333 56207 82630 99113 99114 99115 99126 99117=
0206896640876012017101523554-77850+166667FM-15+002499999V0200701N00671048771CN009999199-02201-03301099031ADDGA1021+013721999GA2021+048771999GE19MSL   +99999+99999GF199999021999013721999999MA1098951098595REMMET099METAR NZCM 152355Z 07013KT 9999 FEW045 FEW160 M22/M33 A2922 RMK CCSL W-NW SLP903 FATA MORGANA SW-W=
0241896640876012017101600004-77850+166667FM-12+002499999V0200701N006712200019N011000199-02251-03271099031ADDGA1011+013501061GA2999+999999011GE19MSL   +99999+99999GF102991011999013501999999KA1120M-02141KA2120N-02571MA1098975098591MD1810031+9999REMSYN09489664 42661 20713 11225 21327 39859 49903 58003 81509 333 11214 21257 56300 81645 99115 99116=
0216896640876012017101605554-77850+166667FM-15+002499999V0209999C00001009141CN009999199-02101-02801098871ADDGA1071+009141999GA2071+024381999GE19MSL   +99999+99999GF199999071999009141999999MA1098811098435MW1711REMMET103METAR NZCM 160555Z 00000KT 9999 -SN BKN030 BKN080 M21/M28 A2918 RMK SNB0430 SLP887 FATA MORGANA S-W-NW=
0249896640876012017101606004-77850+166667FM-12+002499999V0209999C00001009001CN011000199-02061-02801098871ADDAY171021AY211021GA1051+009001061GA2999+999999031GE19MSL   +99999+99999GF106991051999009001999999MA1098815098431MD1710051+9999MW1711REMSYN10689664 41561 60000 11206 21280 39843 49887 57005 77171 85570 333 56660 85630 90015 99114 99115 99116 99127=
0208896640876012017101608554-77850+166667FM-15+002499999V0209999C00001009141CN009999199-02101-02701098871ADDGA1071+009141999GA2071+024381999GE19MSL   +99999+99999GF199999071999009141999999MA1098811098435MW1711REMMET095METAR NZCM 160855Z 00000KT 9999 -SN BKN030 BKN080 M21/M27 A2918 RMK SLP887 FATA MORGANA S-W-NW=
0249896640876012017101609004-77850+166667FM-12+002499999V0209999C00001009001CN011000199-02151-02741098871ADDAY171021AY271021GA1051+009001061GA2999+999999031GE19MSL   +99999+99999GF106991051999009001999999MA1098805098421MD1610011+9999MW1711REMSYN10689664 41561 60000 11215 21274 39842 49887 56001 77177 85570 333 56660 85630 90045 99114 99115 99126 99147=
0208896640876012017101611554-77850+166667FM-15+002499999V0200901N00211009141CN009999199-02201-02701098851ADDGA1071+009141999GA2071+024381999GE19MSL   +99999+99999GF199999071999009141999999MA1098781098415MW1711REMMET095METAR NZCM 161155Z 09004KT 9999 -SN BKN030 BKN080 M22/M27 A2917 RMK SLP885 FATA MORGANA S-W-NW=
0304896640876012017101612004-77850+166667FM-12+002499999V0200901N00211009001CN011000199-02191-02741098851ADDAA124000021AY171021AY271021GA1051+009001061GA2999+999999031GE19MSL   +99999+99999GF106991051999009001999999KA1240M-02001KA2240N-02451MA1098795098411MD1710011+9999MW1711REMSYN12489664 11561 60904 11219 21274 39841 49885 57001 69904 77177 85570 333 11200 21245 56660 85630 90062 99114 99115 99126 99147=
0187896640876012017101617554-77850+166667FM-15+002499999V0209999C00001007621CN009999199-02101-02501098831ADDGA1071+007621999GE19MSL   +99999+99999GF199999071999007621999999MA1098781098395MW1711REMMET090METAR NZCM 161755Z 00000KT 9999 -SN BKN025 M21/M25 A2917 RMK SLP883 FATA MORGANA SE-SW-NW=
0239896640876012017101618004-77850+166667FM-12+002499999V0209999C00001007501CN011000199-02061-02541098831ADDAY171021AY271021GA1071+007501061GE19MSL   +99999+99999GF107991071999007501999999MA1098775098391MD1110021+9999MW1711REMSYN11289664 41561 70000 11206 21254 39839 49883 51002 77177 87500 333 56700 87625 90067 99123 99124 99125 99126 99127=
0190896640876012017101620554-77850+166667FM-15+002499999V0209999C00001007621CN009999199-01901-02501098871ADDGA1071+007621999GE19MSL   +99999+99999GF199999071999007621999999MA1098811098435MW1711REMMET093METAR NZCM 162055Z 00000KT 9999 -SN BKN025 M19/M25 A2918 RMK SLP887 FATA MORGANA SE AND W-NW=
0227896640876012017101621004-77850+166667FM-12+002499999V0209999C00001007501CN011000199-01941-02471098871ADDAY171021AY271021GA1071+007501061GE19MSL   +99999+99999GF107991071999007501999999MA1098815098431MD1310041+9999MW1711REMSYN10089664 41561 70000 11194 21247 39843 49887 53004 77177 87500 333 56700 87625 90067 99113 99126 99127=
0190896640876012017101623554-77850+166667FM-15+002499999V0209999C00001007621CN009999199-01701-02401098881ADDGA1071+007621999GE19MSL   +99999+99999GF199999071999007621999999MA1098811098455MW1711REMMET093METAR NZCM 162355Z 00000KT 9999 -SN BKN025 M17/M24 A2918 RMK SLP888 FATA MORGANA SE AND W-NW=
0265896640876012017101700004-77850+166667FM-12+002499999V0209999C00001007501CN011000199-01701-02371098881ADDAY171021AY271021GA1071+007501061GE19MSL   +99999+99999GF107991071999007501999999KA1120M-01701KA2120N-02451MA1098825098441MD1990011+9999MW1711REMSYN11289664 41561 70000 11170 21237 39844 49888 50001 77177 87500 333 11170 21245 56700 87625 90068 99113 99116 99117=
0187896640876012017101705554-77850+166667FM-15+002499999V0209999C000019999999N009999199-01901-02601098861ADDGA1021+008531999GE19MSL   +99999+99999GF199999021999008531999999MA1098781098425REMMET096METAR NZCM 170555Z COR 00000KT 9999 FEW028 M19/M26 A2917 RMK SNE0330 SLP886 FATA MORGANA S-W-NW=
0239896640876012017101706004-77850+166667FM-12+002499999V0209999C000012200019N011000199-01871-02561098861ADDAY171021AY211021GA1021+008401061GE19MSL   +99999+99999GF102991021999008401999999MA1098805098421MD1810031+9999MW1011REMSYN11289664 42561 20000 11187 21256 39842 49886 58003 70171 82500 333 56700 82628 90325 96471 99114 99115 99116 99127=
0204896640876012017101708554-77850+166667FM-15+002499999V0209999C00001036581CN009999199-02601-03201098801ADDGA1021+009141999GA2021+036581999GE19MSL   +99999+99999GF199999021999009141999999MA1098751098355REMMET097METAR NZCM 170855Z 00000KT 9999 FEW030 FEW120 M26/M32 A2916 RMK SLP880 FATA MORGANA SE-SW AND NW=
0215896640876012017101709004-77850+166667FM-12+002499999V0209999C000012200019N011000199-02581-03221098801ADDGA1011+009001061GA2999+999999031GE19MSL   +99999+99999GF102991011999009001999999MA1098745098361MD1710061+9999REMSYN09489664 42561 20000 11258 21322 39836 49880 57006 81570 333 56330 81630 99113 99114 99115 99127=
0173896640876012017101711554-77850+166667FM-15+002499999V0200901N002119999999N009999199-02401-02801098751ADDGA1021+036581999GE19MSL   +99999+99999GF199999021999036581999999MA1098681098315REMMET082METAR NZCM 171155Z 09004KT 9999 FEW120 M24/M28 A2914 RMK SLP875 FATA MORGANA W-NW=
0242896640876012017101712004-77850+166667FM-12+002499999V0200901N002112200019N011000199-02411-02851098751ADDAA124000021GA1011+036001031GE19MSL   +99999+99999GF101991011999036001999999KA1240M-01711KA2240N-02601MA1098695098311MD1810051+9999REMSYN10089664 12961 10904 11241 21285 39831 49875 58005 69904 81070 333 11171 21260 56030 81362 99116 99117=
0203896640876012017101717554-77850+166667FM-15+002499999V0209999C00001030481CN009999199-02201-02701098511ADDGA1021+027431999GA2021+030481999GE19MSL   +99999+99999GF199999021999027431999999MA1098441098075REMMET096METAR NZCM 171755Z 00000KT 9999 FEW090 FEW100 M22/M27 A2907 RMK ACSL SW SLP851 FATA MORGANA S-W=
0193896640876012017101718004-77850+166667FM-12+002499999V0209999C000012200019N011000199-02241-02701098511ADDGA1011+027001031GE19MSL   +99999+99999GF101991011999027001999999MA1098445098071MD1710101+9999REMSYN08889664 42961 10000 11224 21270 39807 49851 57010 81040 333 56000 81359 99114 99115 99116=
0178896640876012017101720554-77850+166667FM-15+002499999V0209999C00001012191CN009999199-01601-02601098371ADDGA1021+006101999GA2021+012191999GE19MSL   +99999+99999GF199999021999006101999999MA1098311097945REMMET071METAR NZCM 172055Z 00000KT 9999 FEW020 FEW040 M16/M26 A2903 RMK SLP837=
0175896640876012017101721004-77850+166667FM-12+002499999V0209999C000012200019N011000199-01581-02561098371ADDGA1011+006001061GE19MSL   +99999+99999GF101991011999006001999999MA1098305097931MD1710141+9999REMSYN07089664 42561 10000 11158 21256 39793 49837 57014 81500 333 56400 81620=
0170896640876012017101723554-77850+166667FM-15+002499999V0209999C00001005491CN009999199-01601-02601098171ADDGA1071+005491999GE19MSL   +99999+99999GF199999071999005491999999MA1098101097745REMMET079METAR NZCM 172355Z 00000KT 9999 BKN018 M16/M26 A2897 RMK SLP817 FATA MORGANA W=
0219896640876012017101800004-77850+166667FM-12+002499999V0209999C00001005401CN011000199-01561-02581098171ADDGA1051+005401061GE19MSL   +99999+99999GF105991051999005401999999KA1120M-01521KA2120N-02641MA1098105097731MD1710201+9999REMSYN08889664 42461 50000 11156 21258 39773 49817 57020 85500 333 11152 21264 56800 85618 99116=
0213896640876012017101801004-77850+166667FM-12+002499999V0209999C999992200019N011000199-02362-02801097352ADDGA1011+042001021GE19MSL   +99999+99999GF101991011999042001999999KA1240M-01461KA2240N-02451MA1097282096912MD1710141+9999REMSYN08289664 42961 10000 11236 21280 39691 49735 57014 80008 333 11146 21245 56003 81264=
0155896640876012017101805554-77850+166667FM-15+002499999V0209999C000019999999N009999199-01601-02501097671ADDGA1021+042671999GE19MSL   +99999+99999GF199999021999042671999999MA1097601097245REMMET064METAR NZCM 180555Z 00000KT 9999 FEW140 M16/M25 A2882 RMK SLP767=
0175896640876012017101806004-77850+166667FM-12+002499999V0209999C999992200019N011000199-01651-02531097671ADDGA1021+042001021GE19MSL   +99999+99999GF102991021999042001999999MA1097605097231MD1810501+9999REMSYN07089664 42961 20000 11165 21253 39723 49767 58050 80008 333 56003 82264=
0155896640876012017101808554-77850+166667FM-15+002499999V0200201N001519999999N009999199-02201-02801097491ADDGA1021+042671999GE19MSL   +99999+99999GF199999021999042671999999MA1097431097065REMMET064METAR NZCM 180855Z 02003KT 9999 FEW140 M22/M28 A2877 RMK SLP749=
0175896640876012017101809004-77850+166667FM-12+002499999V0200201N001512200019N011000199-02231-02831097491ADDGA1011+042001021GE19MSL   +99999+99999GF101991011999042001999999MA1097425097051MD1810181+9999REMSYN07089664 42961 10203 11223 21283 39705 49749 58018 80008 333 56003 81264=
0155896640876012017101811554-77850+166667FM-15+002499999V0209999C000019999999N009999199-02401-02801097351ADDGA1021+042671999GE19MSL   +99999+99999GF199999021999042671999999MA1097291096915REMMET064METAR NZCM 181155Z 00000KT 9999 FEW140 M24/M28 A2873 RMK SLP735=
0230896640876012017101812004-77850+166667FM-12+002499999V0209999C000012200019N011000199-02361-02801097351ADDAA124000091GA1011+042001021GE19MSL   +99999+99999GF101991011999042001999999KA1240M-01461KA2240N-02451MA1097285096911MD1710141+9999REMSYN08889664 12961 10000 11236 21280 39691 49735 57014 60004 80008 333 11146 21245 56003 81264=
0207896640876012017101814554-77850+166667FM-15+002499999V0203501N00411027431CN009999199-02101-02501097371ADDGA1021+012191999GA2021+027431999GE19MSL   +99999+99999GF199999021999012191999999MA1097291096945REMMET100METAR NZCM 181455Z COR 35008KT 9999 FEW040 FEW090 M21/M25 A2873 RMK ACSL W SLP737 FATA MORGANA W-NW=
0183896640876012017101817554-77850+166667FM-15+002499999V0200401N001519999999N009999199-02101-02501097551ADDGA1021+024381999GE19MSL   +99999+99999GF199999021999024381999999MA1097491097125REMMET092METAR NZCM 181755Z 04003KT 9999 FEW080 M21/M25 A2879 RMK SLP755 SN DSNT SW-W FATA MORGANA S=
0209896640876012017101818004-77850+166667FM-12+002499999V0200401N001512200019N011000199-02111-02541097551ADDAY101021AY201021GA1021+024001041GE19MSL   +99999+99999GF102991021999024001999999MA1097485097111MD1310181+9999MW1151REMSYN08289664 41861 20403 11211 21254 39711 49755 53018 71500 82020 333 56030 82458 99124=
0213896640876012017101820554-77850+166667FM-15+002499999V0209999C00001036581CN009999199-02001-02701097681ADDGA1021+004571999GA2021+024381999GA3021+036581999GE19MSL   +99999+99999GF199999021999004571999999MA1097631097255REMMET090METAR NZCM 182055Z 00000KT 9999 FEW015 FEW080 FEW120 M20/M27 A2883 RMK SLP768 SN DSNT S-W=
0235896640876012017101821004-77850+166667FM-12+002499999V0209999C000012200019N011000199-01991-02661097681ADDAY101021AY201021GA1011+004501071GA2999+999999051GA3999+999999001GE19MSL   +99999+99999GF102991011999004501999999MA1097615097241MD1310131+9999MW1151REMSYN07689664 41461 20000 11199 21266 39724 49768 53013 71500 81621 333 56433 81715=
0173896640876012017101823554-77850+166667FM-15+002499999V0209999C00001010671CN003200199-01801-02501097741ADDGA1081+010671999GE19MSL   +99999+99999GF199999081999010671999999MA1097661097315MW1711REMMET076METAR NZCM 182355Z 00000KT 3200 -SN OVC035 M18/M25 A2884 RMK SNB2240 SLP774=
0247896640876012017101900004-77850+166667FM-12+002499999V0209999C00001010501CN003200199-01801-02461097741ADDAY171021AY211021GA1081+010501071GE19MSL   +99999+99999GF108991081999010501999999KA1120M-01491KA2120N-02831MA1097675097301MD1990061+9999MW1711REMSYN09489664 41632 80000 11180 21246 39730 49774 50006 77171 887// 333 11149 21283 56399 88735 90013=
0215896640876012017101905554-77850+166667FM-15+002499999V0203401N01131009141CN003200199-01801-02101097361ADDGA1081+009141999GE19MSL   +99999+99999GF199999081999009141999999MA1097291096935MW1381MW2711OC101441REMMET104METAR NZCM 190555Z 34022G28KT 3200 -SN BLSN OVC030 M18/M21 A2873 RMK PK WND 34031/10 VIS NE 1600 SLP736=
0221896640876012017101906004-77850+166667FM-12+002499999V0203401N01131009001CN003200199-01841-02151097361ADDAY171021AY231021GA1081+009001061GE19MSL   +99999+99999GF108991081999009001999999MA1097295096921MD1610181+9999MW1711REMSYN09489664 41532 83422 11184 21215 39692 49736 56018 77173 885// 333 56299 88630 90062 90225 96038=
0203896640876012017101908554-77850+166667FM-15+002499999V0203401N00821006101CN001600199-01701-02001097491ADDGA1081+006101999GE19MSL   +99999+99999GF199999081999006101999999MA1097431097065MW1381MW2711OC101241REMMET092METAR NZCM 190855Z 34016G24KT 1600 -SN BLSN OVC020 M17/M20 A2877 RMK PK WND 34027/12 SLP749=
0221896640876012017101909004-77850+166667FM-12+002499999V0203401N00821006001CN001600199-01691-01971097491ADDAY171021AY231021GA1081+006001061GE19MSL   +99999+99999GF108991081999006001999999MA1097435097061MD1210141+9999MW1711REMSYN09489664 41516 83416 11169 21197 39706 49749 52014 77173 885// 333 56299 88620 90065 90255 96038=
0165896640876012017101911554-77850+166667FM-15+002499999V0209999V00211010671CN004800199-01701-02001097791ADDGA1081+010671999GE19MSL   +99999+99999GF199999081999010671999999MA1097731097365MW1711REMMET068METAR NZCM 191155Z VRB04KT 4800 -SN OVC035 M17/M20 A2886 RMK SLP779=
0276896640876012017101912004-77850+166667FM-12+002499999V0209999V00211010501CN004800199-01731-02011097791ADDAA124000831AY171021AY231021GA1081+010501061GE19MSL   +99999+99999GF108991081999010501999999KA1240M-01641KA2240N-01981MA1097725097351MD1210291+9999MW1711REMSYN11289664 11648 89904 11173 21201 39735 49779 52029 69984 77173 885// 333 11164 21198 56299 88635 90067 90315 96438=
0185896640876012017101914554-77850+166667FM-15+002499999V0201201N00621001521WN000300199-01401-01601097941ADDGA1091+001521999GE19MSL   +99999+99999GF109991091999001521999999MA1097901097525MW1381MW2731OC100931REMMET074METAR NZCM 191455Z 12012G18KT 0300 SN BLSN VV005 M14/M16 A2891 RMK SLP794=
0209896640876012017101915004-77850+166667FM-12+002499999V0201201N00621001501WN000300199-01431-01631097941ADDAY171021AY231021GA1091+001501999GE19MSL   +99999+99999GF109991091999001501999999MA1097885097511MD1310161+9999MW1731REMSYN08289664 41/03 91212 11143 21163 39751 49794 53016 77373 333 89/05 90067 90205 96038=
0193896640876012017101917554-77850+166667FM-15+002499999V0200601N00821002441WN000800199-01501-01801097721ADDGA1091+002441999GE19MSL   +99999+99999GF109991091999002441999999MA1098101097305MW1381MW2711REMMET090METAR NZCM 191755Z 06016KT 0800 -SN BLSN VV008 M15/M18 A2897 RMK PK WND 13038/1610 SLP772=
0209896640876012017101918004-77850+166667FM-12+002499999V0200601N00821002401WN000800199-01531-01771098162ADDAY171021AY271021GA1091+002401999GE19MSL   +99999+99999GF109991091999002401999999MA1098095097722MD1210211+9999MW1711REMSYN08289664 41/08 90616 11153 21177 39772 49816 52021 77177 333 89/08 90068 90235 96038=
0218896640876012017101920554-77850+166667FM-15+002499999V0201501N01391003661WN000200199-01101-01301097721ADDGA1091+003661999GE19MSL   +99999+99999GF109991091999003661999999MA1098101097305MW1381MW2711OC101751OD149902001170REMMET093METAR NZCM 192055Z 15027G34KT 0200 -SN BLSN VV012 M11/M13 A2897 RMK PK WND 17039/1957 SLP772=
0209896640876012017101921004-77850+166667FM-12+002499999V0201501N01391003601WN001200199-01141-01341098151ADDAY171021AY271021GA1091+003601999GE19MSL   +99999+99999GF109991091999003601999999MA1098095097721MD1990001+9999MW1711REMSYN08289664 41/12 91527 11114 21134 39772 49815 50000 77177 333 89/12 90068 90261 96038=
0218896640876012017101923554-77850+166667FM-15+002499999V0201401N00881002131WN000300199-01101-01301098321ADDGA1091+002131999GE19MSL   +99999+99999GF109991091999002131999999MA1098241097905MW1381MW2711OC101341OD149901901160REMMET093METAR NZCM 192355Z 14017G26KT 0300 -SN BLSN VV007 M11/M13 A2901 RMK PK WND 16037/2211 SLP832=
0253896640876012017102000004-77850+166667FM-12+002499999V0201401N00881002101WN000300199-01121-01291098321ADDAY171021AY231021GA1091+002101999GE19MSL   +99999+99999GF109991091999002101999999KA1120M-01111KA2120N-01731MA1098255097881MD1210161+9999MW1711REMSYN10089664 41/03 91417 11112 21129 39788 49832 52016 77173 333 01739 11111 21173 89/07 90068 90264 96038=
0186896640876012017102002554-77850+166667FM-15+002499999V0201401N00881002131WN000300199-01001-01201098511ADDGA1091+002131999GE19MSL   +99999+99999GF109991091999002131999999MA1098441098095MW1381MW2711OC101751REMMET075METAR NZCM 200255Z 14017G34KT 0300 -SN BLSN VV007 M10/M12 A2907 RMK SLP851=
0209896640876012017102003004-77850+166667FM-12+002499999V0201401N00881002101WN000300199-01041-01201098511ADDAY171021AY231021GA1091+002101999GE19MSL   +99999+99999GF109991091999002101999999MA1098425098051MD1210171+9999MW1711REMSYN08289664 41/03 91417 11104 21120 39805 49851 52017 77173 333 89/07 90068 90267 96038=
0218896640876012017102005554-77850+166667FM-15+002499999V0201601N01491002131WN000500199-01301-01501098831ADDGA1091+002131999GE19MSL   +99999+99999GF109991091999002131999999MA1098781098405MW1381MW2711OC101901OD149901901160REMMET093METAR NZCM 200555Z 16029G37KT 0500 -SN BLSN VV007 M13/M15 A2917 RMK PK WND 16037/0552 SLP883=
0215896640876012017102006004-77850+166667FM-12+002499999V0201601N01491002101WN000500199-01321-01521098831ADDAY171021AY231021GA1091+002101999GE19MSL   +99999+99999GF109991091999002101999999MA1098785098401MD1210351+9999MW1711REMSYN08889664 41/05 91629 11132 21152 39840 49883 52035 77173 333 01643 89/07 90068 90267 96038=
0203896640876012017102008554-77850+166667FM-15+002499999V0201501N00931010671CN003200199-01301-01501099041ADDGA1081+010671999GE19MSL   +99999+99999GF199999081999010671999999MA1098981098615MW1381MW2711OC101291REMMET092METAR NZCM 200855Z 15018G25KT 3200 -SN BLSN OVC035 M13/M15 A2923 RMK PK WND 16027/14 SLP904=
0221896640876012017102009004-77850+166667FM-12+002499999V0201501N00931010501CN003200199-01281-01481099041ADDAY171021AY231021GA1081+010501061GE19MSL   +99999+99999GF108991081999010501999999MA1098995098611MD1210211+9999MW1711REMSYN09489664 41632 81518 11128 21148 39861 49904 52021 77173 885// 333 56299 88635 90068 90268 96038=
0242896640876012017102011554-77850+166667FM-15+002499999V0200901N008210121919N004800199-01201-01401099081ADDGA1021+006101999GA2081+012191999GE19MSL   +99999+99999GF199999021999006101999999MA1099021098655MW1381MW2711OC101081OD149901491140REMMET101METAR NZCM 201155Z 09016G21KT 4800 -SN BLSN FEW020 OVC040 M12/M14 A2924 RMK PK WND 14029/1034 SLP908=
0269896640876012017102014554-77850+166667FM-15+002499999V0201101N00821007621CN006000199-01101-01201099061ADDGA1021+003051999GA2041+007621999GA3071+012191999GE19MSL   +99999+99999GF199999021999003051999999MA1099021098645MW1381MW2711OC101391OD149901901140REMMET112METAR NZCM 201455Z COR 11016G27KT 6000 -SN BLSN FEW010 SCT025 BKN040 M11/M12 A2924 RMK PK WND 14037/1346 SLP906=
0265896640876012017102015004-77850+166667FM-12+002499999V0201101N00821007501CN006000199-01091-01231099061ADDAY171021AY231021GA1021+003001071GA2031+007501061GA3051+012001061GE19MSL   +99999+99999GF107991021999003001999999MA1099005098621MD1510021+9999MW1711REMSYN10689664 41456 71116 11109 21123 39862 49906 55002 77173 87500 333 56200 82710 83625 85640 90068 90268 96038=
0269896640876012017102017554-77850+166667FM-15+002499999V0201101N00931012191CN009999199-01101-01201099091ADDGA1021+003051999GA2041+012191999GA3071+024381999GE19MSL   +99999+99999GF199999021999003051999999MA1099021098675OC101181OD149901691110REMMET124METAR NZCM 201755Z 11018G23KT 9999 FEW010 SCT040 BKN080 M11/M12 A2924 RMK PK WND 11033/1641 SNE1620 ACSL S-SW CCSL N SLP909=
0265896640876012017102018004-77850+166667FM-12+002499999V0201101N00931024001CN011000199-01061-01251099091ADDAY171021AY231021GA1021+003001071GA2041+024001031GA3999+999999001GE19MSL   +99999+99999GF106991021999003001999999MA1099045098661MD1310041+9999MW1011REMSYN10689664 41461 61118 11106 21125 39866 49909 53004 70173 86642 333 01133 56333 82710 84358 90317 96422 96538=
0255896640876012017102020554-77850+166667FM-15+002499999V0201301N01031012191CN008000199-01101-01301099051ADDGA1021+003051999GA2041+012191999GA3071+024381999GE19MSL   +99999+99999GF199999021999003051999999MA1098981098635MW1381OC101601REMMET118METAR NZCM 202055Z COR 13020G31KT 8000 BLSN FEW010 SCT040 BKN080 M11/M13 A2923 RMK APPRNT ROTOR CLD SW ACSL SW SLP905=
0253896640876012017102021004-77850+166667FM-12+002499999V0201301N010310240019N008000199-01111-01291099051ADDAY131021AY221021GA1011+003001071GA2031+012001061GA3061+024001031GE19MSL   +99999+99999GF106991011999003001999999MA1099005098621MD1810041+9999MW1381REMSYN09489664 41458 61320 11111 21129 39862 49905 58004 73832 84642 333 56333 81710 83640 86358 90023=
0185896640876012017102023554-77850+166667FM-15+002499999V0201401N013419999999N009999199-01105-01305099051ADDMA1098985999999MW1361OC101701REMMET125METAR NZCM 202355Z 14026G33KT 9999 DRSN VCBLSN FEW010 SCT080 BKN140 M11/M13 A2923 RMK SCSL SW ACSL SW-W SLP905 VCBLSN S-W-NW=EQDD01      0ADE693
0297896640876012017102100004-77850+166667FM-12+002499999V0201401N01341042001CN011000199-01131-01331099051ADDAY131021AY221021GA1011+003001061GA2051+042001011GA3999+999999011GE19MSL   +99999+99999GF105991011999003001999999KA1120M-00981KA2120N-01381MA1098995098611MD1810011+9999MW1361REMSYN11289664 41461 51426 11113 21133 39861 49905 58001 73632 82549 333 01433 11098 21138 56333 81610 85164 90310 96438=
0259896640876012017102102554-77850+166667FM-15+002499999V0200901N00411024381CN009999199-01001-01201099151ADDGA1021+012191999GA2041+024381999GA3071+042671999GE19MSL   +99999+99999GF199999021999012191999999MA1099091098735OC100771OD149901541130REMMET114METAR NZCM 210255Z 09008G15KT 9999 FEW040 SCT080 BKN140 M10/M12 A2926 RMK PK WND 13030/0001 ACSL SW AND NW SLP915=
0213896640876012017102103004-77850+166667FM-12+002499999V0200901N00411042001CN011000199-00961-01231099151ADDGA1011+012001061GA2051+042001011GA3999+999999011GE19MSL   +99999+99999GF105991011999012001999999MA1099105098721MD1990111+9999REMSYN07689664 42661 50908 11096 21123 39872 49915 50011 81549 333 56303 81640 85164=
0216896640876012017102105554-77850+166667FM-15+002499999V0200601N006210274319N009999199-00901-01201098681ADDGA1021+012191999GA2071+027431999GA3071+042671999GE19MSL   +99999+99999GF199999021999012191999999MA1099051098265REMMET093METAR NZCM 210555Z 06012KT 9999 FEW040 BKN090 BKN140 M09/M12 A2925 RMK SCSL SW ACSL W SLP868=
0185896640876012017102108554-77850+166667FM-15+002499999V0209999V002110365819N009999199-01101-01501098691ADDGA1021+027431999GA2071+036581999GE19MSL   +99999+99999GF199999021999027431999999MA1099091098275REMMET078METAR NZCM 210855Z VRB04KT 9999 FEW090 BKN120 M11/M15 A2926 RMK ACSL W SLP869=
0197896640876012017102109004-77850+166667FM-12+002499999V0209999V00211036001CN011000199-01141-01461099132ADDGA1011+027001031GA2051+036001021GE19MSL   +99999+99999GF105991011999027001999999MA1099075098692MD1310011+9999REMSYN07689664 42961 59904 11114 21146 39869 49913 53001 81046 333 56003 81359 85262=
0178896640876012017102111554-77850+166667FM-15+002499999V0209999C00001045721CN009999199-01001-01501098531ADDGA1041+036581999GA2041+045721999GE19MSL   +99999+99999GF199999041999036581999999MA1098921098115REMMET071METAR NZCM 211155Z 00000KT 9999 SCT120 SCT150 M10/M15 A2921 RMK SLP853=
0224896640876012017102112004-77850+166667FM-12+002499999V0201101N001512200019N011000199+99999-01531098531ADDAA124000021GA1032+036001021GE19MSL   +99999+99999GF101992032999036001999999KA1240M-00881KA2240N-01201MA1098935098552MD1710141+9999REMSYN08289664 12961 11103 21153 39855 49853 57014 69904 80008 333 11088 21120 56003 83262=
0206896640876012017102117554-77850+166667FM-15+002499999V0200901N004110426719N009999199-01101-01901098891ADDGA1041+030481999GA2071+042671999GE19MSL   +99999+99999GF199999041999030481999999MA1098851098475OC100771REMMET091METAR NZCM 211755Z 09008G15KT 9999 SCT100 BKN140 M11/M19 A2919 RMK SLP889 FATA MORGANA S-W=
0209896640876012017102118004-77850+166667FM-12+002499999V0200901N004119999999N011000199-01071-01931098891ADDGA1041+030001041GA2999+999999001GE19MSL   +99999+99999GF105991041999030001999999MA1098855098471MD1810081+9999REMSYN08889664 42961 50908 11107 21193 39847 49889 58008 84042 333 56033 84460 99114 99115 99116=
0224896640876012017102120554-77850+166667FM-15+002499999V0200901N00511030481CN009999199-01001-01801098871ADDGA1071+030481999GA2071+042671999GE19MSL   +99999+99999GF199999071999030481999999MA1098811098455OC100821REMMET109METAR NZCM 212055Z 09010G16KT 9999 BKN100 BKN140 M10/M18 A2918 RMK ACSL S CCSL N SLP887 FATA MORGANA SE-SW-W=
0215896640876012017102121004-77850+166667FM-12+002499999V0200901N00511030001CN011000199-01001-01841098871ADDGA1051+030001031GA2999+999999001GE19MSL   +99999+99999GF106991051999030001999999MA1098825098441MD1710031+9999REMSYN09489664 42961 60910 11100 21184 39844 49887 57003 85042 333 56033 85360 99113 99114 99115 99116=
0270896640876012017102123554-77850+166667FM-15+002499999V0201401N009310365819N009999199-00901-01901098821ADDGA1041+030481999GA2071+036581999GA3071+042671999GE19MSL   +99999+99999GF199999041999030481999999MA1098781098405OC101341OD149901591150REMMET125METAR NZCM 212355Z 14018G26KT 9999 SCT100 BKN120 BKN140 M09/M19 A2917 RMK PK WND 15031/2236 ACSL E AND S AND W CCSL N SLP882=
0281896640876012017102202554-77850+166667FM-15+002499999V0201301N007710335319N009999199-01201-01901098941ADDGA1021+010671999GA2071+033531999GA3071+042671999GE19MSL   +99999+99999GF199999021999010671999999MA1098881098525OC101241OD149901391100REMMET136METAR NZCM 220255Z 13015G24KT 9999 FEW035 BKN110 BKN140 M12/M19 A2920 RMK PK WND 10027/0041 SCSL SE ACSL SE-S AND W BLSN DSNT SE SLP894=
0213896640876012017102203004-77850+166667FM-12+002499999V0201301N00771033001CN011000199-01221-01891098941ADDGA1011+010501061GA2061+033001041GA3999+999999001GE19MSL   +99999+99999GF107991011999010501999999MA1098895098511MD1310121+9999REMSYN07689664 42661 71315 11122 21189 39851 49894 53012 81572 333 56033 81635 86461=
0194896640876012017102205554-77850+166667FM-15+002499999V0201201N006719999999N009999199-01305-01905099051ADDMA1098985999999MW1165OC101391OD149901591130REMMET120METAR NZCM 220555Z 12013G27KT 9999 VCBLSN BKN100 BKN150 M13/M19 A2923 RMK PK WND 13031/0403 ACSL NW SLP905 VCBLSN SE-SW=EQDD01      0ADE735
0219896640876012017102206004-77850+166667FM-12+002499999V0201201N00671030001CN011000199-01271-01921099051ADDAY121021AY221021GA1071+030001041GA2999+999999001GE19MSL   +99999+99999GF107991071999030001999999MA1098995098611MD1210101+9999MW1011REMSYN07689664 41961 71213 11127 21192 39861 49905 52010 70122 87072 333 56033 87460=
0207896640876012017102208554-77850+166667FM-15+002499999V0201301N007719999999N009999199-01305-02105099161ADDMA1099125999999MW1165OC101391OD149901441100REMMET133METAR NZCM 220855Z 13015G27KT 9999 VCBLSN BKN080 BKN100 BKN150 M13/M21 A2927 RMK PK WND 10028/0707 ACSL W AND NW SLP916 VCBLSN SE-SW=EQDD01      0ADE735
0219896640876012017102209004-77850+166667FM-12+002499999V0201301N00771024001CN011000199-01321-02111099161ADDAY121021AY221021GA1061+024001041GA2999+999999021GE19MSL   +99999+99999GF106991061999024001999999MA1099115098731MD1210121+9999MW1011REMSYN07689664 41861 61315 11132 21211 39873 49916 52012 70122 86078 333 56033 86458=
0196896640876012017102211554-77850+166667FM-15+002499999V0200601N007710457219N009999199-01201-02201099261ADDGA1041+024381999GA2071+045721999GE19MSL   +99999+99999GF199999041999024381999999MA1099221098835REMMET089METAR NZCM 221155Z 06015KT 9999 SCT080 BKN150 M12/M22 A2930 RMK PK WND 15035/0936 SLP926=
0164896640876012017102217554-77850+166667FM-15+002499999V0200801N004119999999N009999199-01101-02301099921ADDGA1021+030481999GE19MSL   +99999+99999GF199999021999030481999999MA1099151099495REMMET073METAR NZCM 221755Z 08008KT 9999 FEW100 M11/M23 A2928 RMK ACSL S-W SLP992=
0169896640876012017102218004-77850+166667FM-12+002499999V0200801N004112200019N011000199-01071-02261099202ADDGA1011+030001031GE19MSL   +99999+99999GF101991011999030001999999MA1099155098772MD1310011+9999REMSYN06489664 42961 10808 11107 21226 39877 49920 53001 81040 333 81360=
0225896640876012017102220554-77850+166667FM-15+002499999V0201001N00461042671CN009999199-01001-02201099261ADDGA1021+010671999GA2021+030481999GA3021+042671999GE19MSL   +99999+99999GF199999021999010671999999MA1099191098845REMMET102METAR NZCM 222055Z 10009KT 9999 FEW035 FEW100 FEW140 M10/M22 A2929 RMK ACSL NE AND S-SW CCSL S SLP926=
0207896640876012017102221004-77850+166667FM-12+002499999V0201001N004612200019N011000199-01021-02251099261ADDGA1011+009001061GA2999+999999031GA3999+999999011GE19MSL   +99999+99999GF102991011999009001999999MA1099205098821MD1310051+9999REMSYN07089664 42661 21009 11102 21225 39882 49926 53005 81549 333 56300 81630=
0249896640876012017102223554-77850+166667FM-15+002499999V0201301N00821030481CN009999199-01401-02501099261ADDGA1021+009141999GA2021+030481999GA3071+042671999GE19MSL   +99999+99999GF199999021999009141999999MA1099251098835OC101291REMMET118METAR NZCM 222355Z 13016G25KT 9999 FEW030 FEW100 BKN140 M14/M25 A2931 RMK ACSL NE AND SW-NW CCSL S SLP926 BLSN DSNT S=
0196896640876012017102305554-77850+166667FM-15+002499999V0200501N00621045721CN009999199-01301-02201099431ADDGA1041+030481999GA2041+045721999GE19MSL   +99999+99999GF199999041999030481999999MA1099391099005REMMET089METAR NZCM 230555Z 05012KT 9999 SCT100 SCT150 M13/M22 A2935 RMK PK WND 16041/0225 SLP943=
0178896640876012017102308554-77850+166667FM-15+002499999V0200601N00821045721CN009999199-01201-02401099381ADDGA1021+030481999GA2021+045721999GE19MSL   +99999+99999GF199999021999030481999999MA1099321098955REMMET071METAR NZCM 230855Z 06016KT 9999 FEW100 FEW150 M12/M24 A2933 RMK SLP938=
0191896640876012017102309004-77850+166667FM-12+002499999V0200601N008212200019N011000199-01191-02401099381ADDGA1021+030001041GA2999+999999021GE19MSL   +99999+99999GF102991021999030001999999MA1099325098941MD1610071+9999REMSYN07089664 42961 20616 11119 21240 39894 49938 56007 82018 333 56034 82460=
0163896640876012017102311554-77850+166667FM-15+002499999V0200501N005719999999N009999199-01201-02501099341ADDGA1021+030481999GE19MSL   +99999+99999GF199999021999030481999999MA1099291098915REMMET072METAR NZCM 231155Z 05011KT 9999 FEW100 M12/M25 A2932 RMK ACSL NW SLP934=
0230896640876012017102312004-77850+166667FM-12+002499999V0200501N005712200019N011000199-01181-02521099341ADDAA124000091GA1011+030001041GE19MSL   +99999+99999GF101991011999030001999999KA1240M-01171KA2240N-01441MA1099285098901MD1710041+9999REMSYN08889664 12961 10511 11118 21252 39890 49934 57004 60004 81070 333 11117 21144 56030 81460=
0208896640876012017102317554-77850+166667FM-15+002499999V0200901N00411042671CN009999199-01401-02501099271ADDGA1021+030481999GA2021+042671999GE19MSL   +99999+99999GF199999021999030481999999MA1099221098845REMMET101METAR NZCM 231755Z 09008KT 9999 FEW100 FEW140 M14/M25 A2930 RMK ACSL N CCSL NE SLP927 FATA MORGANA S=
0197896640876012017102318004-77850+166667FM-12+002499999V0200901N004112200019N011000199-01401-02511099271ADDGA1011+030001031GA2999+999999011GE19MSL   +99999+99999GF101991011999030001999999MA1099225098841MD1410001+9999REMSYN07689664 42961 10908 11140 21251 39884 49927 54000 81049 333 56000 81360 99114=
0170896640876012017102320554-77850+166667FM-15+002499999V0200601N003619999999N009999199-01201-02501099211ADDGA1021+042671999GE19MSL   +99999+99999GF199999021999042671999999MA1099151098785REMMET079METAR NZCM 232055Z 06007KT 9999 FEW140 M12/M25 A2928 RMK CCSL SE AND SW SLP921=
0175896640876012017102321004-77850+166667FM-12+002499999V0200601N003612200019N011000199-01211-02531099211ADDGA1011+042001011GE19MSL   +99999+99999GF101991011999042001999999MA1099165098781MD1610061+9999REMSYN07089664 42961 10607 11121 21253 39878 49921 56006 80009 333 56000 81164=
0192896640876012017102323554-77850+166667FM-15+002499999V0200801N00721042671CN009999199-01501-02301099111ADDGA1021+030481999GA2021+042671999GE19MSL   +99999+99999GF199999021999030481999999MA1099051098685REMMET085METAR NZCM 232355Z 08014KT 9999 FEW100 FEW140 M15/M23 A2925 RMK ACSL E CCSL E SLP911=
0229896640876012017102400004-77850+166667FM-12+002499999V0200801N007212200019N011000199-01471-02261099111ADDGA1011+030001031GA2999+999999011GE19MSL   +99999+99999GF101991011999030001999999KA1120M-01181KA2120N-01741MA1099065098681MD1810101+9999REMSYN08289664 42961 10814 11147 21226 39868 49911 58010 81049 333 11118 21174 56000 81360=
0205896640876012017102405554-77850+166667FM-15+002499999V0200801N004619999999N009999199-01401-02401098901ADDGA1021+030481999GE19MSL   +99999+99999GF199999021999030481999999MA1098851098475OC100881OD149901391150REMMET092METAR NZCM 240555Z 08009G17KT 9999 FEW100 M14/M24 A2919 RMK PK WND 15027/0059 ACSL N SLP890=
0175896640876012017102406004-77850+166667FM-12+002499999V0200801N004612200019N011000199-01361-02371098901ADDGA1011+030001041GE19MSL   +99999+99999GF101991011999030001999999MA1098865098481MD1610171+9999REMSYN07089664 42961 10809 11136 21237 39848 49890 56017 81070 333 56030 81460=
0155896640876012017102408554-77850+166667FM-15+002499999V0201001N00361021341CN009999199-01401-02301098831ADDGA1071+021341999GE19MSL   +99999+99999GF199999071999021341999999MA1098781098405REMMET064METAR NZCM 240855Z 10007KT 9999 BKN070 M14/M23 A2917 RMK SLP883=
0175896640876012017102409004-77850+166667FM-12+002499999V0201001N00361021001CN011000199-01431-02351098831ADDGA1071+021001041GE19MSL   +99999+99999GF107991071999021001999999MA1098785098401MD1810081+9999REMSYN07089664 42861 71007 11143 21235 39840 49883 58008 87020 333 56040 87457=
0181896640876012017102411554-77850+166667FM-15+002499999V0200401N008219999999N009999199-01701-02501098701ADDGA1041+021341999GE19MSL   +99999+99999GF199999041999021341999999MA1098651098275OC101181REMMET082METAR NZCM 241155Z 04016G23KT 9999 SCT070 M17/M25 A2913 RMK SLP870 FATA MORGANA S=
0219896640876012017102417554-77850+166667FM-15+002499999V0209999C00001024381CN009999199-01801-02701098521ADDGA1021+009141999GA2041+024381999GA3071+042671999GE19MSL   +99999+99999GF199999021999009141999999MA1098481098095REMMET096METAR NZCM 241755Z 00000KT 9999 FEW030 SCT080 BKN140 M18/M27 A2908 RMK SLP852 FATA MORGANA W-NW=
0225896640876012017102418004-77850+166667FM-12+002499999V0209999C00001024001CN011000199-01791-02731098521ADDGA1021+009001061GA2031+024001031GA3999+999999001GE19MSL   +99999+99999GF106991021999009001999999MA1098475098091MD1510081+9999REMSYN08889664 42661 60000 11179 21273 39809 49852 55008 82571 333 56333 82630 83358 99116 99117=
0178896640876012017102420554-77850+166667FM-15+002499999V0209999C000010243819N009999199-01501-02401098381ADDGA1021+007621999GA2071+024381999GE19MSL   +99999+99999GF199999021999007621999999MA1098341097955REMMET071METAR NZCM 242055Z 00000KT 9999 FEW025 BKN080 M15/M24 A2904 RMK SLP838=
0197896640876012017102421004-77850+166667FM-12+002499999V0209999C00001024001CN011000199-01531-02361098381ADDGA1021+007501061GA2061+024001031GE19MSL   +99999+99999GF107991021999007501999999MA1098325097951MD1610141+9999REMSYN07689664 42561 70000 11153 21236 39795 49838 56014 82570 333 56330 82625 86358=
0195896640876012017102423554-77850+166667FM-15+002499999V0202701N002110274319N009999199-01401-02401098301ADDGA1021+009141999GA2071+027431999GE19MSL   +99999+99999GF199999021999009141999999MA1098241097885REMMET088METAR NZCM 242355Z 27004KT 9999 FEW030 BKN090 M14/M24 A2901 RMK SLP830 FATA MORGANA S-W=
0253896640876012017102500004-77850+166667FM-12+002499999V0202701N00211027001CN011000199-01371-02381098301ADDGA1021+009001061GA2061+027001031GE19MSL   +99999+99999GF107991021999009001999999KA1120M-01331KA2120N-01911MA1098245097871MD1610081+9999REMSYN10689664 42561 72704 11137 21238 39787 49830 56008 82570 333 11133 21191 56330 82630 86359 99114 99115 99116=
0201896640876012017102502554-77850+166667FM-15+002499999V0202901N001510213419N009999199-00901-02501098111ADDGA1021+009141999GA2071+021341999GA3071+042671999GE19MSL   +99999+99999GF199999021999009141999999MA1098071097695REMMET078METAR NZCM 250255Z 29003KT 9999 FEW030 BKN070 BKN140 M09/M25 A2896 RMK SLP811=
0213896640876012017102503004-77850+166667FM-12+002499999V0202901N00151021001CN011000199-00931-02481098111ADDGA1021+009001061GA2051+021001031GA3999+999999001GE19MSL   +99999+99999GF106991021999009001999999MA1098055097681MD1610191+9999REMSYN07689664 42561 62903 11093 21248 39768 49811 56019 82572 333 56333 82630 85357=
0162896640876012017102505554-77850+166667FM-15+002499999V0209999V002119999999N009999199-01101-02501097971ADDGA1021+024381999GE19MSL   +99999+99999GF199999021999024381999999MA1097901097555REMMET071METAR NZCM 250555Z VRB04KT 9999 FEW080 M11/M25 A2891 RMK ACSL W SLP797=
0175896640876012017102506004-77850+166667FM-12+002499999V0209999V002112200019N011000199-01121-02501097971ADDGA1011+024001031GE19MSL   +99999+99999GF101991011999024001999999MA1097915097541MD1610141+9999REMSYN07089664 42861 19904 11112 21250 39754 49797 56014 81070 333 56030 81358=
0188896640876012017102508554-77850+166667FM-15+002499999V0209999V002110228619N009999199-01201-02601097871ADDGA1041+010671999GA2071+022861999GE19MSL   +99999+99999GF199999041999010671999999MA1097801097455REMMET081METAR NZCM 250855Z VRB04KT 9999 SCT035 BKN075 M12/M26 A2888 RMK SLP787 SN DSNT S=
0225896640876012017102509004-77850+166667FM-12+002499999V0209999V00211021001CN011000199-01181-02601097871ADDAY111021AY211021GA1031+010501061GA2041+021001041GE19MSL   +99999+99999GF107991031999010501999999MA1097815097441MD1710101+9999MW1151REMSYN08289664 41661 79904 11118 21260 39744 49787 57010 71511 83570 333 56330 83635 84457=
0218896640876012017102511554-77850+166667FM-15+002499999V0209999C000010152419N009999199-01401-02101097751ADDGA1021+009141999GA2071+015241999GE19MSL   +99999+99999GF199999021999009141999999MA1097701097335MW1711REMMET105METAR NZCM 251155Z 00000KT 9999 -SN FEW030 BKN050 M14/M21 A2885 RMK SNB1000 SCSL S SLP775 FATA MORGANA S=
0292896640876012017102512004-77850+166667FM-12+002499999V0209999C00001015001CN011000199-01421-02061097751ADDAA124000021AY171021AY221021GA1011+009001061GA2071+015001061GE19MSL   +99999+99999GF107991011999009001999999KA1240M-00921KA2240N-01481MA1097695097321MD1810121+9999MW1711REMSYN11289664 11561 70000 11142 21206 39732 49775 58012 69904 77172 87500 333 11092 21148 56300 81630 87650 90020 99144=
0222896640876012017102517554-77850+166667FM-15+002499999V0209999V00311013721CN009999199-00901-01901097581ADDGA1041+009141999GA2041+013721999GA3071+016761999GE19MSL   +99999+99999GF199999041999009141999999MA1097531097175MW1711REMMET093METAR NZCM 251755Z VRB06KT 9999 -SN SCT030 SCT045 BKN055 M09/M19 A2880 RMK SNE1300B40 SLP758=
0231896640876012017102518004-77850+166667FM-12+002499999V0209999V003110150019N011000199-00931-01931097581ADDAY171021AY221021GA1041+009001061GA2071+015001061GE19MSL   +99999+99999GF107991041999009001999999MA1097535097161MD1810031+9999MW1711REMSYN08889664 41561 79906 11093 21193 39716 49758 58003 77172 87500 333 56400 84630 87650 90003=
0169896640876012017102520554-77850+166667FM-15+002499999V0202101N004619999999N009999199-00905-01305097681ADDMA1097635999999MW1711REMMET117METAR NZCM 252055Z 21009KT 9999 -SN VCBLSN SCT025 SCT035 BKN045 M09/M13 A2883 RMK PK WND 17032/15 SLP768 VCBLSN SW-W=EQDD01      0ADE693
0209896640876012017102521004-77850+166667FM-12+002499999V0202101N004619999999N011000199-00911-01351097681ADDAY171021AY271021GA1041+007501061GE19MSL   +99999+99999GF107991041999007501999999MA1097635097261MD1810101+9999MW1711REMSYN08289664 41561 72109 11091 21135 39726 49768 58010 77177 87500 333 56400 84625 90033=
0253896640876012017102523554-77850+166667FM-15+002499999V0201801N006710152419N009999199-01001-01301097601ADDGA1041+004571999GA2071+015241999GA3071+036581999GE19MSL   +99999+99999GF199999041999004571999999MA1097561097185MW1711OC101241REMMET116METAR NZCM 252355Z 18013G24KT 9999 -SN SCT015 BKN050 BKN120 M10/M13 A2881 RMK PK WND 19033/30 SLP760 BLSN DSNT S-SW=
0275896640876012017102600004-77850+166667FM-12+002499999V0201801N006710150019N011000199-01001-01351097601ADDAY171021AY271021GA1031+004501061GA2061+015001061GE19MSL   +99999+99999GF107991031999004501999999KA1120M-00801KA2120N-01401MA1097545097171MD1810091+9999MW1711REMSYN10689664 41461 71813 11100 21135 39717 49760 58009 77177 87570 333 01933 11080 21140 56440 83615 86650 90061=
0256896640876012017102602554-77850+166667FM-15+002499999V0201701N00821009141CN003200199-01201-01501097601ADDGA1021+003051999GA2041+009141999GA3071+018291999GA4071+036581999GE19MSL   +99999+99999GF199999021999003051999999MA1097601097185MW1381MW2711OC101851REMMET097METAR NZCM 260255Z 17016G36KT 3200 -SN BLSN FEW010 SCT030 BKN060 BKN120 M12/M15 A2882 RMK SLP760=
0243896640876012017102603004-77850+166667FM-12+002499999V0201701N00821018001CN003200199-01221-01501097641ADDAY171021AY231021GA1011+003001051GA2061+018001061GE19MSL   +99999+99999GF107991011999003001999999MA1097605097231MD1110061+9999MW1711REMSYN10089664 41432 71716 11122 21150 39723 49764 51006 77173 86570 333 56440 81510 86656 90064 90220 96038=
0263896640876012017102605554-77850+166667FM-15+002499999V0200901N006710243819N009000199-01401-01901097921ADDGA1021+003051999GA2071+024381999GA3071+036581999GE19MSL   +99999+99999GF199999021999003051999999MA1097871097505MW1381OC100931OD149901851150REMMET112METAR NZCM 260555Z 09013G18KT 9000 BLSN FEW010 BKN080 BKN120 M14/M19 A2890 RMK PK WND 15036/0309 SNE0445 SLP792=
0259896640876012017102608554-77850+166667FM-15+002499999V0201501N01601009141CN008000199-01201-01601097721ADDGA1021+003051999GA2041+009141999GA3071+016761999GA4081+024381999GE19MSL   +99999+99999GF199999021999003051999999MA1097701097305MW1381OC101961REMMET106METAR NZCM 260855Z 15031G38KT 8000 BLSN FEW010 SCT030 BKN055 OVC080 M12/M16 A2885 RMK SNB0601E0730 SLP772=
0243896640876012017102609004-77850+166667FM-12+002499999V0201501N01601015001CN008000199-01171-01581097721ADDAY171021AY231021GA1011+003001071GA2071+015001061GE19MSL   +99999+99999GF108991011999003001999999MA1097675097301MD1810191+9999MW1381REMSYN10089664 41458 81531 11117 21158 39730 49772 58019 73873 8777/ 333 56339 81710 87650 90062 90315 96471=
0266896640876012017102611554-77850+166667FM-15+002499999V0201701N00671009141CN009999199-01001-01501097811ADDGA1021+003051999GA2041+009141999GA3071+015241999GA4071+024381999GE19MSL   +99999+99999GF199999021999003051999999MA1097761097395OD149902001150REMMET113METAR NZCM 261155Z 17013KT 9999 FEW010 SCT030 BKN050 BKN080 M10/M15 A2887 RMK PK WND 15039/0901 SLP781 SN DSNT S=
0218896640876012017102614554-77850+166667FM-15+002499999V0200801N00411007621CN009999199-01101-01501097761ADDGA1071+007621999GA2081+015241999GE19MSL   +99999+99999GF199999071999007621999999MA1097701097345MW1711REMMET105METAR NZCM 261455Z 08008KT 9999 -SN BKN025 OVC050 M11/M15 A2885 RMK SNB1340 SLP776 BLSN DSNT S-SW AND NW=
0231896640876012017102615004-77850+166667FM-12+002499999V0200801N00411007501CN011000199-01091-01501097761ADDAY171021AY221021GA1051+007501061GA2031+015001061GE19MSL   +99999+99999GF108991051999007501999999MA1097705097331MD1810061+9999MW1711REMSYN08889664 41561 80808 11109 21150 39733 49776 58006 77172 885// 333 56399 85625 83650 90013=
0176896640876012017102617554-77850+166667FM-15+002499999V0201401N00771013721CN009999199-01001-01501097751ADDGA1081+013721999GE19MSL   +99999+99999GF199999081999013721999999MA1097701097335MW1711OC101031REMMET071METAR NZCM 261755Z 14015G20KT 9999 -SN OVC045 M10/M15 A2885 RMK SLP775=
0221896640876012017102618004-77850+166667FM-12+002499999V0201401N00771013501CN011000199-01011-01461097751ADDAY171021AY231021GA1081+013501061GE19MSL   +99999+99999GF108991081999013501999999MA1097705097331MD1510001+9999MW1711REMSYN09489664 41661 81415 11101 21146 39733 49775 55000 77173 885// 333 56399 88645 90043 90320 96438=
0187896640876012017102620554-77850+166667FM-15+002499999V0201701N00981010671CN001600199-01101-01401097811ADDGA1081+010671999GE19MSL   +99999+99999GF199999081999010671999999MA1097761097395MW1381MW2711OC101491REMMET076METAR NZCM 262055Z 17019G29KT 1600 -SN BLSN OVC035 M11/M14 A2887 RMK SLP781=
0221896640876012017102621004-77850+166667FM-12+002499999V0201701N00981010501CN001600199-01141-01431097811ADDAY171021AY231021GA1081+010501061GE19MSL   +99999+99999GF108991081999010501999999MA1097755097381MD1310051+9999MW1711REMSYN09489664 41616 81719 11114 21143 39738 49781 53005 77173 885// 333 56399 88635 90062 90205 96038=
0219896640876012017102623554-77850+166667FM-15+002499999V0201801N01291010671CN003200199-01101-02201097871ADDGA1081+010671999GE19MSL   +99999+99999GF199999081999010671999999MA1097801097455MW1381MW2711OC101491OD149901641190REMMET094METAR NZCM 262355Z 18025G29KT 3200 -SN BLSN OVC035 M11/M22 A2888 RMK PK WND 19032/2338 SLP787=
0265896640876012017102700004-77850+166667FM-12+002499999V0201801N01291010501CN003200199-01121-02211097871ADDAY131021AY231021GA1081+010501061GE19MSL   +99999+99999GF108991081999010501999999KA1120M-00941KA2120N-01231MA1097815097441MD1210061+9999MW1711REMSYN11289664 41632 81825 11112 21221 39744 49787 52006 77133 885// 333 01939 11094 21123 56399 88635 90065 90223 96038=
0240896640876012017102702554-77850+166667FM-15+002499999V0201601N012410137219N004800199-01001-01401097901ADDGA1041+010671999GA2081+013721999GE19MSL   +99999+99999GF199999041999010671999999MA1097831097485MW1381OC101701OD149902001190REMMET105METAR NZCM 270255Z 16024G33KT 4800 BLSN SCT035 OVC045 M10/M14 A2889 RMK PK WND 19039/2358 SNE0110 SLP790=
0223896640876012017102704014-77850+166667FM-15+002499999V0201601N015410243819N004800199-01101-01301097911ADDGA1021+012191999GA2071+024381999GA3071+027431999GE19MSL   +99999+99999GF199999021999012191999999MA1097871097495MW1381OC101961REMMET086METAR NZCM 270401Z 16030G38KT 4800 BLSN FEW040 BKN080 BKN090 M11/M13 A2890 RMK SLP791=
0223896640876012017102705554-77850+166667FM-15+002499999V0201601N015410243819N004800199-01101-01301097911ADDGA1021+012191999GA2071+024381999GA3071+027431999GE19MSL   +99999+99999GF199999021999012191999999MA1097871097495MW1381OC101961REMMET086METAR NZCM 270555Z 16030G38KT 4800 BLSN FEW040 BKN080 BKN090 M11/M13 A2890 RMK SLP791=
0231896640876012017102706004-77850+166667FM-12+002499999V0201601N015410270019N004800199-01091-01331097911ADDAY171021AY231021GA1021+012001061GA2071+027001041GE19MSL   +99999+99999GF107991021999012001999999MA1097855097481MD1510011+9999MW1381REMSYN08889664 41648 71630 11109 21133 39748 49791 55001 73873 82570 333 56330 82640 87459 90005=
0264896640876012017102708554-77850+166667FM-15+002499999V0201601N013410243819N001600199-01501-01701098161ADDGA1041+012191999GA2071+024381999GA3071+027431999GE19MSL   +99999+99999GF199999041999012191999999MA1098101097735MW1101MW2381OC101651OD149901851150REMMET107METAR NZCM 270855Z 16026G32KT 1600 BLSN BR SCT040 BKN080 BKN090 M15/M17 A2897 RMK PK WND 15036/0626 SLP816=
0243896640876012017102709004-77850+166667FM-12+002499999V0201601N01341027001CN001600199-01461-01701098161ADDAY131021AY231021GA1031+012001061GA2041+027001041GE19MSL   +99999+99999GF107991031999012001999999MA1098105097731MD1310251+9999MW1381REMSYN10089664 41616 71626 11146 21170 39773 49816 53025 73833 83570 333 56330 83640 84459 90035 90205 96010=
0213896640876012017102711554-77850+166667FM-15+002499999V0201201N004619999999N009999199-01305-01605098341ADDMA1098275999999MW1711OC101031OD149901851160REMMET139METAR NZCM 271155Z 12009G20KT 9999 -SN VCBLSN SCT040 BKN080 BKN150 M13/M16 A2902 RMK PK WND 16036/0930 SNB30 ACSL W-NW SLP834 VCBLSN SE-SW=EQDD01      0ADE693
0320896640876012017102712004-77850+166667FM-12+002499999V0201201N00461024001CN011000199-01341-01561098341ADDAA124000021AY171021AY231021GA1031+012001061GA2031+024001041GA3999+999999011GE19MSL   +99999+99999GF106991031999012001999999KA1240M-00961KA2240N-01571MA1098275097901MD1210171+9999MW1711REMSYN12489664 11661 61209 11134 21156 39790 49834 52017 69904 77173 83579 333 01636 11096 21157 56333 83640 83458 90005 90307 96438=
0214896640876012017102714554-77850+166667FM-15+002499999V0201101N005119999999N009999199-01305-01605098361ADDMA1098315999999MW1165OC100881OD149901491130REMMET140METAR NZCM 271455Z 11010G17KT 9999 VCBLSN FEW005 SCT055 OVC075 M13/M16 A2903 RMK PK WND 13029/1404 SNE30 SLP836 VCBLSN S-SW BLSN DSNT SW-NW=EQDD01      0ADE735
0243896640876012017102715004-77850+166667FM-12+002499999V0201101N00511021001CN011000199-01331-01651098361ADDAY171021AY231021GA1011+001501061GA2051+021001041GE19MSL   +99999+99999GF108991011999001501999999MA1098305097931MD1210031+9999MW1261REMSYN10089664 41261 81110 11133 21165 39793 49836 52003 72673 8351/ 333 56339 81605 85457 90105 90322 96438=
0264896640876012017102717554-77850+166667FM-15+002499999V0201301N00821012191CN009999199-01201-01701098301ADDGA1021+003051999GA2041+012191999GA3071+021341999GA4081+027431999GE19MSL   +99999+99999GF199999021999003051999999MA1098241097885OC101131REMMET117METAR NZCM 271755Z 13016G22KT 9999 FEW010 SCT040 BKN070 OVC090 M12/M17 A2901 RMK PK WND 11026/18 SLP830 SN DSNT SE-S=
0247896640876012017102718004-77850+166667FM-12+002499999V0201301N008210270019N011000199-01251-01661098301ADDAY171021AY231021GA1011+003001061GA2031+012001061GA3051+027001041GE19MSL   +99999+99999GF108991011999003001999999MA1098245097871MD1810061+9999MW1151REMSYN08889664 41461 81316 11125 21166 39787 49830 58006 71573 8451/ 333 56339 81610 83640 85459=
0246896640876012017102720554-77850+166667FM-15+002499999V0200501N00261012191CN009999199-01001-01601098171ADDGA1021+003051999GA2021+012191999GA3071+027431999GA4071+042671999GE19MSL   +99999+99999GF199999021999003051999999MA1098101097755REMMET107METAR NZCM 272055Z 05005KT 9999 FEW010 FEW040 BKN090 BKN140 M10/M16 A2897 RMK SLP817 FATA MORGANA SE-SW-NW=
0243896640876012017102721004-77850+166667FM-12+002499999V0200501N002619999999N011000199-01011-01611098171ADDGA1011+003001061GA2041+027001041GA3999+999999001GE19MSL   +99999+99999GF106991011999003001999999MA1098115097741MD1810131+9999REMSYN10689664 42461 60505 11101 21161 39774 49817 58013 82512 333 56333 81610 84459 99113 99114 99115 99116 99117=
0219896640876012017102723554-77850+166667FM-15+002499999V0209999C00001030481CN009999199-00501-01501098021ADDGA1021+003051999GA2041+030481999GA3041+042671999GE19MSL   +99999+99999GF199999021999003051999999MA1097971097615REMMET096METAR NZCM 272355Z 00000KT 9999 FEW010 SCT100 SCT140 M05/M15 A2893 RMK SLP802 FATA MORGANA SW-W=
0263896640876012017102800004-77850+166667FM-12+002499999V0209999C000012200019N011000199-00531-01531098021ADDGA1011+003001071GA2041+030001031GA3999+999999011GE19MSL   +99999+99999GF104991011999003001999999KA1120M-00421KA2120N-01421MA1097975097601MD1710141+9999REMSYN10089664 42461 40000 11053 21153 39760 49802 57014 81639 333 11042 21142 56333 81710 84360 99115 99116=
0178896640876012017102805554-77850+166667FM-15+002499999V0209999C000010396219N009999199-00801-01501097731ADDGA1041+024381999GA2071+039621999GE19MSL   +99999+99999GF199999041999024381999999MA1097701097325REMMET071METAR NZCM 280555Z 00000KT 9999 SCT080 BKN130 M08/M15 A2885 RMK SLP773=
0197896640876012017102806004-77850+166667FM-12+002499999V0209999C00001039001CN011000199-00801-01511097731ADDGA1031+024001041GA2031+039001021GE19MSL   +99999+99999GF106991031999024001999999MA1097685097311MD1610141+9999REMSYN07689664 42861 60000 11080 21151 39731 49773 56014 83018 333 56033 83458 83263=
0186896640876012017102808554-77850+166667FM-15+002499999V0209999C000010457219N009999199-01001-01601097581ADDGA1041+024381999GA2071+045721999GE19MSL   +99999+99999GF199999041999024381999999MA1097531097165REMMET079METAR NZCM 280855Z 00000KT 9999 SCT080 BKN150 M10/M16 A2880 RMK ACSL NW SLP758=
0197896640876012017102809004-77850+166667FM-12+002499999V0209999C00001045001CN011000199-00981-01641097581ADDGA1031+024001041GA2031+045001021GE19MSL   +99999+99999GF106991031999024001999999MA1097535097161MD1710151+9999REMSYN07689664 42861 60000 11098 21164 39716 49758 57015 83078 333 56033 83458 83265=
0185896640876012017102811554-77850+166667FM-15+002499999V0200901N005110457219N009999199-01301-01701097561ADDGA1041+024381999GA2071+045721999GE19MSL   +99999+99999GF199999041999024381999999MA1097531097145REMMET078METAR NZCM 281155Z 09010KT 9999 SCT080 BKN150 M13/M17 A2880 RMK ACSL W SLP756=
0246896640876012017102812004-77850+166667FM-12+002499999V0200901N005119999999N011000199-01301-01731097561ADDAA124000021GA1031+024001041GA2999+999999021GE19MSL   +99999+99999GF105991031999024001999999KA1240M-00671KA2240N-01491MA1097515097141MD1610021+9999REMSYN08889664 12861 50910 11130 21173 39714 49756 56002 69904 83078 333 11067 21149 56033 83458=
0215896640876012017102817554-77850+166667FM-15+002499999V0209999C000010152419N009999199-01301-01701097601ADDGA1021+009141999GA2071+015241999GA3071+021341999GE19MSL   +99999+99999GF199999021999009141999999MA1097561097185REMMET092METAR NZCM 281755Z 00000KT 9999 FEW030 BKN050 BKN070 M13/M17 A2881 RMK SLP760 SN DSNT SE-SW=
0225896640876012017102818004-77850+166667FM-12+002499999V0209999C00001015001CN011000199-01271-01751097601ADDAY121021AY221021GA1021+009001061GA2051+015001061GE19MSL   +99999+99999GF107991021999009001999999MA1097555097181MD1110061+9999MW1151REMSYN08289664 41561 70000 11127 21175 39718 49760 51006 71522 85510 333 56440 82630 85650=
0236896640876012017102820554-77850+166667FM-15+002499999V0209999V00211010671CN009999199-00801-01401097611ADDGA1021+004571999GA2041+010671999GA3071+015241999GA4081+021341999GE19MSL   +99999+99999GF199999021999004571999999MA1097575097205MW1711REMMET091METAR NZCM 282055Z VRB04KT 9999 -SN FEW015 SCT035 BKN050 OVC070 M08/M14 RMK SNB1830 SLP761=
0231896640876012017102821004-77850+166667FM-12+002499999V0209999V00211015001CN011000199-00841-01431097611ADDAY171021AY221021GA1011+004501061GA2051+015001061GE19MSL   +99999+99999GF108991011999004501999999MA1097565097191MD1310011+9999MW1711REMSYN08889664 41461 89904 11084 21143 39719 49761 53001 77172 8551/ 333 56449 81615 85650 90025=
0165896640876012017102823554-77850+166667FM-15+002499999V0209999C00001006101CN002400199-00701-01101097751ADDGA1081+006101999GE19MSL   +99999+99999GF199999081999006101999999MA1097701097345MW1711REMMET068METAR NZCM 282355Z 00000KT 2400 -SN OVC020 M07/M11 A2885 RMK SLP775=
0247896640876012017102900004-77850+166667FM-12+002499999V0209999C99999006001CN002400199-00711-01111097751ADDAY171021AY271021GA1081+006001061GE19MSL   +99999+99999GF108991081999006001999999KA1120M-00611KA2120N-01551MA1097715097341MD1310151+9999MW1711REMSYN09489664 41524 80000 11071 21111 39734 49775 53015 77177 885// 333 11061 21155 56499 88620 90055=
0242896640876012017102902554-77850+166667FM-15+002499999V0200501N00771007621CN004000199-01301-02302097901ADDGA1071+007621999GA2071+010671999GE19MSL   +99999+99999GF199999071999007621999999MA1097831097485MW1381MW2711OC101131OD149901491170REMMET101METAR NZCM 290255Z 05015G22KT 4000 -SN BLSN BKN025 BKN035 M13/M23 A2889 RMK PK WND 17029/0059 SLP790=
0243896640876012017102903004-77850+166667FM-12+002499999V0200501N00771007501CN004000199-01321-02332097901ADDAY171021AY231021GA1051+007501061GA2031+010501061GE19MSL   +99999+99999GF107991051999007501999999MA1097845097471MD1210131+9999MW1711REMSYN10089664 41540 70515 11132 21233 39747 49790 52013 77173 87500 333 56500 85625 83635 90063 90224 96038=
0210896640876012017102905554-77850+166667FM-15+002499999V0201001N00821015241CN002400199-01601-02001098141ADDGA1071+015241999GA2081+024381999GE19MSL   +99999+99999GF199999071999015241999999MA1098101097715MW1381MW2711OC101291REMMET083METAR NZCM 290555Z 10016G25KT 2400 -SN BLSN BKN050 OVC080 M16/M20 A2897 RMK SLP814=
0237896640876012017102906004-77850+166667FM-12+002499999V0201001N00821015001CN002400199-01631-02031098141ADDAY171021AY231021GA1061+015001061GA2999+999999031GE19MSL   +99999+99999GF108991061999015001999999MA1098085097711MD1210241+9999MW1711REMSYN09489664 41724 81016 11163 21203 39771 49814 52024 77173 8657/ 333 56449 86650 90066 90208 96038=
0203896640876012017102908554-77850+166667FM-15+002499999V0200801N007219999999N008000199-01605-02005098331ADDMA1098275999999MW1101OC101341REMMET143METAR NZCM 290855Z COR 08014G26KT 8000 BR VCBLSN SCT050 BKN080 BKN140 M16/M20 A2902 RMK PK WND 03029/29 SNE0810 ACSL NW SLP833 VCBLSN SE-SW-NW=EQDD01      0ADE693
0265896640876012017102909004-77850+166667FM-12+002499999V0200801N00721024001CN008000199-01631-02021098331ADDAY171021AY231021GA1031+015001061GA2031+024001041GA3999+999999011GE19MSL   +99999+99999GF106991031999015001999999MA1098275097901MD1110191+9999MW1101REMSYN10689664 41758 60814 11163 21202 39790 49833 51019 71073 83579 333 56334 83650 83458 90005 90108 90305 96438=
0217896640876012017102911554-77850+166667FM-15+002499999V0200701N00511042671CN009999199-01501-02001098421ADDGA1041+024381999GA2041+042671999GE19MSL   +99999+99999GF199999041999024381999999MA1098371097995OC100981REMMET102METAR NZCM 291155Z 07010G19KT 9999 SCT080 SCT140 M15/M20 A2905 RMK PK WND 05028/04 SLP842 SN DSNT S-W=
0274896640876012017102912004-77850+166667FM-12+002499999V0200701N005112200019N011000199-01531-01981098421ADDAA124000021AY171021AY231021GA1031+024001041GA2999+999999021GE19MSL   +99999+99999GF104991031999024001999999KA1240M-00741KA2240N-01751MA1098365097991MD1110091+9999MW1151REMSYN09489664 11861 40710 11153 21198 39799 49842 51009 69904 71573 83078 333 11074 21175 56033 83458=
0221896640876012017102912554-77850+166667FM-15+002499999V0200701N00511042671CN009999199-01501-02001098421ADDGA1041+024381999GA2041+042671999GE19MSL   +99999+99999GF199999041999024381999999MA1098371097995OC100981REMMET106METAR NZCM 291255Z COR 07010G19KT 9999 SCT080 SCT140 M15/M20 A2905 RMK PK WND 05028/04 SLP842 SN DSNT S-W=
0233896640876012017102917554-77850+166667FM-15+002499999V0209999C00001024381CN009999199-01001-01601098651ADDGA1021+010671999GA2041+024381999GA3041+042671999GE19MSL   +99999+99999GF199999021999010671999999MA1098611098235OD149901331040REMMET096METAR NZCM 291755Z 00000KT 9999 FEW035 SCT080 SCT140 M10/M16 A2912 RMK PK WND 04026/1248 SLP865=
0213896640876012017102918004-77850+166667FM-12+002499999V0209999C000012200019N011000199-00961-01611098651ADDGA1011+010501061GA2041+042001021GA3999+999999021GE19MSL   +99999+99999GF104991011999010501999999MA1098605098221MD1210141+9999REMSYN07689664 42661 40000 11096 21161 39822 49865 52014 81578 333 56444 81635 84264=
0195896640876012017102920554-77850+166667FM-15+002499999V0200901N003610213419N009999199-01201-01801098771ADDGA1021+010671999GA2071+021341999GA3071+042671999GE19MSL   +99999+99999GF199999021999010671999999MA1098735098355REMMET072METAR NZCM 292055Z 09007KT 9999 FEW035 BKN070 BKN140 M12/M18 RMK SLP877=
0213896640876012017102921004-77850+166667FM-12+002499999V0200901N003619999999N011000199-01251-01831098771ADDGA1011+010501061GA2041+021001031GA3999+999999021GE19MSL   +99999+99999GF106991011999010501999999MA1098725098341MD1110121+9999REMSYN07689664 42661 60907 11125 21183 39834 49877 51012 81578 333 56444 81635 84357=
0226896640876012017102923554-77850+166667FM-15+002499999V0201901N001510213419N009999199-01001-01601098961ADDGA1021+010671999GA2071+021341999GA3071+042671999GE19MSL   +99999+99999GF199999021999010671999999MA1098921098545REMMET103METAR NZCM 292355Z 19003KT 9999 FEW035 BKN070 BKN140 M10/M16 A2921 RMK SLP896 FATA MORGANA S-SW AND NW=
0269896640876012017103000004-77850+166667FM-12+002499999V0201901N00151021001CN011000199-01051-01631098961ADDGA1021+010501061GA2061+021001031GA3999+999999021GE19MSL   +99999+99999GF107991021999010501999999KA1120M-00861KA2120N-01541MA1098915098531MD1310191+9999REMSYN10689664 42661 71903 11105 21163 39853 49896 53019 82578 333 11086 21154 56444 82635 86357 99114 99115 99117=
0212896640876012017103002554-77850+166667FM-15+002499999V0209999C000010213419N009999199-00901-01601099081ADDGA1021+009141999GA2071+021341999GA3071+042671999GE19MSL   +99999+99999GF199999021999009141999999MA1098651098665REMMET089METAR NZCM 300255Z 00000KT 9999 FEW030 BKN070 BKN140 M09/M16 A2913 RMK SLP908 SN DSNT SW=
0241896640876012017103003004-77850+166667FM-12+002499999V0209999C00001021001CN011000199-00861-01541099081ADDAY121021AY221021GA1021+009001061GA2061+021001031GA3999+999999021GE19MSL   +99999+99999GF107991021999009001999999MA1099035098651MD1210121+9999MW1151REMSYN08289664 41561 70000 11086 21154 39865 49908 52012 71522 82578 333 56444 82630 86357=
0185896640876012017103005554-77850+166667FM-15+002499999V0209999C000010213419N009999199-01001-01601099201ADDGA1021+012191999GA2081+021341999GE19MSL   +99999+99999GF199999021999012191999999MA1099151098785REMMET078METAR NZCM 300555Z 00000KT 9999 FEW040 OVC070 M10/M16 A2928 RMK SCSL S SLP920=
0197896640876012017103006004-77850+166667FM-12+002499999V0209999C000010210019N011000199-00961-01571099201ADDGA1011+012001061GA2081+021001041GE19MSL   +99999+99999GF108991011999012001999999MA1099165098781MD1210131+9999REMSYN07689664 42661 80000 11096 21157 39878 49920 52013 8157/ 333 56449 81640 88457=
0185896640876012017103008554-77850+166667FM-15+002499999V0203101N00211012191CN009999199-01101-01601099351ADDGA1071+012191999GA2081+021341999GE19MSL   +99999+99999GF199999071999012191999999MA1099291098935REMMET078METAR NZCM 300855Z 31004KT 9999 BKN040 OVC070 M11/M16 A2932 RMK SCSL S SLP935=
0191896640876012017103009004-77850+166667FM-12+002499999V0203101N00211012001CN011000199-01081-01571099351ADDGA1061+012001061GA2999+999999031GE19MSL   +99999+99999GF108991061999012001999999MA1099295098911MD1210131+9999REMSYN07089664 42661 83104 11108 21157 39891 49935 52013 8657/ 333 56449 86640=
0155896640876012017103011554-77850+166667FM-15+002499999V0209999C00001012191CN009999199-01101-01501099441ADDGA1071+012191999GE19MSL   +99999+99999GF199999071999012191999999MA1099391099025REMMET064METAR NZCM 301155Z 00000KT 9999 BKN040 M11/M15 A2935 RMK SLP944=
0230896640876012017103012004-77850+166667FM-12+002499999V0209999C00001012001CN011000199-01121-01461099441ADDAA124000091GA1071+012001061GE19MSL   +99999+99999GF107991071999012001999999KA1240M-00661KA2240N-01171MA1099385099001MD1110091+9999REMSYN08889664 12661 70000 11112 21146 39900 49944 51009 60004 87500 333 11066 21117 56400 87640=
0226896640876012017103017554-77850+166667FM-15+002499999V0200701N00411015241CN009999199-01201-01501099611ADDGA1041+002441999GA2041+015241999GA3071+027431999GE19MSL   +99999+99999GF199999041999002441999999MA1099561099185REMMET103METAR NZCM 301755Z 07008KT 9999 SCT008 SCT050 BKN090 M12/M15 A2940 RMK ACSL W SLP961 FATA MORGANA W-NW=
0209896640876012017103018004-77850+166667FM-12+002499999V0200701N00411027001CN011000199-01221-01481099611ADDGA1031+002401071GA2051+027001031GE19MSL   +99999+99999GF107991031999002401999999MA1099565099181MD1310081+9999REMSYN08889664 42361 70708 11122 21148 39918 49961 53008 84670 333 56440 83708 85359 99116 99117=
0291896640876012017103020554-77850+166667FM-15+002499999V0200701N00931015241CN009999199-01401-02101099681ADDGA1021+002441999GA2021+006101999GA3041+015241999GA4071+024381999GA5071+042671999GE19MSL   +99999+99999GF199999021999002441999999MA1099631099255OC101341REMMET128METAR NZCM 302055Z 07018G26KT 9999 FEW008 FEW020 SCT050 BKN080 BKN140 M14/M21 A2942 RMK ACSL W CCSL NE SLP968 FATA MORGANA W-NW=
0225896640876012017103021004-77850+166667FM-12+002499999V0200701N00931024001CN011000199-01421-02151099681ADDGA1021+002401071GA2051+024001031GA3999+999999011GE19MSL   +99999+99999GF106991021999002401999999MA1099625099241MD1210061+9999REMSYN08889664 42361 60718 11142 21215 39924 49968 52006 83649 333 56440 82708 85358 99116 99117=
0285896640876012017103023554-77850+166667FM-15+002499999V0200601N00721012191CN009999199-01201-02201099781ADDGA1021+003051999GA2021+006101999GA3041+012191999GA4071+024381999GE19MSL   +99999+99999GF199999021999003051999999MA1099731099355OC101131OD149901491060REMMET124METAR NZCM 302355Z 06014G22KT 9999 FEW010 FEW020 SCT040 BKN080 M12/M22 A2945 RMK PK WND 06029/2225 SLP978 FATA MORGANA W-NW=
0269896640876012017103100004-77850+166667FM-12+002499999V0200601N007210240019N011000199-01251-02181099781ADDGA1011+003001071GA2031+012001061GA3051+024001031GE19MSL   +99999+99999GF105991011999003001999999KA1120M-01041KA2120N-01491MA1099725099341MD1310101+9999REMSYN10689664 42461 50614 11125 21218 39934 49978 53010 83630 333 11104 21149 56440 81710 83640 85358 99116 99117=
0194896640876012017103102554-77850+166667FM-15+002499999V0200401N007210061019N009999199-01201-02401099781ADDGA1021+003051999GA2071+006101999GE19MSL   +99999+99999GF199999021999003051999999MA1099731099355MW1711REMMET081METAR NZCM 310255Z 04014KT 9999 -SN FEW010 BKN020 M12/M24 A2945 RMK SNB30 SLP978=
0231896640876012017103103004-77850+166667FM-12+002499999V0200401N00721006001CN011000199-01161-02451099781ADDAY121021AY221021GA1011+003001071GA2061+006001071GE19MSL   +99999+99999GF107991011999003001999999MA1099725099341MD1990001+9999MW1711REMSYN08889664 41461 70414 11116 21245 39934 49978 50000 77122 87700 333 56300 81710 86720 90005=
0184896640876012017103105554-77850+166667FM-15+002499999V0209999V00311030481CN009999199-00901-01501099771ADDGA1021+006101999GA2021+030481999GE19MSL   +99999+99999GF199999021999006101999999MA1099691099355REMMET077METAR NZCM 310555Z VRB06KT 9999 FEW020 FEW100 M09/M15 A2944 RMK SNE05 SLP977=
0225896640876012017103106004-77850+166667FM-12+002499999V0209999V003112200019N011000199-00951-01461099771ADDAY171021AY211021GA1011+006001071GA2999+999999041GE19MSL   +99999+99999GF101991011999006001999999MA1099715099331MD1810011+9999MW1221REMSYN08289664 41561 19906 11095 21146 39933 49977 58001 72271 81710 333 56770 81720 90109=
0173896640876012017103108554-77850+166667FM-15+002499999V0209999C00001006101CN009999199-01001-01801099761ADDGA1071+006101999GE19MSL   +99999+99999GF199999071999006101999999MA1099691099345MW1711REMMET076METAR NZCM 310855Z 00000KT 9999 -SN BKN020 M10/M18 A2944 RMK SNB0730 SLP976=
0209896640876012017103109004-77850+166667FM-12+002499999V0209999C00001006001CN011000199-01041-01771099761ADDAY171021AY211021GA1071+006001071GE19MSL   +99999+99999GF107991071999006001999999MA1099705099321MD1610011+9999MW1711REMSYN08289664 41561 70000 11104 21177 39932 49976 56001 77171 87700 333 56700 87720 90015=
0178896640876012017103111554-77850+166667FM-15+002499999V0203501N004619999999N009999199-01201-01601099741ADDGA1041+006101999GE19MSL   +99999+99999GF199999041999006101999999MA1099691099315REMMET087METAR NZCM 311155Z 35009KT 9999 SCT020 M12/M16 A2944 RMK SNE1000 SLP974 SN DSNT S-W-NW=
0270896640876012017103112004-77850+166667FM-12+002499999V0203501N004612200019N011000199-01191-01641099741ADDAA124000021AY171021AY211021GA1031+006001071GE19MSL   +99999+99999GF103991031999006001999999KA1240M-00891KA2240N-01301MA1099685099301MD1710021+9999MW1151REMSYN10689664 11561 33509 11119 21164 39930 49974 57002 69904 71571 83700 333 11089 21130 56700 83720 90320 96471=
0214896640876012017103117554-77850+166667FM-15+002499999V0200401N005110061019N009999199-01201-01701099851ADDGA1021+003051999GA2071+006101999GE19MSL   +99999+99999GF199999021999003051999999MA1099801099425MW1711REMMET101METAR NZCM 311755Z 04010KT 9999 -SN FEW010 BKN020 M12/M17 A2947 RMK SNB1300 SLP985 FATA MORGANA SE-S=
0202896640876012017103120554-77850+166667FM-15+002499999V0200501N00261012191CN009999199-01101-01701099881ADDGA1021+006101999GA2021+012191999GE19MSL   +99999+99999GF199999021999006101999999MA1099831099455REMMET095METAR NZCM 312055Z 05005KT 9999 FEW020 FEW040 M11/M17 A2948 RMK SNE10 SLP988 FATA MORGANA W-NW=
0209896640876012017103121004-77850+166667FM-12+002499999V0200501N002612200019N011000199+99999+99999099881ADDAY171021AY271021GA1011+006001071GE19MSL   +99999+99999GF102991011999006001999999MA1099825099441MD1110031+9999MW1221REMSYN08289664 41561 20505 39944 49988 51003 72277 82600 333 56400 81720 90108 99116 99117=
0173896640876012017103123554-77850+166667FM-15+002499999V0200901N003119999999N009999199-01201-01901099901ADDGA1021+009141999GE19MSL   +99999+99999GF199999021999009141999999MA1099831099475REMMET082METAR NZCM 312355Z 09006KT 9999 FEW030 M12/M19 A2948 RMK SLP990 FATA MORGANA W-NW=
0155896640876012017110102554-77850+166667FM-15+002499999V0209999V002619999999N009999199-01201-01801099871ADDGA1021+009141999GE19MSL   +99999+99999GF199999021999009141999999MA1099801099445REMMET064METAR NZCM 010255Z VRB05KT 9999 FEW030 M12/M18 A2947 RMK SLP987=
0175896640876012017110103004-77850+166667FM-12+002499999V0209999V002612200019N011000199-01171-01761099871ADDGA1011+009001061GE19MSL   +99999+99999GF101991011999009001999999MA1099815099431MD1710031+9999REMSYN07089664 42561 19905 11117 21176 39943 49987 57003 81500 333 56800 81630=
0177896640876012017110105554-77850+166667FM-15+002499999V0209999C000019999999N009999199-00901-01701099801ADDGA1021+009141999GE19MSL   +99999+99999GF199999021999009141999999MA1099731099385REMMET086METAR NZCM 010555Z 00000KT 9999 FEW030 M09/M17 A2945 RMK SLP980 FATA MORGANA S AND NW=
0187896640876012017110106004-77850+166667FM-12+002499999V0209999C000012200019N011000199-00951-01691099801ADDGA1011+009001061GE19MSL   +99999+99999GF101991011999009001999999MA1099745099361MD1710071+9999REMSYN08289664 42561 10000 11095 21169 39936 49980 57007 81500 333 56800 81630 99114 99117=
0173896640876012017110108554-77850+166667FM-15+002499999V0209999C00001006101CN009999199-01101-01701099721ADDGA1071+006101999GE19MSL   +99999+99999GF199999071999006101999999MA1099661099295MW1711REMMET076METAR NZCM 010855Z 00000KT 9999 -SN BKN020 M11/M17 A2943 RMK SNB0720 SLP972=
0222896640876012017110109004-77850+166667FM-12+002499999V0201101N00621999999CN011000199+99999-01661099721ADDAY171021AY211021GA1062+006001071GE19MSL   +99999+99999GF101992062999006001999999MA1099665099281MD1810081+9999MW1711REMSYN07689664 41561 11112 21166 39928 49972 58008 77171 86700 333 56700 86720 90017=EQDQ01 006003SCOCIG
0165896640876012017110111554-77850+166667FM-15+002499999V0209999C00001006101CN009999199-01201-01701099611ADDGA1071+006101999GE19MSL   +99999+99999GF199999071999006101999999MA1099561099185MW1711REMMET068METAR NZCM 011155Z 00000KT 9999 -SN BKN020 M12/M17 A2940 RMK SLP961=
0283896640876012017110112004-77850+166667FM-12+002499999V0209999C00001006001CN011000199-01181-01671099611ADDAA124999999AY171021AY271021GA1071+006001071GE19MSL   +99999+99999GF107991071999006001999999KA1240M-00671KA2240N-01361MA1099555099171MD1610111+9999MW1711REMSYN10089664 11561 70000 11118 21167 39917 49961 56011 60004 77177 87700 333 11067 21136 56700 87720 90043=EQDQ01  00002PRCP24
0165896640876012017110114554-77850+166667FM-15+002499999V0209999C00001005491CN009999199-01301-01801099451ADDGA1071+005491999GE19MSL   +99999+99999GF199999071999005491999999MA1099391099025MW1711REMMET068METAR NZCM 011455Z 00000KT 9999 -SN BKN018 M13/M18 A2935 RMK SLP945=
0209896640876012017110115004-77850+166667FM-12+002499999V0209999C00001005401CN011000199-01351-01761099451ADDAY171021AY271021GA1071+005401071GE19MSL   +99999+99999GF107991071999005401999999MA1099405099021MD1710151+9999MW1711REMSYN08289664 41461 70000 11135 21176 39902 49945 57015 77177 87700 333 56700 87718 90062=
0165896640876012017110117554-77850+166667FM-15+002499999V0209999C00001003661CN009999199-01301-01701099321ADDGA1081+003661999GE19MSL   +99999+99999GF199999081999003661999999MA1099251098895MW1711REMMET068METAR NZCM 011755Z 00000KT 9999 -SN OVC012 M13/M17 A2931 RMK SLP932=
0209896640876012017110118004-77850+166667FM-12+002499999V0209999C00001003601CN011000199-01311-01691099321ADDAY171021AY271021GA1081+003601071GE19MSL   +99999+99999GF108991081999003601999999MA1099275098891MD1710131+9999MW1711REMSYN08289664 41461 80000 11131 21169 39889 49932 57013 77177 887// 333 56799 88712 90065=
0165896640876012017110120554-77850+166667FM-15+002499999V0209999C00001003051CN009999199-01201-01601099231ADDGA1081+003051999GE19MSL   +99999+99999GF199999081999003051999999MA1099151098805MW1711REMMET068METAR NZCM 012055Z 00000KT 9999 -SN OVC010 M12/M16 A2928 RMK SLP923=
0209896640876012017110121004-77850+166667FM-12+002499999V0209999C00001003001CN011000199-01201-01591099231ADDAY171021AY271021GA1081+003001071GE19MSL   +99999+99999GF108991081999003001999999MA1099185098801MD1710091+9999MW1711REMSYN08289664 41461 80000 11120 21159 39880 49923 57009 77177 887// 333 56799 88710 90067=
0165896640876012017110123554-77850+166667FM-15+002499999V0209999C00001003961CN009999199-01001-01501099141ADDGA1081+003961999GE19MSL   +99999+99999GF199999081999003961999999MA1099091098725MW1711REMMET068METAR NZCM 012355Z 00000KT 9999 -SN OVC013 M10/M15 A2926 RMK SLP914=
0247896640876012017110200004-77850+166667FM-12+002499999V0209999C00001003901CN011000199-01001-01521099141ADDAY171021AY271021GA1081+003901071GE19MSL   +99999+99999GF108991081999003901999999KA1120M-00981KA2120N-01351MA1099095098711MD1710091+9999MW1711REMSYN09489664 41461 80000 11100 21152 39871 49914 57009 77177 887// 333 11098 21135 56799 88713 90067=
0165896640876012017110202554-77850+166667FM-15+002499999V0209999C00001003661CN009999199-01001-01501099101ADDGA1081+003661999GE19MSL   +99999+99999GF199999081999003661999999MA1099051098685MW1711REMMET068METAR NZCM 020255Z 00000KT 9999 -SN OVC012 M10/M15 A2925 RMK SLP910=
0209896640876012017110203004-77850+166667FM-12+002499999V0209999C00001003601CN011000199-00961-01551099101ADDAY171021AY271021GA1081+003601071GE19MSL   +99999+99999GF108991081999003601999999MA1099055098671MD1710041+9999MW1711REMSYN08289664 41461 80000 11096 21155 39867 49910 57004 77177 887// 333 56799 88712 90068=
0165896640876012017110205554-77850+166667FM-15+002499999V0209999C00001003661CN009999199-01101-01601099161ADDGA1071+003661999GE19MSL   +99999+99999GF199999071999003661999999MA1099121098745MW1711REMMET068METAR NZCM 020555Z 00000KT 9999 -SN BKN012 M11/M16 A2927 RMK SLP916=
0209896640876012017110206004-77850+166667FM-12+002499999V0209999C00001003601CN011000199-01121-01571099161ADDAY171021AY271021GA1071+003601071GE19MSL   +99999+99999GF107991071999003601999999MA1099115098731MD1210061+9999MW1711REMSYN08289664 41461 70000 11112 21157 39873 49916 52006 77177 87700 333 56700 87712 90068=
0195896640876012017110208554-77850+166667FM-15+002499999V0209999V00211036581CN009999199-01301-01701099241ADDGA1021+006101999GA2041+036581999GE19MSL   +99999+99999GF199999021999006101999999MA1099191098815REMMET088METAR NZCM 020855Z VRB04KT 9999 FEW020 SCT120 M13/M17 A2929 RMK SNE05 SLP924 SN DSNT NW=
0231896640876012017110209004-77850+166667FM-12+002499999V0209999V002112200019N011000199-01271-01671099241ADDAY171021AY211021GA1011+006001071GA2031+036001021GE19MSL   +99999+99999GF104991011999006001999999MA1099195098811MD1210081+9999MW1221REMSYN08889664 41561 49904 11127 21167 39881 49924 52008 72271 81608 333 56704 81720 83262 90109=
0155896640876012017110211554-77850+166667FM-15+002499999V0209999C000019999999N009999199-01301-01601099261ADDGA1041+036581999GE19MSL   +99999+99999GF199999041999036581999999MA1099221098835REMMET064METAR NZCM 021155Z 00000KT 9999 SCT120 M13/M16 A2930 RMK SLP926=
0230896640876012017110212004-77850+166667FM-12+002499999V0209999C000012200019N011000199-01271-01641099261ADDAA124000021GA1041+036001021GE19MSL   +99999+99999GF104991041999036001999999KA1240M-00871KA2240N-01371MA1099215098831MD1110021+9999REMSYN08889664 12961 40000 11127 21164 39883 49926 51002 69904 80008 333 11087 21137 56004 84262=
0199896640876012017110214554-77850+166667FM-15+002499999V0209999C000010426719N009999199-01401-01801099301ADDGA1021+006101999GA2071+042671999GE19MSL   +99999+99999GF199999021999006101999999MA1099251098875MW1401REMMET086METAR NZCM 021455Z 00000KT 9999 VCFG FEW020 BKN140 M14/M18 A2931 RMK SLP930 VCFG S-SW=
0225896640876012017110215004-77850+166667FM-12+002499999V0209999C00001042001CN011000199-01411-01791099301ADDAY111021AY211021GA1011+006001061GA2071+042001021GE19MSL   +99999+99999GF107991011999006001999999MA1099255098871MD1310041+9999MW1401REMSYN08289664 41561 70000 11141 21179 39887 49930 53004 74011 81508 333 56704 81620 87264=
0230896640876012017110217554-77850+166667FM-15+002499999V0209999V00151003051CN009999199-01401-01801099381ADDGA1071+003051999GA2071+042671999GE19MSL   +99999+99999GF199999071999003051999999MA1099321098955MW1401MW2761REMMET111METAR NZCM 021755Z VRB03KT 9999 IC VCFG BKN010 BKN140 M14/M18 A2933 RMK ICB20 SLP938 VCFG SE-SW FATA MORGANA W=
0237896640876012017110218004-77850+166667FM-12+002499999V0209999V00151003001CN011000199-01421-01781099381ADDAY141021AY221021GA1051+003001061GA2999+999999021GE19MSL   +99999+99999GF107991051999003001999999MA1099335098951MD1110081+9999MW1761REMSYN09489664 41461 79903 11142 21178 39895 49938 51008 77642 85508 333 56704 85610 90007 96040 99116=
0253896640876012017110220554-77850+166667FM-15+002499999V0209999C00001002441CN009999199-01401-01801099431ADDGA1071+002441999GA2071+003051999GA3071+039621999GE19MSL   +99999+99999GF199999071999002441999999MA1099391099005MW1401REMMET124METAR NZCM 022055Z COR 00000KT 9999 VCFG BKN008 BKN010 BKN130 M14/M18 A2935 RMK ICE40 SLP943 VCFG SE-SW-W FATA MORGANA W-NW=
0243896640876012017110221004-77850+166667FM-12+002499999V0209999C000019999999N011000199-01371-01801099431ADDAY171021AY221021GA1041+002401071GA2999+999999021GE19MSL   +99999+99999GF107991041999002401999999MA1099385099001MD1210051+9999MW1401REMSYN10089664 41361 70000 11137 21180 39900 49943 52005 74072 85608 333 56704 84708 90303 96022 99116 99117=
0245896640876012017110223554-77850+166667FM-15+002499999V0209999C00001009141CN009999199-00901-01601099501ADDGA1041+003961999GA2041+009141999GA3071+048771999GE19MSL   +99999+99999GF199999041999003961999999MA1099461099085MW1111REMMET116METAR NZCM 022355Z 00000KT 9999 PRFG SCT013 SCT030 BKN160 M09/M16 A2937 RMK VIS SE-SW-W 3200 SLP950 FATA MORGANA NW=
0269896640876012017110300004-77850+166667FM-12+002499999V0209999C000010480019N011000199-00941-01641099501ADDAY171021AY221021GA1031+003901071GA2071+048001021GE19MSL   +99999+99999GF107991031999003901999999KA1120M-00811KA2120N-01611MA1099455099071MD1210071+9999MW1411REMSYN10089664 41461 70000 11094 21164 39907 49950 52007 74172 84608 333 11081 21161 56704 83713 87266 99117=
0243896640876012017110302554-77850+166667FM-15+002499999V0200801N00261003051CN009999199-01501-02101099581ADDGA1021+001521999GA2021+003051999GA3071+048771999GE19MSL   +99999+99999GF199999021999001521999999MA1099531099155MW1111REMMET114METAR NZCM 030255Z 08005KT 9999 PRFG FEW005 FEW010 BKN160 M15/M21 A2939 RMK VIS SE-SW 3200 SLP958 FATA MORGANA NW=
0231896640876012017110303004-77850+166667FM-12+002499999V0200801N00261048001CN011000199-01461-02071099581ADDAY121021AY221021GA1021+001501071GA2061+048001021GE19MSL   +99999+99999GF106991021999001501999999MA1099525099141MD1310071+9999MW1411REMSYN08889664 41261 60805 11146 21207 39914 49958 53007 74122 82608 333 56704 82705 86266 99117=
0253896640876012017110305554-77850+166667FM-15+002499999V0200801N00261030481CN009999199-01401-01901099641ADDGA1021+003051999GA2021+009141999GA3041+030481999GA4071+048771999GE19MSL   +99999+99999GF199999021999003051999999MA1099591099215REMMET114METAR NZCM 030555Z 08005KT 9999 FEW010 FEW030 SCT100 BKN160 M14/M19 A2941 RMK SLP964 FG DSNT S-SW FATA MORGANA NW=
0253896640876012017110306004-77850+166667FM-12+002499999V0200801N00261030001CN011000199-01431-01911099641ADDAY121021AY221021GA1021+003001071GA2031+030001041GA3051+048001021GE19MSL   +99999+99999GF105991021999003001999999MA1099585099201MD1310061+9999MW1401REMSYN09489664 41461 50805 11143 21191 39920 49964 53006 74022 82628 333 56744 82710 83460 85266 99117=
0244896640876012017110308554-77850+166667FM-15+002499999V0200701N00461030481CN009999199-01501-02401099691ADDGA1021+003051999GA2041+030481999GA3071+042671999GE19MSL   +99999+99999GF199999021999003051999999MA1099631099265MW1401REMMET115METAR NZCM 030855Z 07009KT 9999 VCFG FEW010 SCT100 BKN140 M15/M24 A2942 RMK SLP969 VCFG W FATA MORGANA S-SW AND NW=
0259896640876012017110309004-77850+166667FM-12+002499999V0200701N004619999999N011000199-01471-02391099691ADDAY121021AY221021GA1011+003001071GA2041+030001041GA3999+999999021GE19MSL   +99999+99999GF106991011999003001999999MA1099635099251MD1990051+9999MW1401REMSYN10089664 41461 60709 11147 21239 39925 49969 50005 74022 81618 333 56088 81710 84460 99114 99115 99117=
0229896640876012017110311554-77850+166667FM-15+002499999V0200601N004110426719N009999199-01801-02601099761ADDGA1041+033531999GA2071+042671999GE19MSL   +99999+99999GF199999041999033531999999MA1099691099325MW1361MW2401REMMET110METAR NZCM 031155Z 06008KT 9999 DRSN VCFG SCT110 BKN140 M18/M26 A2944 RMK SLP976 VCFG W FATA MORGANA S AND NW=
0292896640876012017110312004-77850+166667FM-12+002499999V0200601N004119999999N011000199-01841-02651099761ADDAA124000021AY121021AY221021GA1041+033001041GA2999+999999021GE19MSL   +99999+99999GF106991041999033001999999KA1240M-00701KA2240N-01841MA1099705099321MD1210071+9999MW1401REMSYN11289664 11961 60608 11184 21265 39932 49976 52007 69904 74022 84018 333 11070 21184 56088 84461 96036 99114 99117=
0195896640876012017110314554-77850+166667FM-15+002499999V0200601N008210426719N009999199-02001-02601099781ADDGA1041+033531999GA2071+042671999GE19MSL   +99999+99999GF199999041999033531999999MA1099731099345REMMET088METAR NZCM 031455Z 06016KT 9999 SCT110 BKN140 M20/M26 A2945 RMK SLP978 FATA MORGANA S-W=
0215896640876012017110315004-77850+166667FM-12+002499999V0200601N00821042001CN011000199-01971-02631099781ADDGA1031+033001041GA2031+042001021GE19MSL   +99999+99999GF105991031999033001999999MA1099715099331MD1310011+9999REMSYN09489664 42961 50616 11197 21263 39933 49978 53001 83018 333 56088 83461 83264 99114 99115 99116=
0206896640876012017110317554-77850+166667FM-15+002499999V0200701N008210426719N009999199-02101-02701099841ADDGA1021+033531999GA2071+042671999GE19MSL   +99999+99999GF199999021999033531999999MA1099761099405OC101131REMMET091METAR NZCM 031755Z 07016G22KT 9999 FEW110 BKN140 M21/M27 A2946 RMK SLP984 FATA MORGANA S-W=
0215896640876012017110318004-77850+166667FM-12+002499999V0200701N00821042001CN011000199-02071-02731099841ADDGA1021+033001041GA2041+042001021GE19MSL   +99999+99999GF105991021999033001999999MA1099775099391MD1110061+9999REMSYN09489664 42961 50716 11207 21273 39939 49984 51006 82018 333 56088 82461 84264 99154 99145 99156=
0234896640876012017110320554-77850+166667FM-15+002499999V0200701N00671027431CN009999199-01901-02501099841ADDGA1021+015241999GA2041+027431999GA3071+048771999GE19MSL   +99999+99999GF199999021999015241999999MA1099761099405OC101131REMMET103METAR NZCM 032055Z 07013G22KT 9999 FEW050 SCT090 BKN160 M19/M25 A2946 RMK SLP984 FATA MORGANA SE-SW-NW=
0249896640876012017110321004-77850+166667FM-12+002499999V0200701N006710480019N011000199-01911-02501099841ADDGA1011+015001061GA2031+027001041GA3051+048001021GE19MSL   +99999+99999GF105991011999015001999999MA1099785099401MD1990011+9999REMSYN11289664 42761 50713 11191 21250 39940 49984 50001 81518 333 56777 81650 83459 85266 99113 99114 99115 99116 99117=
